{
"type": "FeatureCollection",
"name": "grid",
"crs": { "type": "name", "properties": { "name": "urn:ogc:def:crs:OGC:1.3:CRS84" } },
"features": [
{ "type": "Feature", "properties": { "id": "887a8dcac1fffff", "center": "(46.196286305967476, 6.158612520792636)", "polygon": "[(6.154991798452121, 46.19933826736088), (6.159080889918144, 46.2007500970367), (6.162701473156635, 46.19769821630186), (6.162233181842558, 46.19323433999983), (6.158144088611189, 46.19182227536542), (6.154523288446502, 46.19487432198439)]", "points": "[(6.15551684, 46.19852957), (6.15543599, 46.19846117), (6.156351, 46.198811), (6.155174, 46.198158), (6.156489, 46.199039), (6.1555378, 46.1990404)]" }, "geometry": { "type": "Polygon", "coordinates": [ [ [ 6.158144088611189, 46.191822275365418 ], [ 6.154523288446502, 46.194874321984393 ], [ 6.154991798452121, 46.199338267360879 ], [ 6.159080889918144, 46.200750097036703 ], [ 6.162701473156635, 46.197698216301859 ], [ 6.162233181842558, 46.193234339999833 ], [ 6.158144088611189, 46.191822275365418 ] ] ] } },
{ "type": "Feature", "properties": { "id": "887a8dc127fffff", "center": "(46.20544217635576, 6.147750170132522)", "polygon": "[(6.14412926427007, 46.20849412392262), (6.148218772859082, 46.20990571157614), (6.151839539711057, 46.206853844691146), (6.151371014879306, 46.20239022416275), (6.147281504395178, 46.20097840150568), (6.1436605206251835, 46.20403043437336)]", "points": "[(6.14383874, 46.20391391), (6.14464722, 46.20365901), (6.14781828, 46.20146429), (6.15094441, 46.20337301), (6.14718047, 46.20311189), (6.14850998, 46.20398852), (6.1483932, 46.20409421), (6.14740505, 46.20301863), (6.14692894, 46.20320515), (6.14699183, 46.20734569), (6.14735115, 46.20703485), (6.14665047, 46.20760679), (6.144948, 46.207363), (6.149011, 46.208015), (6.150882, 46.204964), (6.150186, 46.20467), (6.146542, 46.207912), (6.150015, 46.204784), (6.151448, 46.203381), (6.148441, 46.203964), (6.148322, 46.20414), (6.149116, 46.208286), (6.150798, 46.203453), (6.143751, 46.204456), (6.144637, 46.203716), (6.143879, 46.203976), (6.149666, 46.202534), (6.149612, 46.202541), (6.148756, 46.208107), (6.149528, 46.2041793), (6.147013, 46.2046831), (6.1460944, 46.2041587), (6.1447417, 46.2064075), (6.1488421, 46.2080078), (6.1514251, 46.2031806), (6.1473036, 46.2069193), (6.1481548, 46.2040222), (6.1473478, 46.2023685), (6.1488988, 46.2032448), (6.1464734, 46.2067751), (6.1465002, 46.2077679), (6.1441195, 46.2068767), (6.1463984, 46.2084035), (6.1448973, 46.2072301)]" }, "geometry": { "type": "Polygon", "coordinates": [ [ [ 6.147281504395178, 46.200978401505679 ], [ 6.143660520625184, 46.204030434373358 ], [ 6.14412926427007, 46.20849412392262 ], [ 6.148218772859082, 46.209905711576141 ], [ 6.151839539711057, 46.206853844691146 ], [ 6.151371014879306, 46.202390224162748 ], [ 6.147281504395178, 46.200978401505679 ] ] ] } },
{ "type": "Feature", "properties": { "id": "887a8dcac9fffff", "center": "(46.19792636403692, 6.1509024270217285)", "polygon": "[(6.147281504395178, 46.20097840150568), (6.151371014879306, 46.20239022416275), (6.154991798452121, 46.19933826736088), (6.154523288446502, 46.19487432198439), (6.150433776138582, 46.193462264348604), (6.146812775647331, 46.196514387060795)]", "points": "[(6.14835727, 46.19958036), (6.14749488, 46.19842386), (6.15206731, 46.20165703), (6.15185171, 46.20163216), (6.1489232, 46.1981565), (6.14869863, 46.19818137), (6.14860879, 46.19837412), (6.14909388, 46.1982622), (6.14956999, 46.19836168), (6.14878846, 46.19846117), (6.14852795, 46.20013995), (6.15277698, 46.19841764), (6.15384597, 46.19724247), (6.15114204, 46.1996301), (6.15165408, 46.19986016), (6.15069289, 46.19940005), (6.15171696, 46.19765907), (6.15094441, 46.19992855), (6.14819557, 46.20083632), (6.14860879, 46.20015239), (6.15280393, 46.19841764), (6.15169002, 46.1976342), (6.15098035, 46.1999099), (6.14784523, 46.2004757), (6.1477, 46.199665), (6.147563, 46.200542), (6.148766, 46.198479), (6.149223, 46.198833), (6.148546, 46.198406), (6.147391, 46.198502), (6.148572, 46.197697), (6.149695, 46.196655), (6.153919, 46.19788), (6.154004, 46.197998), (6.147648, 46.19968), (6.147545, 46.198769), (6.151813, 46.201645), (6.1484456, 46.2000917), (6.1506667, 46.2016987), (6.147423, 46.1986323), (6.1518549, 46.199425), (6.1494832, 46.1988497), (6.1530576, 46.1971196), (6.1486306, 46.1967467), (6.1502622, 46.198398), (6.1482805, 46.1977578), (6.1471238, 46.1979739), (6.151061, 46.1978841), (6.1478058, 46.197339), (6.1512172, 46.1971742)]" }, "geometry": { "type": "Polygon", "coordinates": [ [ [ 6.150433776138582, 46.193462264348604 ], [ 6.146812775647331, 46.196514387060795 ], [ 6.147281504395178, 46.200978401505679 ], [ 6.151371014879306, 46.202390224162748 ], [ 6.154991798452121, 46.199338267360879 ], [ 6.154523288446502, 46.194874321984393 ], [ 6.150433776138582, 46.193462264348604 ] ] ] } },
{ "type": "Feature", "properties": { "id": "887a8dc123fffff", "center": "(46.199566505197005, 6.143191713984843)", "polygon": "[(6.139570591209427, 46.2026186187399), (6.1436605206251835, 46.20403043437336), (6.147281504395178, 46.20097840150568), (6.146812775647331, 46.196514387060795), (6.1427228443493345, 46.19510233642845), (6.139101643668689, 46.19815453523265)]", "points": "[(6.14251822, 46.20332949), (6.14373992, 46.20392635), (6.14294042, 46.20238446), (6.14656063, 46.20105393), (6.1441801, 46.20119693), (6.14385671, 46.20099176), (6.14329975, 46.2006871), (6.14464722, 46.20096689), (6.14424298, 46.20126533), (6.14399145, 46.20152646), (6.14712657, 46.19988503), (6.14688403, 46.19989746), (6.1466864, 46.20009021), (6.14185346, 46.20217307), (6.14181753, 46.20207359), (6.14187143, 46.20234716), (6.14166482, 46.20188085), (6.14662352, 46.20109124), (6.143731, 46.20396), (6.145571, 46.197765), (6.143676, 46.198368), (6.142996, 46.199913), (6.142733, 46.202274), (6.14124, 46.201614), (6.146719, 46.200092), (6.143872, 46.198837), (6.143776, 46.198475), (6.144065, 46.201393), (6.144033, 46.201412), (6.143541, 46.201492), (6.141693, 46.202175), (6.142825, 46.202328), (6.142744, 46.202877), (6.142493, 46.200184), (6.142854, 46.202396), (6.142707, 46.202934), (6.144725, 46.198269), (6.145861, 46.197586), (6.146706, 46.200077), (6.1436, 46.201), (6.144029, 46.201504), (6.143519, 46.202244), (6.143638, 46.201061), (6.143353, 46.200901), (6.1433116, 46.2038067), (6.1429661, 46.1996601), (6.1414002, 46.2028401), (6.1438301, 46.2017625), (6.1441602, 46.1987529), (6.1429667, 46.200731), (6.143123, 46.2018665), (6.1416152, 46.2025527), (6.1424538, 46.201362), (6.1417383, 46.201206), (6.1462508, 46.1974452)]" }, "geometry": { "type": "Polygon", "coordinates": [ [ [ 6.142722844349334, 46.195102336428448 ], [ 6.139101643668689, 46.198154535232653 ], [ 6.139570591209427, 46.202618618739898 ], [ 6.143660520625184, 46.204030434373358 ], [ 6.147281504395178, 46.200978401505679 ], [ 6.146812775647331, 46.196514387060795 ], [ 6.142722844349334, 46.195102336428448 ] ] ] } },
{ "type": "Feature", "properties": { "id": "887a8dc121fffff", "center": "(46.20708246262266, 6.140039475770065)", "polygon": "[(6.136418369888147, 46.21013448623624), (6.140508297350288, 46.21154606684601), (6.14412926427007, 46.20849412392262), (6.1436605206251835, 46.20403043437336), (6.139570591209427, 46.2026186187399), (6.1359494073794405, 46.20567072767218)]", "points": "[(6.14304822, 46.20472836), (6.14346145, 46.20487135), (6.14345246, 46.20452941), (6.14297636, 46.20506408), (6.14206008, 46.2042372), (6.143211, 46.204281), (6.142167, 46.205688), (6.143483, 46.204826), (6.143449, 46.204601), (6.143086, 46.204651), (6.14305, 46.205036), (6.143477, 46.204845), (6.141438, 46.203651), (6.1427931, 46.2057147)]" }, "geometry": { "type": "Polygon", "coordinates": [ [ [ 6.139570591209427, 46.202618618739898 ], [ 6.135949407379441, 46.205670727672178 ], [ 6.136418369888147, 46.210134486236242 ], [ 6.140508297350288, 46.211546066846012 ], [ 6.14412926427007, 46.20849412392262 ], [ 6.143660520625184, 46.204030434373358 ], [ 6.139570591209427, 46.202618618739898 ] ] ] } },
{ "type": "Feature", "properties": { "id": "887a8dcacdfffff", "center": "(46.20380197317223, 6.155460245416853)", "polygon": "[(6.151839539711057, 46.206853844691146), (6.155928629340418, 46.208265439383574), (6.159549195987431, 46.20521364853821), (6.159080889918144, 46.2007500970367), (6.154991798452121, 46.19933826736088), (6.151371014879306, 46.20239022416275)]", "points": "[(6.15281291, 46.2018622), (6.15272308, 46.2016819), (6.15286681, 46.2017192), (6.15225595, 46.20190572), (6.1524446, 46.20191816), (6.15349563, 46.20143942), (6.1535136, 46.20150159), (6.15350461, 46.2020052), (6.1539358, 46.20263937), (6.15355851, 46.20282589), (6.15151934, 46.20339788), (6.15151035, 46.20337301), (6.15601091, 46.2022912), (6.15541802, 46.20255855), (6.15578633, 46.20235959), (6.15658583, 46.20232229), (6.15578633, 46.20179381), (6.15690923, 46.20175029), (6.15555277, 46.20250259), (6.15801415, 46.2038393), (6.15748415, 46.20352223), (6.15854416, 46.20410664), (6.15641515, 46.2010788), (6.15647804, 46.20098554), (6.15590311, 46.20114719), (6.15520243, 46.20073062), (6.15574142, 46.20096689), (6.15822077, 46.20069953), (6.15311, 46.203026), (6.15611, 46.204052), (6.153389, 46.20126), (6.15749, 46.201778), (6.15402, 46.202663), (6.153457, 46.202789), (6.153372, 46.201313), (6.15352, 46.202869), (6.154483, 46.203773), (6.153717, 46.202553), (6.155128, 46.205276), (6.157694, 46.201733), (6.153603, 46.20155), (6.152692, 46.20171), (6.15364, 46.202446), (6.152286, 46.201912), (6.15359, 46.202091), (6.15366, 46.202648), (6.153061, 46.201443), (6.151844, 46.203289), (6.155241, 46.200729), (6.155883, 46.201035), (6.156063, 46.201054), (6.157975, 46.200764), (6.1530625, 46.2014375), (6.1578497, 46.2053158), (6.1538102, 46.2016212), (6.1558235, 46.2012952), (6.1563643, 46.2023076), (6.1525064, 46.2027213), (6.1576766, 46.2023365), (6.1586265, 46.2035996), (6.1555808, 46.2031314), (6.1541791, 46.2029882), (6.15607, 46.2039075), (6.1587204, 46.2032123)]" }, "geometry": { "type": "Polygon", "coordinates": [ [ [ 6.154991798452121, 46.199338267360879 ], [ 6.151371014879306, 46.202390224162748 ], [ 6.151839539711057, 46.206853844691146 ], [ 6.155928629340418, 46.208265439383574 ], [ 6.159549195987431, 46.205213648538212 ], [ 6.159080889918144, 46.200750097036703 ], [ 6.154991798452121, 46.199338267360879 ] ] ] } }
]
}
