{
"type": "FeatureCollection",
"name": "itineraries",
"crs": { "type": "name", "properties": { "name": "urn:ogc:def:crs:OGC:1.3:CRS84" } },
"features": [
{ "type": "Feature", "properties": { "route_id": "91-12-B-j26-1", "direction_id": 0, "trip_id": "1000.TA.91-12-B-j26-1.13.H", "headsign": "Thônex, Moillesulaz", "route_short_name": "12", "route_long_name": "", "route_type": 0, "color": "F5A300", "text_color": "000000" }, "geometry": { "type": "LineString", "coordinates": [ [ 6.14385671, 46.20099176 ], [ 6.14464722, 46.20365901 ], [ 6.14740505, 46.20301863 ], [ 6.15286681, 46.2017192 ], [ 6.15647804, 46.20098554 ] ] } },
{ "type": "Feature", "properties": { "route_id": "91-18-j26-1", "direction_id": 1, "trip_id": "1001.TA.91-18-j26-1.42.R", "headsign": "Grand-Lancy, Palettes", "route_short_name": "18", "route_long_name": "", "route_type": 0, "color": "B82F89", "text_color": "FFFFFF" }, "geometry": { "type": "LineString", "coordinates": [ [ 6.14345246, 46.20452941 ], [ 6.14329975, 46.2006871 ] ] } },
{ "type": "Feature", "properties": { "route_id": "92-10-H-j25-1", "direction_id": 0, "trip_id": "1.TA.92-10-H-j25-1.1.H", "headsign": "Genève, Rive", "route_short_name": "10", "route_long_name": "", "route_type": 3, "color": "006E3D", "text_color": "FFFFFF" }, "geometry": { "type": "LineString", "coordinates": [ [ 6.14187143, 46.20234716 ], [ 6.14464722, 46.20365901 ], [ 6.14740505, 46.20301863 ], [ 6.15272308, 46.2016819 ] ] } },
{ "type": "Feature", "properties": { "route_id": "92-10-H-j25-1", "direction_id": 1, "trip_id": "1000.TA.92-10-H-j25-1.18.R", "headsign": "Genève-Aéroport, Terminal", "route_short_name": "10", "route_long_name": "", "route_type": 3, "color": "006E3D", "text_color": "FFFFFF" }, "geometry": { "type": "LineString", "coordinates": [ [ 6.14187143, 46.20234716 ], [ 6.14297636, 46.20506408 ] ] } },
{ "type": "Feature", "properties": { "route_id": "92-10-H-j26-1", "direction_id": 0, "trip_id": "1.TA.92-10-H-j26-1.1.H", "headsign": "Genève, Rive", "route_short_name": "10", "route_long_name": "", "route_type": 3, "color": "006E3D", "text_color": "FFFFFF" }, "geometry": { "type": "LineString", "coordinates": [ [ 6.14187143, 46.20234716 ], [ 6.14464722, 46.20365901 ], [ 6.14740505, 46.20301863 ], [ 6.15272308, 46.2016819 ] ] } },
{ "type": "Feature", "properties": { "route_id": "92-10-H-j26-1", "direction_id": 1, "trip_id": "381.TA.92-10-H-j26-1.8.R", "headsign": "Genève, Bel-Air", "route_short_name": "10", "route_long_name": "", "route_type": 3, "color": "006E3D", "text_color": "FFFFFF" }, "geometry": { "type": "LineString", "coordinates": [ [ 6.15281291, 46.2018622 ], [ 6.15601091, 46.2022912 ], [ 6.15151934, 46.20339788 ], [ 6.14718047, 46.20311189 ], [ 6.14304822, 46.20472836 ] ] } },
{ "type": "Feature", "properties": { "route_id": "92-19-C-j25-1", "direction_id": 0, "trip_id": "1.TA.92-19-C-j25-1.1.H", "headsign": "Genève, Jonction", "route_short_name": "19", "route_long_name": "", "route_type": 3, "color": "A05909", "text_color": "FFFFFF" }, "geometry": { "type": "LineString", "coordinates": [ [ 6.14304822, 46.20472836 ], [ 6.14185346, 46.20217307 ] ] } },
{ "type": "Feature", "properties": { "route_id": "92-19-C-j26-1", "direction_id": 0, "trip_id": "10.TA.92-19-C-j26-1.1.H", "headsign": "Genève, Jonction", "route_short_name": "19", "route_long_name": "", "route_type": 3, "color": "A05909", "text_color": "FFFFFF" }, "geometry": { "type": "LineString", "coordinates": [ [ 6.14304822, 46.20472836 ], [ 6.14185346, 46.20217307 ] ] } },
{ "type": "Feature", "properties": { "route_id": "92-1-S-j26-1", "direction_id": 0, "trip_id": "10.TA.92-1-S-j26-1.21.H", "headsign": "Genève, Plainpalais", "route_short_name": "1", "route_long_name": "", "route_type": 3, "color": "5A1E82", "text_color": "FFFFFF" }, "geometry": { "type": "LineString", "coordinates": [ [ 6.15350461, 46.2020052 ], [ 6.15520243, 46.20073062 ], [ 6.15543599, 46.19846117 ], [ 6.15384597, 46.19724247 ] ] } },
{ "type": "Feature", "properties": { "route_id": "92-1-S-j26-1", "direction_id": 1, "trip_id": "337.TA.92-1-S-j26-1.29.R", "headsign": "Genève, Rive", "route_short_name": "1", "route_long_name": "", "route_type": 3, "color": "5A1E82", "text_color": "FFFFFF" }, "geometry": { "type": "LineString", "coordinates": [ [ 6.15574142, 46.20096689 ], [ 6.15541802, 46.20255855 ], [ 6.15350461, 46.2020052 ] ] } },
{ "type": "Feature", "properties": { "route_id": "92-20-B-j26-1", "direction_id": 0, "trip_id": "100.TA.92-20-B-j26-1.6.H", "headsign": "Bellevue GE, Valavran", "route_short_name": "20", "route_long_name": "", "route_type": 3, "color": "00A828", "text_color": "FFFFFF" }, "geometry": { "type": "LineString", "coordinates": [ [ 6.14860879, 46.19837412 ], [ 6.1466864, 46.20009021 ], [ 6.14424298, 46.20126533 ], [ 6.14297636, 46.20506408 ] ] } },
{ "type": "Feature", "properties": { "route_id": "92-20-B-j26-1", "direction_id": 1, "trip_id": "256.TA.92-20-B-j26-1.8.R", "headsign": "Veyrier, Tournettes", "route_short_name": "20", "route_long_name": "", "route_type": 3, "color": "00A828", "text_color": "FFFFFF" }, "geometry": { "type": "LineString", "coordinates": [ [ 6.14304822, 46.20472836 ], [ 6.14294042, 46.20238446 ], [ 6.1441801, 46.20119693 ], [ 6.14712657, 46.19988503 ], [ 6.1489232, 46.1981565 ] ] } },
{ "type": "Feature", "properties": { "route_id": "92-25-D-j25-1", "direction_id": 0, "trip_id": "1.TA.92-25-D-j25-1.1.H", "headsign": "Genève, Jardin Botanique", "route_short_name": "25", "route_long_name": "", "route_type": 3, "color": "A05909", "text_color": "FFFFFF" }, "geometry": { "type": "LineString", "coordinates": [ [ 6.15641515, 46.2010788 ], [ 6.15601091, 46.2022912 ], [ 6.15151934, 46.20339788 ], [ 6.14699183, 46.20734569 ] ] } },
{ "type": "Feature", "properties": { "route_id": "92-25-D-j26-1", "direction_id": 0, "trip_id": "10.TA.92-25-D-j26-1.2.H", "headsign": "Genève, Jardin Botanique", "route_short_name": "25", "route_long_name": "", "route_type": 3, "color": "A05909", "text_color": "FFFFFF" }, "geometry": { "type": "LineString", "coordinates": [ [ 6.15574142, 46.20096689 ], [ 6.15541802, 46.20255855 ], [ 6.15151035, 46.20337301 ], [ 6.14665047, 46.20760679 ] ] } },
{ "type": "Feature", "properties": { "route_id": "92-25-D-j26-1", "direction_id": 1, "trip_id": "322.TA.92-25-D-j26-1.11.R", "headsign": "Thônex, Vallard", "route_short_name": "25", "route_long_name": "", "route_type": 3, "color": "A05909", "text_color": "FFFFFF" }, "geometry": { "type": "LineString", "coordinates": [ [ 6.15206731, 46.20165703 ], [ 6.15578633, 46.20235959 ], [ 6.15520243, 46.20073062 ] ] } },
{ "type": "Feature", "properties": { "route_id": "92-29-B-j25-1", "direction_id": 0, "trip_id": "1.TA.92-29-B-j25-1.1.H", "headsign": "Creux-de-Genthod, gare", "route_short_name": "29", "route_long_name": "", "route_type": 3, "color": "F5B4D2", "text_color": "000000" }, "geometry": { "type": "LineString", "coordinates": [ [ 6.1524446, 46.20191816 ], [ 6.15151035, 46.20337301 ] ] } },
{ "type": "Feature", "properties": { "route_id": "92-29-B-j25-1", "direction_id": 1, "trip_id": "273.TA.92-29-B-j25-1.7.R", "headsign": "Genève, Rive", "route_short_name": "29", "route_long_name": "", "route_type": 3, "color": "F5B4D2", "text_color": "000000" }, "geometry": { "type": "LineString", "coordinates": [ [ 6.15151934, 46.20339788 ], [ 6.15281291, 46.2018622 ] ] } },
{ "type": "Feature", "properties": { "route_id": "92-2-Q-j25-1", "direction_id": 0, "trip_id": "1.TA.92-2-Q-j25-1.1.H", "headsign": "Genève, Jonction", "route_short_name": "2", "route_long_name": "", "route_type": 3, "color": "D2DB4A", "text_color": "000000" }, "geometry": { "type": "LineString", "coordinates": [ [ 6.14304822, 46.20472836 ], [ 6.14185346, 46.20217307 ] ] } },
{ "type": "Feature", "properties": { "route_id": "92-2-Q-j25-1", "direction_id": 1, "trip_id": "1238.TA.92-2-Q-j25-1.18.R", "headsign": "Genève, Plage", "route_short_name": "2", "route_long_name": "", "route_type": 3, "color": "D2DB4A", "text_color": "000000" }, "geometry": { "type": "LineString", "coordinates": [ [ 6.14187143, 46.20234716 ], [ 6.14464722, 46.20365901 ], [ 6.14740505, 46.20301863 ], [ 6.15272308, 46.2016819 ], [ 6.15854416, 46.20410664 ] ] } },
{ "type": "Feature", "properties": { "route_id": "92-2-Q-j26-1", "direction_id": 0, "trip_id": "10.TA.92-2-Q-j26-1.1.H", "headsign": "Genève, Jonction", "route_short_name": "2", "route_long_name": "", "route_type": 3, "color": "D2DB4A", "text_color": "000000" }, "geometry": { "type": "LineString", "coordinates": [ [ 6.14304822, 46.20472836 ], [ 6.14185346, 46.20217307 ] ] } },
{ "type": "Feature", "properties": { "route_id": "92-2-Q-j26-1", "direction_id": 1, "trip_id": "448.TA.92-2-Q-j26-1.30.R", "headsign": "Genève, Plage", "route_short_name": "2", "route_long_name": "", "route_type": 3, "color": "D2DB4A", "text_color": "000000" }, "geometry": { "type": "LineString", "coordinates": [ [ 6.14187143, 46.20234716 ], [ 6.14464722, 46.20365901 ], [ 6.14740505, 46.20301863 ], [ 6.15272308, 46.2016819 ], [ 6.15854416, 46.20410664 ] ] } },
{ "type": "Feature", "properties": { "route_id": "92-33-F-j25-1", "direction_id": 0, "trip_id": "1.TA.92-33-F-j25-1.1.H", "headsign": "Puplinge, Marquis", "route_short_name": "33", "route_long_name": "", "route_type": 3, "color": "00B0A4", "text_color": "FFFFFF" }, "geometry": { "type": "LineString", "coordinates": [ [ 6.15281291, 46.2018622 ], [ 6.15601091, 46.2022912 ] ] } },
{ "type": "Feature", "properties": { "route_id": "92-33-F-j25-1", "direction_id": 1, "trip_id": "1000.TA.92-33-F-j25-1.20.R", "headsign": "Genève, Rive", "route_short_name": "33", "route_long_name": "", "route_type": 3, "color": "00B0A4", "text_color": "FFFFFF" }, "geometry": { "type": "LineString", "coordinates": [ [ 6.15541802, 46.20255855 ], [ 6.15350461, 46.2020052 ] ] } },
{ "type": "Feature", "properties": { "route_id": "92-33-F-j26-1", "direction_id": 0, "trip_id": "1.TA.92-33-F-j26-1.1.H", "headsign": "Puplinge, Marquis", "route_short_name": "33", "route_long_name": "", "route_type": 3, "color": "00B0A4", "text_color": "FFFFFF" }, "geometry": { "type": "LineString", "coordinates": [ [ 6.15281291, 46.2018622 ], [ 6.15601091, 46.2022912 ] ] } },
{ "type": "Feature", "properties": { "route_id": "92-33-F-j26-1", "direction_id": 1, "trip_id": "155.TA.92-33-F-j26-1.5.R", "headsign": "Genève, Rive", "route_short_name": "33", "route_long_name": "", "route_type": 3, "color": "00B0A4", "text_color": "FFFFFF" }, "geometry": { "type": "LineString", "coordinates": [ [ 6.15541802, 46.20255855 ], [ 6.15350461, 46.2020052 ] ] } },
{ "type": "Feature", "properties": { "route_id": "92-3-P-j26-1", "direction_id": 0, "trip_id": "10.TA.92-3-P-j26-1.1.H", "headsign": "Genève, Crêts-de-Champel", "route_short_name": "3", "route_long_name": "", "route_type": 3, "color": "B82F89", "text_color": "FFFFFF" }, "geometry": { "type": "LineString", "coordinates": [ [ 6.14187143, 46.20234716 ], [ 6.14294042, 46.20238446 ], [ 6.14464722, 46.20096689 ], [ 6.14688403, 46.19989746 ], [ 6.14869863, 46.19818137 ] ] } },
{ "type": "Feature", "properties": { "route_id": "92-3-P-j26-1", "direction_id": 1, "trip_id": "1006.TA.92-3-P-j26-1.20.R", "headsign": "Grand-Saconnex, Gardiol", "route_short_name": "3", "route_long_name": "", "route_type": 3, "color": "B82F89", "text_color": "FFFFFF" }, "geometry": { "type": "LineString", "coordinates": [ [ 6.14860879, 46.19837412 ], [ 6.1466864, 46.20009021 ], [ 6.14424298, 46.20126533 ], [ 6.14297636, 46.20506408 ] ] } },
{ "type": "Feature", "properties": { "route_id": "92-5-P-j26-1", "direction_id": 1, "trip_id": "334.TA.92-5-P-j26-1.17.R", "headsign": "Thônex, Vallard", "route_short_name": "5", "route_long_name": "", "route_type": 3, "color": "00ACE7", "text_color": "FFFFFF" }, "geometry": { "type": "LineString", "coordinates": [ [ 6.14304822, 46.20472836 ], [ 6.14294042, 46.20238446 ], [ 6.1441801, 46.20119693 ], [ 6.14712657, 46.19988503 ], [ 6.1489232, 46.1981565 ] ] } },
{ "type": "Feature", "properties": { "route_id": "92-6-N-j25-1", "direction_id": 0, "trip_id": "1.TA.92-6-N-j25-1.1.H", "headsign": "Genève, Molard", "route_short_name": "6", "route_long_name": "", "route_type": 3, "color": "008CBE", "text_color": "FFFFFF" }, "geometry": { "type": "LineString", "coordinates": [ [ 6.14699183, 46.20734569 ], [ 6.14718047, 46.20311189 ] ] } },
{ "type": "Feature", "properties": { "route_id": "92-6-N-j26-1", "direction_id": 0, "trip_id": "10.TA.92-6-N-j26-1.1.H", "headsign": "Genève, Molard", "route_short_name": "6", "route_long_name": "", "route_type": 3, "color": "008CBE", "text_color": "FFFFFF" }, "geometry": { "type": "LineString", "coordinates": [ [ 6.14699183, 46.20734569 ], [ 6.14718047, 46.20311189 ] ] } },
{ "type": "Feature", "properties": { "route_id": "92-6-N-j26-1", "direction_id": 1, "trip_id": "360.TA.92-6-N-j26-1.9.R", "headsign": "Vernier, village", "route_short_name": "6", "route_long_name": "", "route_type": 3, "color": "008CBE", "text_color": "FFFFFF" }, "geometry": { "type": "LineString", "coordinates": [ [ 6.15801415, 46.2038393 ], [ 6.15601091, 46.2022912 ], [ 6.15151934, 46.20339788 ], [ 6.14699183, 46.20734569 ] ] } },
{ "type": "Feature", "properties": { "route_id": "92-7-M-j25-1", "direction_id": 1, "trip_id": "1000.TA.92-7-M-j25-1.29.R", "headsign": "Genève, Bout-du-Monde", "route_short_name": "7", "route_long_name": "", "route_type": 3, "color": "00A828", "text_color": "FFFFFF" }, "geometry": { "type": "LineString", "coordinates": [ [ 6.14464722, 46.20365901 ], [ 6.14740505, 46.20301863 ], [ 6.15272308, 46.2016819 ], [ 6.15069289, 46.19940005 ], [ 6.14909388, 46.1982622 ] ] } },
{ "type": "Feature", "properties": { "route_id": "92-7-M-j26-1", "direction_id": 0, "trip_id": "1.TA.92-7-M-j26-1.1.H", "headsign": "Genève, Bel-Air", "route_short_name": "7", "route_long_name": "", "route_type": 3, "color": "00A828", "text_color": "FFFFFF" }, "geometry": { "type": "LineString", "coordinates": [ [ 6.1489232, 46.1981565 ], [ 6.15114204, 46.1996301 ], [ 6.15281291, 46.2018622 ], [ 6.15151934, 46.20339788 ], [ 6.14718047, 46.20311189 ], [ 6.14304822, 46.20472836 ] ] } },
{ "type": "Feature", "properties": { "route_id": "92-8-I-j25-1", "direction_id": 0, "trip_id": "1.TA.92-8-I-j25-1.1.H", "headsign": "Chêne-Bougeries, Conches place", "route_short_name": "8", "route_long_name": "", "route_type": 3, "color": "84471C", "text_color": "FFFFFF" }, "geometry": { "type": "LineString", "coordinates": [ [ 6.15185171, 46.20163216 ], [ 6.15543599, 46.19846117 ] ] } },
{ "type": "Feature", "properties": { "route_id": "92-8-I-j25-1", "direction_id": 1, "trip_id": "1399.TA.92-8-I-j25-1.25.R", "headsign": "Genève, Rive", "route_short_name": "8", "route_long_name": "", "route_type": 3, "color": "84471C", "text_color": "FFFFFF" }, "geometry": { "type": "LineString", "coordinates": [ [ 6.15574142, 46.20096689 ], [ 6.15541802, 46.20255855 ], [ 6.15185171, 46.20163216 ] ] } },
{ "type": "Feature", "properties": { "route_id": "92-8-I-j26-1", "direction_id": 0, "trip_id": "1.TA.92-8-I-j26-1.1.H", "headsign": "Chêne-Bougeries, Conches place", "route_short_name": "8", "route_long_name": "", "route_type": 3, "color": "84471C", "text_color": "FFFFFF" }, "geometry": { "type": "LineString", "coordinates": [ [ 6.15185171, 46.20163216 ], [ 6.15543599, 46.19846117 ] ] } },
{ "type": "Feature", "properties": { "route_id": "92-8-I-j26-1", "direction_id": 1, "trip_id": "267.TA.92-8-I-j26-1.11.R", "headsign": "Genève, Rive", "route_short_name": "8", "route_long_name": "", "route_type": 3, "color": "84471C", "text_color": "FFFFFF" }, "geometry": { "type": "LineString", "coordinates": [ [ 6.15574142, 46.20096689 ], [ 6.15541802, 46.20255855 ], [ 6.15185171, 46.20163216 ] ] } },
{ "type": "Feature", "properties": { "route_id": "92-92-D-j25-1", "direction_id": 0, "trip_id": "1.TA.92-92-D-j25-1.1.H", "headsign": "Genève, Place de Neuve", "route_short_name": "92", "route_long_name": "", "route_type": 3, "color": "89CBBE", "text_color": "000000" }, "geometry": { "type": "LineString", "coordinates": [ [ 6.14464722, 46.20365901 ], [ 6.14740505, 46.20301863 ], [ 6.15272308, 46.2016819 ], [ 6.15094441, 46.19992855 ], [ 6.15277698, 46.19841764 ], [ 6.15171696, 46.19765907 ], [ 6.14749488, 46.19842386 ], [ 6.14835727, 46.19958036 ], [ 6.14852795, 46.20013995 ], [ 6.14819557, 46.20083632 ], [ 6.14781828, 46.20146429 ], [ 6.14656063, 46.20105393 ], [ 6.14399145, 46.20152646 ] ] } },
{ "type": "Feature", "properties": { "route_id": "92-92-D-j26-1", "direction_id": 0, "trip_id": "1.TA.92-92-D-j26-1.1.H", "headsign": "Genève, Place de Neuve", "route_short_name": "92", "route_long_name": "", "route_type": 3, "color": "89CBBE", "text_color": "000000" }, "geometry": { "type": "LineString", "coordinates": [ [ 6.14464722, 46.20365901 ], [ 6.14740505, 46.20301863 ], [ 6.15272308, 46.2016819 ], [ 6.15094441, 46.19992855 ], [ 6.15277698, 46.19841764 ], [ 6.15171696, 46.19765907 ], [ 6.14749488, 46.19842386 ], [ 6.14835727, 46.19958036 ], [ 6.14852795, 46.20013995 ], [ 6.14819557, 46.20083632 ], [ 6.14781828, 46.20146429 ], [ 6.14656063, 46.20105393 ], [ 6.14399145, 46.20152646 ] ] } },
{ "type": "Feature", "properties": { "route_id": "92-9-L-j26-1", "direction_id": 0, "trip_id": "10.TA.92-9-L-j26-1.19.H", "headsign": "Vernier, Lignon Tours", "route_short_name": "9", "route_long_name": "", "route_type": 3, "color": "E2001D", "text_color": "FFFFFF" }, "geometry": { "type": "LineString", "coordinates": [ [ 6.15601091, 46.2022912 ], [ 6.15151934, 46.20339788 ], [ 6.14699183, 46.20734569 ] ] } },
{ "type": "Feature", "properties": { "route_id": "92-9-L-j26-1", "direction_id": 1, "trip_id": "334.TA.92-9-L-j26-1.27.R", "headsign": "Thônex, Belle-Terre Pl. Araire", "route_short_name": "9", "route_long_name": "", "route_type": 3, "color": "E2001D", "text_color": "FFFFFF" }, "geometry": { "type": "LineString", "coordinates": [ [ 6.14699183, 46.20734569 ], [ 6.15281291, 46.2018622 ], [ 6.15601091, 46.2022912 ] ] } },
{ "type": "Feature", "properties": { "route_id": "92-A-j25-1", "direction_id": 0, "trip_id": "1.TA.92-A-j25-1.1.H", "headsign": "Vésenaz, Capite", "route_short_name": "A", "route_long_name": "", "route_type": 3, "color": "FF8000", "text_color": "FFFFFF" }, "geometry": { "type": "LineString", "coordinates": [ [ 6.15350461, 46.2020052 ], [ 6.15690923, 46.20175029 ] ] } },
{ "type": "Feature", "properties": { "route_id": "92-A-j26-1", "direction_id": 0, "trip_id": "102.TA.92-A-j26-1.5.H", "headsign": "Gy, temple", "route_short_name": "A", "route_long_name": "", "route_type": 3, "color": "FF8000", "text_color": "FFFFFF" }, "geometry": { "type": "LineString", "coordinates": [ [ 6.15350461, 46.2020052 ], [ 6.15690923, 46.20175029 ] ] } },
{ "type": "Feature", "properties": { "route_id": "92-E+-j25-1", "direction_id": 0, "trip_id": "1.TA.92-E+-j25-1.1.H", "headsign": "Hermance, village", "route_short_name": "E+", "route_long_name": "", "route_type": 3, "color": "000000", "text_color": "FFFFFF" }, "geometry": { "type": "LineString", "coordinates": [ [ 6.14735115, 46.20703485 ], [ 6.15094441, 46.20337301 ], [ 6.15272308, 46.2016819 ] ] } },
{ "type": "Feature", "properties": { "route_id": "92-E+-j25-1", "direction_id": 1, "trip_id": "10.TA.92-E+-j25-1.3.R", "headsign": "Genève, gare Cornavin", "route_short_name": "E+", "route_long_name": "", "route_type": 3, "color": "000000", "text_color": "FFFFFF" }, "geometry": { "type": "LineString", "coordinates": [ [ 6.15578633, 46.20179381 ], [ 6.1524446, 46.20191816 ], [ 6.15151035, 46.20337301 ], [ 6.14665047, 46.20760679 ] ] } },
{ "type": "Feature", "properties": { "route_id": "92-E+-j26-1", "direction_id": 0, "trip_id": "1.TA.92-E+-j26-1.3.H", "headsign": "Hermance, village", "route_short_name": "E+", "route_long_name": "", "route_type": 3, "color": "000000", "text_color": "FFFFFF" }, "geometry": { "type": "LineString", "coordinates": [ [ 6.14735115, 46.20703485 ], [ 6.15206731, 46.20165703 ] ] } },
{ "type": "Feature", "properties": { "route_id": "92-E+-j26-1", "direction_id": 1, "trip_id": "6.TA.92-E+-j26-1.2.R", "headsign": "Genève, gare Cornavin", "route_short_name": "E+", "route_long_name": "", "route_type": 3, "color": "000000", "text_color": "FFFFFF" }, "geometry": { "type": "LineString", "coordinates": [ [ 6.15578633, 46.20179381 ], [ 6.1524446, 46.20191816 ], [ 6.15151035, 46.20337301 ], [ 6.14665047, 46.20760679 ] ] } },
{ "type": "Feature", "properties": { "route_id": "92-E-j25-1", "direction_id": 1, "trip_id": "1060.TA.92-E-j25-1.18.R", "headsign": "Genève, Rive", "route_short_name": "E", "route_long_name": "", "route_type": 3, "color": "FF8000", "text_color": "FFFFFF" }, "geometry": { "type": "LineString", "coordinates": [ [ 6.15748415, 46.20352223 ], [ 6.15578633, 46.20179381 ], [ 6.1539358, 46.20263937 ] ] } },
{ "type": "Feature", "properties": { "route_id": "92-E-j26-1", "direction_id": 0, "trip_id": "1.TA.92-E-j26-1.1.H", "headsign": "Collonge-Bellerive, Bois-Caran", "route_short_name": "E", "route_long_name": "", "route_type": 3, "color": "FF8000", "text_color": "FFFFFF" }, "geometry": { "type": "LineString", "coordinates": [ [ 6.1539358, 46.20263937 ], [ 6.15578633, 46.20235959 ], [ 6.15854416, 46.20410664 ] ] } },
{ "type": "Feature", "properties": { "route_id": "92-E-j26-1", "direction_id": 1, "trip_id": "238.TA.92-E-j26-1.7.R", "headsign": "Genève, Rive", "route_short_name": "E", "route_long_name": "", "route_type": 3, "color": "FF8000", "text_color": "FFFFFF" }, "geometry": { "type": "LineString", "coordinates": [ [ 6.15748415, 46.20352223 ], [ 6.15578633, 46.20179381 ], [ 6.1539358, 46.20263937 ] ] } },
{ "type": "Feature", "properties": { "route_id": "92-G+-j25-1", "direction_id": 0, "trip_id": "1.TA.92-G+-j25-1.1.H", "headsign": "Veigy, douane (F)", "route_short_name": "G+", "route_long_name": "", "route_type": 3, "color": "000000", "text_color": "FFFFFF" }, "geometry": { "type": "LineString", "coordinates": [ [ 6.14735115, 46.20703485 ], [ 6.15094441, 46.20337301 ], [ 6.15272308, 46.2016819 ] ] } },
{ "type": "Feature", "properties": { "route_id": "92-G+-j25-1", "direction_id": 1, "trip_id": "21.TA.92-G+-j25-1.3.R", "headsign": "Genève, gare Cornavin", "route_short_name": "G+", "route_long_name": "", "route_type": 3, "color": "000000", "text_color": "FFFFFF" }, "geometry": { "type": "LineString", "coordinates": [ [ 6.15578633, 46.20179381 ], [ 6.1524446, 46.20191816 ], [ 6.15151035, 46.20337301 ], [ 6.14665047, 46.20760679 ] ] } },
{ "type": "Feature", "properties": { "route_id": "92-G+-j26-1", "direction_id": 1, "trip_id": "15.TA.92-G+-j26-1.2.R", "headsign": "Genève, gare Cornavin", "route_short_name": "G+", "route_long_name": "", "route_type": 3, "color": "000000", "text_color": "FFFFFF" }, "geometry": { "type": "LineString", "coordinates": [ [ 6.15578633, 46.20179381 ], [ 6.1524446, 46.20191816 ], [ 6.15151035, 46.20337301 ], [ 6.14665047, 46.20760679 ] ] } },
{ "type": "Feature", "properties": { "route_id": "92-G+-j26-1", "direction_id": 0, "trip_id": "2.TA.92-G+-j26-1.3.H", "headsign": "Veigy, douane (F)", "route_short_name": "G+", "route_long_name": "", "route_type": 3, "color": "000000", "text_color": "FFFFFF" }, "geometry": { "type": "LineString", "coordinates": [ [ 6.14735115, 46.20703485 ], [ 6.15206731, 46.20165703 ] ] } },
{ "type": "Feature", "properties": { "route_id": "92-G-j25-1", "direction_id": 1, "trip_id": "1000.TA.92-G-j25-1.32.R", "headsign": "Genève, Rive", "route_short_name": "G", "route_long_name": "", "route_type": 3, "color": "F5B4D2", "text_color": "000000" }, "geometry": { "type": "LineString", "coordinates": [ [ 6.15748415, 46.20352223 ], [ 6.15578633, 46.20179381 ], [ 6.1539358, 46.20263937 ] ] } },
{ "type": "Feature", "properties": { "route_id": "92-G-j26-1", "direction_id": 0, "trip_id": "102.TA.92-G-j26-1.4.H", "headsign": "Veigy, douane (F)", "route_short_name": "G", "route_long_name": "", "route_type": 3, "color": "F5B4D2", "text_color": "000000" }, "geometry": { "type": "LineString", "coordinates": [ [ 6.1539358, 46.20263937 ], [ 6.15578633, 46.20235959 ], [ 6.15854416, 46.20410664 ] ] } },
{ "type": "Feature", "properties": { "route_id": "92-G-j26-1", "direction_id": 1, "trip_id": "173.TA.92-G-j26-1.6.R", "headsign": "Genève, Rive", "route_short_name": "G", "route_long_name": "", "route_type": 3, "color": "F5B4D2", "text_color": "000000" }, "geometry": { "type": "LineString", "coordinates": [ [ 6.15748415, 46.20352223 ], [ 6.15578633, 46.20179381 ], [ 6.1539358, 46.20263937 ] ] } }
]
}
