{
"type": "FeatureCollection",
"name": "stops",
"crs": { "type": "name", "properties": { "name": "urn:ogc:def:crs:OGC:1.3:CRS84" } },
"features": [
{ "type": "Feature", "properties": { "stop_id": "8511617:0:M", "stop_code": "CHCQ00", "stop_name": "Genève, Chausse-Coq", "stop_desc": null, "stop_lat": 46.19958036, "stop_lon": 6.14835727, "zone_id": null, "stop_url": null, "location_type": 0, "parent_station": "Parent8511617", "active": true }, "geometry": { "type": "Point", "coordinates": [ 6.14835727, 46.19958036 ] } },
{ "type": "Feature", "properties": { "stop_id": "8511618:0:H", "stop_code": "SLEG00", "stop_name": "Genève, Saint-Léger", "stop_desc": null, "stop_lat": 46.19842386, "stop_lon": 6.14749488, "zone_id": null, "stop_url": null, "location_type": 0, "parent_station": "Parent8511618", "active": true }, "geometry": { "type": "Point", "coordinates": [ 6.14749488, 46.19842386 ] } },
{ "type": "Feature", "properties": { "stop_id": "8587061", "stop_code": null, "stop_name": "Genève, Rive", "stop_desc": null, "stop_lat": 46.2018622, "stop_lon": 6.15281291, "zone_id": null, "stop_url": null, "location_type": 0, "parent_station": "Parent8587061", "active": true }, "geometry": { "type": "Point", "coordinates": [ 6.15281291, 46.2018622 ] } },
{ "type": "Feature", "properties": { "stop_id": "8587061:0:A", "stop_code": null, "stop_name": "Genève, Rive", "stop_desc": null, "stop_lat": 46.2016819, "stop_lon": 6.15272308, "zone_id": null, "stop_url": null, "location_type": 0, "parent_station": "Parent8587061", "active": true }, "geometry": { "type": "Point", "coordinates": [ 6.15272308, 46.2016819 ] } },
{ "type": "Feature", "properties": { "stop_id": "8587061:0:B", "stop_code": null, "stop_name": "Genève, Rive", "stop_desc": null, "stop_lat": 46.2017192, "stop_lon": 6.15286681, "zone_id": null, "stop_url": null, "location_type": 0, "parent_station": "Parent8587061", "active": true }, "geometry": { "type": "Point", "coordinates": [ 6.15286681, 46.2017192 ] } },
{ "type": "Feature", "properties": { "stop_id": "8587061:0:C", "stop_code": null, "stop_name": "Genève, Rive", "stop_desc": null, "stop_lat": 46.20190572, "stop_lon": 6.15225595, "zone_id": null, "stop_url": null, "location_type": 0, "parent_station": "Parent8587061", "active": true }, "geometry": { "type": "Point", "coordinates": [ 6.15225595, 46.20190572 ] } },
{ "type": "Feature", "properties": { "stop_id": "8587061:0:D", "stop_code": "RIVE02", "stop_name": "Genève, Rive", "stop_desc": null, "stop_lat": 46.20191816, "stop_lon": 6.1524446, "zone_id": null, "stop_url": null, "location_type": 0, "parent_station": "Parent8587061", "active": true }, "geometry": { "type": "Point", "coordinates": [ 6.1524446, 46.20191816 ] } },
{ "type": "Feature", "properties": { "stop_id": "8587061:0:E", "stop_code": null, "stop_name": "Genève, Rive", "stop_desc": null, "stop_lat": 46.20165703, "stop_lon": 6.15206731, "zone_id": null, "stop_url": null, "location_type": 0, "parent_station": "Parent8587061", "active": true }, "geometry": { "type": "Point", "coordinates": [ 6.15206731, 46.20165703 ] } },
{ "type": "Feature", "properties": { "stop_id": "8587061:0:F", "stop_code": "RIVE10", "stop_name": "Genève, Rive", "stop_desc": null, "stop_lat": 46.20163216, "stop_lon": 6.15185171, "zone_id": null, "stop_url": null, "location_type": 0, "parent_station": "Parent8587061", "active": true }, "geometry": { "type": "Point", "coordinates": [ 6.15185171, 46.20163216 ] } },
{ "type": "Feature", "properties": { "stop_id": "8587061:0:G", "stop_code": null, "stop_name": "Genève, Rive", "stop_desc": null, "stop_lat": 46.20143942, "stop_lon": 6.15349563, "zone_id": null, "stop_url": null, "location_type": 0, "parent_station": "Parent8587061", "active": true }, "geometry": { "type": "Point", "coordinates": [ 6.15349563, 46.20143942 ] } },
{ "type": "Feature", "properties": { "stop_id": "8587061:0:H", "stop_code": "RIVE05", "stop_name": "Genève, Rive", "stop_desc": null, "stop_lat": 46.20150159, "stop_lon": 6.1535136, "zone_id": null, "stop_url": null, "location_type": 0, "parent_station": "Parent8587061", "active": true }, "geometry": { "type": "Point", "coordinates": [ 6.1535136, 46.20150159 ] } },
{ "type": "Feature", "properties": { "stop_id": "8587061:0:I", "stop_code": "RIVE04", "stop_name": "Genève, Rive", "stop_desc": null, "stop_lat": 46.2020052, "stop_lon": 6.15350461, "zone_id": null, "stop_url": null, "location_type": 0, "parent_station": "Parent8587061", "active": true }, "geometry": { "type": "Point", "coordinates": [ 6.15350461, 46.2020052 ] } },
{ "type": "Feature", "properties": { "stop_id": "8587061:0:J", "stop_code": "RIVE03", "stop_name": "Genève, Rive", "stop_desc": null, "stop_lat": 46.20263937, "stop_lon": 6.1539358, "zone_id": null, "stop_url": null, "location_type": 0, "parent_station": "Parent8587061", "active": true }, "geometry": { "type": "Point", "coordinates": [ 6.1539358, 46.20263937 ] } },
{ "type": "Feature", "properties": { "stop_id": "8587061:0:K", "stop_code": "FATI00", "stop_name": "Genève, Rive", "stop_desc": null, "stop_lat": 46.20282589, "stop_lon": 6.15355851, "zone_id": null, "stop_url": null, "location_type": 0, "parent_station": "Parent8587061", "active": true }, "geometry": { "type": "Point", "coordinates": [ 6.15355851, 46.20282589 ] } },
{ "type": "Feature", "properties": { "stop_id": "8587387", "stop_code": null, "stop_name": "Genève, Bel-Air", "stop_desc": null, "stop_lat": 46.20472836, "stop_lon": 6.14304822, "zone_id": null, "stop_url": null, "location_type": 0, "parent_station": "Parent8587387", "active": true }, "geometry": { "type": "Point", "coordinates": [ 6.14304822, 46.20472836 ] } },
{ "type": "Feature", "properties": { "stop_id": "8587387:0:A", "stop_code": "DBAI00", "stop_name": "Genève, Bel-Air", "stop_desc": null, "stop_lat": 46.20487135, "stop_lon": 6.14346145, "zone_id": null, "stop_url": null, "location_type": 0, "parent_station": "Parent8587387", "active": true }, "geometry": { "type": "Point", "coordinates": [ 6.14346145, 46.20487135 ] } },
{ "type": "Feature", "properties": { "stop_id": "8587387:0:B", "stop_code": "BERE02", "stop_name": "Genève, Bel-Air", "stop_desc": null, "stop_lat": 46.20452941, "stop_lon": 6.14345246, "zone_id": null, "stop_url": null, "location_type": 0, "parent_station": "Parent8587387", "active": true }, "geometry": { "type": "Point", "coordinates": [ 6.14345246, 46.20452941 ] } },
{ "type": "Feature", "properties": { "stop_id": "8587387:0:C", "stop_code": "BAIR00", "stop_name": "Genève, Bel-Air", "stop_desc": null, "stop_lat": 46.20506408, "stop_lon": 6.14297636, "zone_id": null, "stop_url": null, "location_type": 0, "parent_station": "Parent8587387", "active": true }, "geometry": { "type": "Point", "coordinates": [ 6.14297636, 46.20506408 ] } },
{ "type": "Feature", "properties": { "stop_id": "8587387:0:D", "stop_code": "BAIR04", "stop_name": "Genève, Bel-Air", "stop_desc": null, "stop_lat": 46.2042372, "stop_lon": 6.14206008, "zone_id": null, "stop_url": null, "location_type": 0, "parent_station": "Parent8587387", "active": true }, "geometry": { "type": "Point", "coordinates": [ 6.14206008, 46.2042372 ] } },
{ "type": "Feature", "properties": { "stop_id": "8587387:0:E", "stop_code": null, "stop_name": "Genève, Bel-Air", "stop_desc": null, "stop_lat": 46.20391391, "stop_lon": 6.14383874, "zone_id": null, "stop_url": null, "location_type": 0, "parent_station": "Parent8587387", "active": true }, "geometry": { "type": "Point", "coordinates": [ 6.14383874, 46.20391391 ] } },
{ "type": "Feature", "properties": { "stop_id": "8587387:0:F", "stop_code": "BACI00", "stop_name": "Genève, Bel-Air", "stop_desc": null, "stop_lat": 46.20365901, "stop_lon": 6.14464722, "zone_id": null, "stop_url": null, "location_type": 0, "parent_station": "Parent8587387", "active": true }, "geometry": { "type": "Point", "coordinates": [ 6.14464722, 46.20365901 ] } },
{ "type": "Feature", "properties": { "stop_id": "8587387:0:G", "stop_code": "BAIR07", "stop_name": "Genève, Bel-Air", "stop_desc": null, "stop_lat": 46.20332949, "stop_lon": 6.14251822, "zone_id": null, "stop_url": null, "location_type": 0, "parent_station": "Parent8587387", "active": true }, "geometry": { "type": "Point", "coordinates": [ 6.14251822, 46.20332949 ] } },
{ "type": "Feature", "properties": { "stop_id": "8587387:0:Z", "stop_code": "BACI01", "stop_name": "Genève, Bel-Air", "stop_desc": null, "stop_lat": 46.20392635, "stop_lon": 6.14373992, "zone_id": null, "stop_url": null, "location_type": 0, "parent_station": "Parent8587387", "active": true }, "geometry": { "type": "Point", "coordinates": [ 6.14373992, 46.20392635 ] } },
{ "type": "Feature", "properties": { "stop_id": "8592779", "stop_code": null, "stop_name": "Genève, Athénée", "stop_desc": null, "stop_lat": 46.1981565, "stop_lon": 6.1489232, "zone_id": null, "stop_url": null, "location_type": 0, "parent_station": "Parent8592779", "active": true }, "geometry": { "type": "Point", "coordinates": [ 6.1489232, 46.1981565 ] } },
{ "type": "Feature", "properties": { "stop_id": "8592779:0:I", "stop_code": null, "stop_name": "Genève, Athénée", "stop_desc": null, "stop_lat": 46.19818137, "stop_lon": 6.14869863, "zone_id": null, "stop_url": null, "location_type": 0, "parent_station": "Parent8592779", "active": true }, "geometry": { "type": "Point", "coordinates": [ 6.14869863, 46.19818137 ] } },
{ "type": "Feature", "properties": { "stop_id": "8592779:0:J", "stop_code": null, "stop_name": "Genève, Athénée", "stop_desc": null, "stop_lat": 46.19837412, "stop_lon": 6.14860879, "zone_id": null, "stop_url": null, "location_type": 0, "parent_station": "Parent8592779", "active": true }, "geometry": { "type": "Point", "coordinates": [ 6.14860879, 46.19837412 ] } },
{ "type": "Feature", "properties": { "stop_id": "8592779:0:K", "stop_code": null, "stop_name": "Genève, Athénée", "stop_desc": null, "stop_lat": 46.1982622, "stop_lon": 6.14909388, "zone_id": null, "stop_url": null, "location_type": 0, "parent_station": "Parent8592779", "active": true }, "geometry": { "type": "Point", "coordinates": [ 6.14909388, 46.1982622 ] } },
{ "type": "Feature", "properties": { "stop_id": "8592779:0:L", "stop_code": "ATHE04", "stop_name": "Genève, Athénée", "stop_desc": null, "stop_lat": 46.19836168, "stop_lon": 6.14956999, "zone_id": null, "stop_url": null, "location_type": 0, "parent_station": "Parent8592779", "active": true }, "geometry": { "type": "Point", "coordinates": [ 6.14956999, 46.19836168 ] } },
{ "type": "Feature", "properties": { "stop_id": "8592779:0:O", "stop_code": "ATHE00", "stop_name": "Genève, Athénée", "stop_desc": null, "stop_lat": 46.19846117, "stop_lon": 6.14878846, "zone_id": null, "stop_url": null, "location_type": 0, "parent_station": "Parent8592779", "active": true }, "geometry": { "type": "Point", "coordinates": [ 6.14878846, 46.19846117 ] } },
{ "type": "Feature", "properties": { "stop_id": "8592792:0:Q", "stop_code": null, "stop_name": "Genève, Bourg-de-Four", "stop_desc": null, "stop_lat": 46.20013995, "stop_lon": 6.14852795, "zone_id": null, "stop_url": null, "location_type": 0, "parent_station": "Parent8592792", "active": true }, "geometry": { "type": "Point", "coordinates": [ 6.14852795, 46.20013995 ] } },
{ "type": "Feature", "properties": { "stop_id": "8592794", "stop_code": null, "stop_name": "Genève, Bovy-Lysberg", "stop_desc": null, "stop_lat": 46.20238446, "stop_lon": 6.14294042, "zone_id": null, "stop_url": null, "location_type": 0, "parent_station": "Parent8592794", "active": true }, "geometry": { "type": "Point", "coordinates": [ 6.14294042, 46.20238446 ] } },
{ "type": "Feature", "properties": { "stop_id": "8592794:0:U", "stop_code": null, "stop_name": "Genève, Bovy-Lysberg", "stop_desc": null, "stop_lat": 46.20238446, "stop_lon": 6.14294042, "zone_id": null, "stop_url": null, "location_type": 0, "parent_station": "Parent8592794", "active": true }, "geometry": { "type": "Point", "coordinates": [ 6.14294042, 46.20238446 ] } },
{ "type": "Feature", "properties": { "stop_id": "8592799:0:V", "stop_code": null, "stop_name": "Genève, Cathédrale", "stop_desc": null, "stop_lat": 46.20146429, "stop_lon": 6.14781828, "zone_id": null, "stop_url": null, "location_type": 0, "parent_station": "Parent8592799", "active": true }, "geometry": { "type": "Point", "coordinates": [ 6.14781828, 46.20146429 ] } },
{ "type": "Feature", "properties": { "stop_id": "8592820:0:E", "stop_code": null, "stop_name": "Genève, Eglise Russe", "stop_desc": null, "stop_lat": 46.19841764, "stop_lon": 6.15277698, "zone_id": null, "stop_url": null, "location_type": 0, "parent_station": "Parent8592820", "active": true }, "geometry": { "type": "Point", "coordinates": [ 6.15277698, 46.19841764 ] } },
{ "type": "Feature", "properties": { "stop_id": "8592824:0:S", "stop_code": "FLRI00", "stop_name": "Genève, Florissant", "stop_desc": null, "stop_lat": 46.19724247, "stop_lon": 6.15384597, "zone_id": null, "stop_url": null, "location_type": 0, "parent_station": "Parent8592824", "active": true }, "geometry": { "type": "Point", "coordinates": [ 6.15384597, 46.19724247 ] } },
{ "type": "Feature", "properties": { "stop_id": "8592838:0:O", "stop_code": "HVIL00", "stop_name": "Genève, Hôtel-de-Ville", "stop_desc": null, "stop_lat": 46.20105393, "stop_lon": 6.14656063, "zone_id": null, "stop_url": null, "location_type": 0, "parent_station": "Parent8592838", "active": true }, "geometry": { "type": "Point", "coordinates": [ 6.14656063, 46.20105393 ] } },
{ "type": "Feature", "properties": { "stop_id": "8592851", "stop_code": null, "stop_name": "Genève, Musée art et histoire", "stop_desc": null, "stop_lat": 46.1996301, "stop_lon": 6.15114204, "zone_id": null, "stop_url": null, "location_type": 0, "parent_station": "Parent8592851", "active": true }, "geometry": { "type": "Point", "coordinates": [ 6.15114204, 46.1996301 ] } },
{ "type": "Feature", "properties": { "stop_id": "8592851:0:N", "stop_code": "JADA00", "stop_name": "Genève, Musée art et histoire", "stop_desc": null, "stop_lat": 46.19986016, "stop_lon": 6.15165408, "zone_id": null, "stop_url": null, "location_type": 0, "parent_station": "Parent8592851", "active": true }, "geometry": { "type": "Point", "coordinates": [ 6.15165408, 46.19986016 ] } },
{ "type": "Feature", "properties": { "stop_id": "8592851:0:O", "stop_code": "JADA01", "stop_name": "Genève, Musée art et histoire", "stop_desc": null, "stop_lat": 46.19940005, "stop_lon": 6.15069289, "zone_id": null, "stop_url": null, "location_type": 0, "parent_station": "Parent8592851", "active": true }, "geometry": { "type": "Point", "coordinates": [ 6.15069289, 46.19940005 ] } },
{ "type": "Feature", "properties": { "stop_id": "8592856", "stop_code": null, "stop_name": "Genève, Métropole", "stop_desc": null, "stop_lat": 46.20339788, "stop_lon": 6.15151934, "zone_id": null, "stop_url": null, "location_type": 0, "parent_station": "Parent8592856", "active": true }, "geometry": { "type": "Point", "coordinates": [ 6.15151934, 46.20339788 ] } },
{ "type": "Feature", "properties": { "stop_id": "8592856:0:M", "stop_code": null, "stop_name": "Genève, Métropole", "stop_desc": null, "stop_lat": 46.20337301, "stop_lon": 6.15151035, "zone_id": null, "stop_url": null, "location_type": 0, "parent_station": "Parent8592856", "active": true }, "geometry": { "type": "Point", "coordinates": [ 6.15151035, 46.20337301 ] } },
{ "type": "Feature", "properties": { "stop_id": "8592856:0:N", "stop_code": "METR01", "stop_name": "Genève, Métropole", "stop_desc": null, "stop_lat": 46.20337301, "stop_lon": 6.15094441, "zone_id": null, "stop_url": null, "location_type": 0, "parent_station": "Parent8592856", "active": true }, "geometry": { "type": "Point", "coordinates": [ 6.15094441, 46.20337301 ] } },
{ "type": "Feature", "properties": { "stop_id": "8592862", "stop_code": null, "stop_name": "Genève, Molard", "stop_desc": null, "stop_lat": 46.20311189, "stop_lon": 6.14718047, "zone_id": null, "stop_url": null, "location_type": 0, "parent_station": "Parent8592862", "active": true }, "geometry": { "type": "Point", "coordinates": [ 6.14718047, 46.20311189 ] } },
{ "type": "Feature", "properties": { "stop_id": "8592862:0:W", "stop_code": null, "stop_name": "Genève, Molard", "stop_desc": null, "stop_lat": 46.20398852, "stop_lon": 6.14850998, "zone_id": null, "stop_url": null, "location_type": 0, "parent_station": "Parent8592862", "active": true }, "geometry": { "type": "Point", "coordinates": [ 6.14850998, 46.20398852 ] } },
{ "type": "Feature", "properties": { "stop_id": "8592862:0:X", "stop_code": "MLRD01", "stop_name": "Genève, Molard", "stop_desc": null, "stop_lat": 46.20409421, "stop_lon": 6.1483932, "zone_id": null, "stop_url": null, "location_type": 0, "parent_station": "Parent8592862", "active": true }, "geometry": { "type": "Point", "coordinates": [ 6.1483932, 46.20409421 ] } },
{ "type": "Feature", "properties": { "stop_id": "8592862:0:Y", "stop_code": null, "stop_name": "Genève, Molard", "stop_desc": null, "stop_lat": 46.20301863, "stop_lon": 6.14740505, "zone_id": null, "stop_url": null, "location_type": 0, "parent_station": "Parent8592862", "active": true }, "geometry": { "type": "Point", "coordinates": [ 6.14740505, 46.20301863 ] } },
{ "type": "Feature", "properties": { "stop_id": "8592862:0:Z", "stop_code": "MLRD04", "stop_name": "Genève, Molard", "stop_desc": null, "stop_lat": 46.20320515, "stop_lon": 6.14692894, "zone_id": null, "stop_url": null, "location_type": 0, "parent_station": "Parent8592862", "active": true }, "geometry": { "type": "Point", "coordinates": [ 6.14692894, 46.20320515 ] } },
{ "type": "Feature", "properties": { "stop_id": "8592864", "stop_code": null, "stop_name": "Genève, Mont-Blanc", "stop_desc": null, "stop_lat": 46.20734569, "stop_lon": 6.14699183, "zone_id": null, "stop_url": null, "location_type": 0, "parent_station": "Parent8592864", "active": true }, "geometry": { "type": "Point", "coordinates": [ 6.14699183, 46.20734569 ] } },
{ "type": "Feature", "properties": { "stop_id": "8592864:0:G", "stop_code": "MTBL00", "stop_name": "Genève, Mont-Blanc", "stop_desc": null, "stop_lat": 46.20703485, "stop_lon": 6.14735115, "zone_id": null, "stop_url": null, "location_type": 0, "parent_station": "Parent8592864", "active": true }, "geometry": { "type": "Point", "coordinates": [ 6.14735115, 46.20703485 ] } },
{ "type": "Feature", "properties": { "stop_id": "8592864:0:H", "stop_code": "MTBL01", "stop_name": "Genève, Mont-Blanc", "stop_desc": null, "stop_lat": 46.20760679, "stop_lon": 6.14665047, "zone_id": null, "stop_url": null, "location_type": 0, "parent_station": "Parent8592864", "active": true }, "geometry": { "type": "Point", "coordinates": [ 6.14665047, 46.20760679 ] } },
{ "type": "Feature", "properties": { "stop_id": "8592879:0:G", "stop_code": "PEPA00", "stop_name": "Genève,Conservatoire populaire", "stop_desc": null, "stop_lat": 46.19765907, "stop_lon": 6.15171696, "zone_id": null, "stop_url": null, "location_type": 0, "parent_station": "Parent8592879", "active": true }, "geometry": { "type": "Point", "coordinates": [ 6.15171696, 46.19765907 ] } },
{ "type": "Feature", "properties": { "stop_id": "8592883", "stop_code": null, "stop_name": "Genève, Place des Eaux-Vives", "stop_desc": null, "stop_lat": 46.2022912, "stop_lon": 6.15601091, "zone_id": null, "stop_url": null, "location_type": 0, "parent_station": "Parent8592883", "active": true }, "geometry": { "type": "Point", "coordinates": [ 6.15601091, 46.2022912 ] } },
{ "type": "Feature", "properties": { "stop_id": "8592883:0:O", "stop_code": null, "stop_name": "Genève, Place des Eaux-Vives", "stop_desc": null, "stop_lat": 46.20255855, "stop_lon": 6.15541802, "zone_id": null, "stop_url": null, "location_type": 0, "parent_station": "Parent8592883", "active": true }, "geometry": { "type": "Point", "coordinates": [ 6.15541802, 46.20255855 ] } },
{ "type": "Feature", "properties": { "stop_id": "8592883:0:P", "stop_code": "PLEV01", "stop_name": "Genève, Place des Eaux-Vives", "stop_desc": null, "stop_lat": 46.20235959, "stop_lon": 6.15578633, "zone_id": null, "stop_url": null, "location_type": 0, "parent_station": "Parent8592883", "active": true }, "geometry": { "type": "Point", "coordinates": [ 6.15578633, 46.20235959 ] } },
{ "type": "Feature", "properties": { "stop_id": "8592883:0:Q", "stop_code": "PLEV02", "stop_name": "Genève, Place des Eaux-Vives", "stop_desc": null, "stop_lat": 46.20232229, "stop_lon": 6.15658583, "zone_id": null, "stop_url": null, "location_type": 0, "parent_station": "Parent8592883", "active": true }, "geometry": { "type": "Point", "coordinates": [ 6.15658583, 46.20232229 ] } },
{ "type": "Feature", "properties": { "stop_id": "8592883:0:R", "stop_code": "PLEV03", "stop_name": "Genève, Place des Eaux-Vives", "stop_desc": null, "stop_lat": 46.20179381, "stop_lon": 6.15578633, "zone_id": null, "stop_url": null, "location_type": 0, "parent_station": "Parent8592883", "active": true }, "geometry": { "type": "Point", "coordinates": [ 6.15578633, 46.20179381 ] } },
{ "type": "Feature", "properties": { "stop_id": "8592883:0:S", "stop_code": "PLEV04", "stop_name": "Genève, Place des Eaux-Vives", "stop_desc": null, "stop_lat": 46.20175029, "stop_lon": 6.15690923, "zone_id": null, "stop_url": null, "location_type": 0, "parent_station": "Parent8592883", "active": true }, "geometry": { "type": "Point", "coordinates": [ 6.15690923, 46.20175029 ] } },
{ "type": "Feature", "properties": { "stop_id": "8592883:0:Z", "stop_code": "PLEV00", "stop_name": "Genève, Place des Eaux-Vives", "stop_desc": null, "stop_lat": 46.20250259, "stop_lon": 6.15555277, "zone_id": null, "stop_url": null, "location_type": 0, "parent_station": "Parent8592883", "active": true }, "geometry": { "type": "Point", "coordinates": [ 6.15555277, 46.20250259 ] } },
{ "type": "Feature", "properties": { "stop_id": "8592885", "stop_code": null, "stop_name": "Genève, Place de Neuve", "stop_desc": null, "stop_lat": 46.20119693, "stop_lon": 6.1441801, "zone_id": null, "stop_url": null, "location_type": 0, "parent_station": "Parent8592885", "active": true }, "geometry": { "type": "Point", "coordinates": [ 6.1441801, 46.20119693 ] } },
{ "type": "Feature", "properties": { "stop_id": "8592885:0:I", "stop_code": "PNEV02", "stop_name": "Genève, Place de Neuve", "stop_desc": null, "stop_lat": 46.20099176, "stop_lon": 6.14385671, "zone_id": null, "stop_url": null, "location_type": 0, "parent_station": "Parent8592885", "active": true }, "geometry": { "type": "Point", "coordinates": [ 6.14385671, 46.20099176 ] } },
{ "type": "Feature", "properties": { "stop_id": "8592885:0:J", "stop_code": "PNEV03", "stop_name": "Genève, Place de Neuve", "stop_desc": null, "stop_lat": 46.2006871, "stop_lon": 6.14329975, "zone_id": null, "stop_url": null, "location_type": 0, "parent_station": "Parent8592885", "active": true }, "geometry": { "type": "Point", "coordinates": [ 6.14329975, 46.2006871 ] } },
{ "type": "Feature", "properties": { "stop_id": "8592885:0:L", "stop_code": "PNEV00", "stop_name": "Genève, Place de Neuve", "stop_desc": null, "stop_lat": 46.20096689, "stop_lon": 6.14464722, "zone_id": null, "stop_url": null, "location_type": 0, "parent_station": "Parent8592885", "active": true }, "geometry": { "type": "Point", "coordinates": [ 6.14464722, 46.20096689 ] } },
{ "type": "Feature", "properties": { "stop_id": "8592885:0:M", "stop_code": null, "stop_name": "Genève, Place de Neuve", "stop_desc": null, "stop_lat": 46.20126533, "stop_lon": 6.14424298, "zone_id": null, "stop_url": null, "location_type": 0, "parent_station": "Parent8592885", "active": true }, "geometry": { "type": "Point", "coordinates": [ 6.14424298, 46.20126533 ] } },
{ "type": "Feature", "properties": { "stop_id": "8592885:0:N", "stop_code": "PNEF00", "stop_name": "Genève, Place de Neuve", "stop_desc": null, "stop_lat": 46.20152646, "stop_lon": 6.14399145, "zone_id": null, "stop_url": null, "location_type": 0, "parent_station": "Parent8592885", "active": true }, "geometry": { "type": "Point", "coordinates": [ 6.14399145, 46.20152646 ] } },
{ "type": "Feature", "properties": { "stop_id": "8592900", "stop_code": null, "stop_name": "Genève, Rue du Lac", "stop_desc": null, "stop_lat": 46.2038393, "stop_lon": 6.15801415, "zone_id": null, "stop_url": null, "location_type": 0, "parent_station": "Parent8592900", "active": true }, "geometry": { "type": "Point", "coordinates": [ 6.15801415, 46.2038393 ] } },
{ "type": "Feature", "properties": { "stop_id": "8592900:0:T", "stop_code": "RLAC00", "stop_name": "Genève, Rue du Lac", "stop_desc": null, "stop_lat": 46.20352223, "stop_lon": 6.15748415, "zone_id": null, "stop_url": null, "location_type": 0, "parent_station": "Parent8592900", "active": true }, "geometry": { "type": "Point", "coordinates": [ 6.15748415, 46.20352223 ] } },
{ "type": "Feature", "properties": { "stop_id": "8592900:0:U", "stop_code": "RLAC01", "stop_name": "Genève, Rue du Lac", "stop_desc": null, "stop_lat": 46.20410664, "stop_lon": 6.15854416, "zone_id": null, "stop_url": null, "location_type": 0, "parent_station": "Parent8592900", "active": true }, "geometry": { "type": "Point", "coordinates": [ 6.15854416, 46.20410664 ] } },
{ "type": "Feature", "properties": { "stop_id": "8592907:0:M", "stop_code": null, "stop_name": "Genève, Saint-Antoine", "stop_desc": null, "stop_lat": 46.19992855, "stop_lon": 6.15094441, "zone_id": null, "stop_url": null, "location_type": 0, "parent_station": "Parent8592907", "active": true }, "geometry": { "type": "Point", "coordinates": [ 6.15094441, 46.19992855 ] } },
{ "type": "Feature", "properties": { "stop_id": "8592909:0:P", "stop_code": "TACO00", "stop_name": "Genève, Taconnerie", "stop_desc": null, "stop_lat": 46.20083632, "stop_lon": 6.14819557, "zone_id": null, "stop_url": null, "location_type": 0, "parent_station": "Parent8592909", "active": true }, "geometry": { "type": "Point", "coordinates": [ 6.14819557, 46.20083632 ] } },
{ "type": "Feature", "properties": { "stop_id": "8592910", "stop_code": null, "stop_name": "Genève, Terrassière", "stop_desc": null, "stop_lat": 46.2010788, "stop_lon": 6.15641515, "zone_id": null, "stop_url": null, "location_type": 0, "parent_station": "Parent8592910", "active": true }, "geometry": { "type": "Point", "coordinates": [ 6.15641515, 46.2010788 ] } },
{ "type": "Feature", "properties": { "stop_id": "8592910:0:T", "stop_code": null, "stop_name": "Genève, Terrassière", "stop_desc": null, "stop_lat": 46.20098554, "stop_lon": 6.15647804, "zone_id": null, "stop_url": null, "location_type": 0, "parent_station": "Parent8592910", "active": true }, "geometry": { "type": "Point", "coordinates": [ 6.15647804, 46.20098554 ] } },
{ "type": "Feature", "properties": { "stop_id": "8592910:0:U", "stop_code": "TRSI01", "stop_name": "Genève, Terrassière", "stop_desc": null, "stop_lat": 46.20114719, "stop_lon": 6.15590311, "zone_id": null, "stop_url": null, "location_type": 0, "parent_station": "Parent8592910", "active": true }, "geometry": { "type": "Point", "coordinates": [ 6.15590311, 46.20114719 ] } },
{ "type": "Feature", "properties": { "stop_id": "8592910:0:V", "stop_code": "TRSI99", "stop_name": "Genève, Terrassière", "stop_desc": null, "stop_lat": 46.20073062, "stop_lon": 6.15520243, "zone_id": null, "stop_url": null, "location_type": 0, "parent_station": "Parent8592910", "active": true }, "geometry": { "type": "Point", "coordinates": [ 6.15520243, 46.20073062 ] } },
{ "type": "Feature", "properties": { "stop_id": "8592910:0:W", "stop_code": "TRSI98", "stop_name": "Genève, Terrassière", "stop_desc": null, "stop_lat": 46.20096689, "stop_lon": 6.15574142, "zone_id": null, "stop_url": null, "location_type": 0, "parent_station": "Parent8592910", "active": true }, "geometry": { "type": "Point", "coordinates": [ 6.15574142, 46.20096689 ] } },
{ "type": "Feature", "properties": { "stop_id": "8592912", "stop_code": null, "stop_name": "Genève, Tranchées", "stop_desc": null, "stop_lat": 46.19852957, "stop_lon": 6.15551684, "zone_id": null, "stop_url": null, "location_type": 0, "parent_station": "Parent8592912", "active": true }, "geometry": { "type": "Point", "coordinates": [ 6.15551684, 46.19852957 ] } },
{ "type": "Feature", "properties": { "stop_id": "8592912:0:F", "stop_code": null, "stop_name": "Genève, Tranchées", "stop_desc": null, "stop_lat": 46.19846117, "stop_lon": 6.15543599, "zone_id": null, "stop_url": null, "location_type": 0, "parent_station": "Parent8592912", "active": true }, "geometry": { "type": "Point", "coordinates": [ 6.15543599, 46.19846117 ] } },
{ "type": "Feature", "properties": { "stop_id": "8592924:0:Y", "stop_code": "VILL01", "stop_name": "Genève, Villereuse", "stop_desc": null, "stop_lat": 46.20069953, "stop_lon": 6.15822077, "zone_id": null, "stop_url": null, "location_type": 0, "parent_station": "Parent8592924", "active": true }, "geometry": { "type": "Point", "coordinates": [ 6.15822077, 46.20069953 ] } },
{ "type": "Feature", "properties": { "stop_id": "8595021", "stop_code": null, "stop_name": "Genève, Palais Eynard", "stop_desc": null, "stop_lat": 46.19988503, "stop_lon": 6.14712657, "zone_id": null, "stop_url": null, "location_type": 0, "parent_station": "Parent8595021", "active": true }, "geometry": { "type": "Point", "coordinates": [ 6.14712657, 46.19988503 ] } },
{ "type": "Feature", "properties": { "stop_id": "8595021:0:R", "stop_code": null, "stop_name": "Genève, Palais Eynard", "stop_desc": null, "stop_lat": 46.19989746, "stop_lon": 6.14688403, "zone_id": null, "stop_url": null, "location_type": 0, "parent_station": "Parent8595021", "active": true }, "geometry": { "type": "Point", "coordinates": [ 6.14688403, 46.19989746 ] } },
{ "type": "Feature", "properties": { "stop_id": "8595021:0:S", "stop_code": "PLEY00", "stop_name": "Genève, Palais Eynard", "stop_desc": null, "stop_lat": 46.20009021, "stop_lon": 6.1466864, "zone_id": null, "stop_url": null, "location_type": 0, "parent_station": "Parent8595021", "active": true }, "geometry": { "type": "Point", "coordinates": [ 6.1466864, 46.20009021 ] } },
{ "type": "Feature", "properties": { "stop_id": "8595022", "stop_code": null, "stop_name": "Genève, Théâtre", "stop_desc": null, "stop_lat": 46.20217307, "stop_lon": 6.14185346, "zone_id": null, "stop_url": null, "location_type": 0, "parent_station": "Parent8595022", "active": true }, "geometry": { "type": "Point", "coordinates": [ 6.14185346, 46.20217307 ] } },
{ "type": "Feature", "properties": { "stop_id": "8595022:0:N", "stop_code": null, "stop_name": "Genève, Théâtre", "stop_desc": null, "stop_lat": 46.20207359, "stop_lon": 6.14181753, "zone_id": null, "stop_url": null, "location_type": 0, "parent_station": "Parent8595022", "active": true }, "geometry": { "type": "Point", "coordinates": [ 6.14181753, 46.20207359 ] } },
{ "type": "Feature", "properties": { "stop_id": "8595022:0:O", "stop_code": null, "stop_name": "Genève, Théâtre", "stop_desc": null, "stop_lat": 46.20234716, "stop_lon": 6.14187143, "zone_id": null, "stop_url": null, "location_type": 0, "parent_station": "Parent8595022", "active": true }, "geometry": { "type": "Point", "coordinates": [ 6.14187143, 46.20234716 ] } },
{ "type": "Feature", "properties": { "stop_id": "8595022:0:Y", "stop_code": "THRE98", "stop_name": "Genève, Théâtre", "stop_desc": null, "stop_lat": 46.20188085, "stop_lon": 6.14166482, "zone_id": null, "stop_url": null, "location_type": 0, "parent_station": "Parent8595022", "active": true }, "geometry": { "type": "Point", "coordinates": [ 6.14166482, 46.20188085 ] } },
{ "type": "Feature", "properties": { "stop_id": "Parent8511617", "stop_code": null, "stop_name": "Genève, Chausse-Coq", "stop_desc": null, "stop_lat": 46.19958036, "stop_lon": 6.14835727, "zone_id": null, "stop_url": null, "location_type": 1, "parent_station": null, "active": true }, "geometry": { "type": "Point", "coordinates": [ 6.14835727, 46.19958036 ] } },
{ "type": "Feature", "properties": { "stop_id": "Parent8511618", "stop_code": "ATHE06", "stop_name": "Genève, Saint-Léger", "stop_desc": null, "stop_lat": 46.19842386, "stop_lon": 6.14749488, "zone_id": null, "stop_url": null, "location_type": 1, "parent_station": null, "active": true }, "geometry": { "type": "Point", "coordinates": [ 6.14749488, 46.19842386 ] } },
{ "type": "Feature", "properties": { "stop_id": "Parent8587061", "stop_code": "RIVE00", "stop_name": "Genève, Rive", "stop_desc": null, "stop_lat": 46.2018622, "stop_lon": 6.15281291, "zone_id": null, "stop_url": null, "location_type": 1, "parent_station": null, "active": true }, "geometry": { "type": "Point", "coordinates": [ 6.15281291, 46.2018622 ] } },
{ "type": "Feature", "properties": { "stop_id": "Parent8587387", "stop_code": "BAPO99", "stop_name": "Genève, Bel-Air", "stop_desc": null, "stop_lat": 46.20472836, "stop_lon": 6.14304822, "zone_id": null, "stop_url": null, "location_type": 1, "parent_station": null, "active": true }, "geometry": { "type": "Point", "coordinates": [ 6.14304822, 46.20472836 ] } },
{ "type": "Feature", "properties": { "stop_id": "Parent8592779", "stop_code": "ATHE03", "stop_name": "Genève, Athénée", "stop_desc": null, "stop_lat": 46.1981565, "stop_lon": 6.1489232, "zone_id": null, "stop_url": null, "location_type": 1, "parent_station": null, "active": true }, "geometry": { "type": "Point", "coordinates": [ 6.1489232, 46.1981565 ] } },
{ "type": "Feature", "properties": { "stop_id": "Parent8592792", "stop_code": "BFOU00", "stop_name": "Genève, Bourg-de-Four", "stop_desc": null, "stop_lat": 46.20015239, "stop_lon": 6.14860879, "zone_id": null, "stop_url": null, "location_type": 1, "parent_station": null, "active": true }, "geometry": { "type": "Point", "coordinates": [ 6.14860879, 46.20015239 ] } },
{ "type": "Feature", "properties": { "stop_id": "Parent8592794", "stop_code": "BVYL98", "stop_name": "Genève, Bovy-Lysberg", "stop_desc": null, "stop_lat": 46.20238446, "stop_lon": 6.14294042, "zone_id": null, "stop_url": null, "location_type": 1, "parent_station": null, "active": true }, "geometry": { "type": "Point", "coordinates": [ 6.14294042, 46.20238446 ] } },
{ "type": "Feature", "properties": { "stop_id": "Parent8592799", "stop_code": "CATH00", "stop_name": "Genève, Cathédrale", "stop_desc": null, "stop_lat": 46.20146429, "stop_lon": 6.14781828, "zone_id": null, "stop_url": null, "location_type": 1, "parent_station": null, "active": true }, "geometry": { "type": "Point", "coordinates": [ 6.14781828, 46.20146429 ] } },
{ "type": "Feature", "properties": { "stop_id": "Parent8592820", "stop_code": "EGRU00", "stop_name": "Genève, Eglise Russe", "stop_desc": null, "stop_lat": 46.19841764, "stop_lon": 6.15280393, "zone_id": null, "stop_url": null, "location_type": 1, "parent_station": null, "active": true }, "geometry": { "type": "Point", "coordinates": [ 6.15280393, 46.19841764 ] } },
{ "type": "Feature", "properties": { "stop_id": "Parent8592838", "stop_code": null, "stop_name": "Genève, Hôtel-de-Ville", "stop_desc": null, "stop_lat": 46.20109124, "stop_lon": 6.14662352, "zone_id": null, "stop_url": null, "location_type": 1, "parent_station": null, "active": true }, "geometry": { "type": "Point", "coordinates": [ 6.14662352, 46.20109124 ] } },
{ "type": "Feature", "properties": { "stop_id": "Parent8592851", "stop_code": null, "stop_name": "Genève, Musée art et histoire", "stop_desc": null, "stop_lat": 46.1996301, "stop_lon": 6.15114204, "zone_id": null, "stop_url": null, "location_type": 1, "parent_station": null, "active": true }, "geometry": { "type": "Point", "coordinates": [ 6.15114204, 46.1996301 ] } },
{ "type": "Feature", "properties": { "stop_id": "Parent8592856", "stop_code": "METR02", "stop_name": "Genève, Métropole", "stop_desc": null, "stop_lat": 46.20339788, "stop_lon": 6.15151934, "zone_id": null, "stop_url": null, "location_type": 1, "parent_station": null, "active": true }, "geometry": { "type": "Point", "coordinates": [ 6.15151934, 46.20339788 ] } },
{ "type": "Feature", "properties": { "stop_id": "Parent8592862", "stop_code": "MLRD03", "stop_name": "Genève, Molard", "stop_desc": null, "stop_lat": 46.20311189, "stop_lon": 6.14718047, "zone_id": null, "stop_url": null, "location_type": 1, "parent_station": null, "active": true }, "geometry": { "type": "Point", "coordinates": [ 6.14718047, 46.20311189 ] } },
{ "type": "Feature", "properties": { "stop_id": "Parent8592864", "stop_code": "BRIS00", "stop_name": "Genève, Mont-Blanc", "stop_desc": null, "stop_lat": 46.20734569, "stop_lon": 6.14699183, "zone_id": null, "stop_url": null, "location_type": 1, "parent_station": null, "active": true }, "geometry": { "type": "Point", "coordinates": [ 6.14699183, 46.20734569 ] } },
{ "type": "Feature", "properties": { "stop_id": "Parent8592879", "stop_code": null, "stop_name": "Genève,Conservatoire populaire", "stop_desc": null, "stop_lat": 46.1976342, "stop_lon": 6.15169002, "zone_id": null, "stop_url": null, "location_type": 1, "parent_station": null, "active": true }, "geometry": { "type": "Point", "coordinates": [ 6.15169002, 46.1976342 ] } },
{ "type": "Feature", "properties": { "stop_id": "Parent8592883", "stop_code": null, "stop_name": "Genève, Place des Eaux-Vives", "stop_desc": null, "stop_lat": 46.2022912, "stop_lon": 6.15601091, "zone_id": null, "stop_url": null, "location_type": 1, "parent_station": null, "active": true }, "geometry": { "type": "Point", "coordinates": [ 6.15601091, 46.2022912 ] } },
{ "type": "Feature", "properties": { "stop_id": "Parent8592885", "stop_code": "PNEV01", "stop_name": "Genève, Place de Neuve", "stop_desc": null, "stop_lat": 46.20119693, "stop_lon": 6.1441801, "zone_id": null, "stop_url": null, "location_type": 1, "parent_station": null, "active": true }, "geometry": { "type": "Point", "coordinates": [ 6.1441801, 46.20119693 ] } },
{ "type": "Feature", "properties": { "stop_id": "Parent8592900", "stop_code": null, "stop_name": "Genève, Rue du Lac", "stop_desc": null, "stop_lat": 46.2038393, "stop_lon": 6.15801415, "zone_id": null, "stop_url": null, "location_type": 1, "parent_station": null, "active": true }, "geometry": { "type": "Point", "coordinates": [ 6.15801415, 46.2038393 ] } },
{ "type": "Feature", "properties": { "stop_id": "Parent8592907", "stop_code": "SANT00", "stop_name": "Genève, Saint-Antoine", "stop_desc": null, "stop_lat": 46.1999099, "stop_lon": 6.15098035, "zone_id": null, "stop_url": null, "location_type": 1, "parent_station": null, "active": true }, "geometry": { "type": "Point", "coordinates": [ 6.15098035, 46.1999099 ] } },
{ "type": "Feature", "properties": { "stop_id": "Parent8592909", "stop_code": null, "stop_name": "Genève, Taconnerie", "stop_desc": null, "stop_lat": 46.2004757, "stop_lon": 6.14784523, "zone_id": null, "stop_url": null, "location_type": 1, "parent_station": null, "active": true }, "geometry": { "type": "Point", "coordinates": [ 6.14784523, 46.2004757 ] } },
{ "type": "Feature", "properties": { "stop_id": "Parent8592910", "stop_code": "TRSI00", "stop_name": "Genève, Terrassière", "stop_desc": null, "stop_lat": 46.2010788, "stop_lon": 6.15641515, "zone_id": null, "stop_url": null, "location_type": 1, "parent_station": null, "active": true }, "geometry": { "type": "Point", "coordinates": [ 6.15641515, 46.2010788 ] } },
{ "type": "Feature", "properties": { "stop_id": "Parent8592912", "stop_code": "TRAN00", "stop_name": "Genève, Tranchées", "stop_desc": null, "stop_lat": 46.19852957, "stop_lon": 6.15551684, "zone_id": null, "stop_url": null, "location_type": 1, "parent_station": null, "active": true }, "geometry": { "type": "Point", "coordinates": [ 6.15551684, 46.19852957 ] } },
{ "type": "Feature", "properties": { "stop_id": "Parent8595021", "stop_code": "CRXR00", "stop_name": "Genève, Palais Eynard", "stop_desc": null, "stop_lat": 46.19988503, "stop_lon": 6.14712657, "zone_id": null, "stop_url": null, "location_type": 1, "parent_station": null, "active": true }, "geometry": { "type": "Point", "coordinates": [ 6.14712657, 46.19988503 ] } },
{ "type": "Feature", "properties": { "stop_id": "Parent8595022", "stop_code": "THRE01", "stop_name": "Genève, Théâtre", "stop_desc": null, "stop_lat": 46.20217307, "stop_lon": 6.14185346, "zone_id": null, "stop_url": null, "location_type": 1, "parent_station": null, "active": true }, "geometry": { "type": "Point", "coordinates": [ 6.14185346, 46.20217307 ] } },
{ "type": "Feature", "properties": { "stop_id": "unmatched_BAIR18", "stop_code": "BAIR18", "stop_name": "Bel-Air", "stop_desc": null, "stop_lat": 46.20396, "stop_lon": 6.143731, "zone_id": null, "stop_url": null, "location_type": 1, "parent_station": null, "active": true }, "geometry": { "type": "Point", "coordinates": [ 6.143731, 46.20396 ] } },
{ "type": "Feature", "properties": { "stop_id": "unmatched_BAIR99", "stop_code": "BAIR99", "stop_name": "Bel-Air", "stop_desc": null, "stop_lat": 46.204281, "stop_lon": 6.143211, "zone_id": null, "stop_url": null, "location_type": 1, "parent_station": null, "active": false }, "geometry": { "type": "Point", "coordinates": [ 6.143211, 46.204281 ] } },
{ "type": "Feature", "properties": { "stop_id": "unmatched_CEND00", "stop_code": "CEND00", "stop_name": "Cendrier", "stop_desc": null, "stop_lat": 46.207363, "stop_lon": 6.144948, "zone_id": null, "stop_url": null, "location_type": 1, "parent_station": null, "active": false }, "geometry": { "type": "Point", "coordinates": [ 6.144948, 46.207363 ] } },
{ "type": "Feature", "properties": { "stop_id": "unmatched_CNDL98", "stop_code": "CNDL98", "stop_name": "Genève, De-Candolle", "stop_desc": null, "stop_lat": 46.197765, "stop_lon": 6.145571, "zone_id": null, "stop_url": null, "location_type": 1, "parent_station": null, "active": true }, "geometry": { "type": "Point", "coordinates": [ 6.145571, 46.197765 ] } },
{ "type": "Feature", "properties": { "stop_id": "unmatched_CRXR02", "stop_code": "CRXR02", "stop_name": "Croix-Rouge", "stop_desc": null, "stop_lat": 46.199665, "stop_lon": 6.1477, "zone_id": null, "stop_url": null, "location_type": 1, "parent_station": null, "active": false }, "geometry": { "type": "Point", "coordinates": [ 6.1477, 46.199665 ] } },
{ "type": "Feature", "properties": { "stop_id": "unmatched_HVIL99", "stop_code": "HVIL99", "stop_name": "Hôtel-de-Ville", "stop_desc": null, "stop_lat": 46.200542, "stop_lon": 6.147563, "zone_id": null, "stop_url": null, "location_type": 1, "parent_station": null, "active": false }, "geometry": { "type": "Point", "coordinates": [ 6.147563, 46.200542 ] } },
{ "type": "Feature", "properties": { "stop_id": "unmatched_METR99", "stop_code": "METR99", "stop_name": "Métropole", "stop_desc": null, "stop_lat": 46.203026, "stop_lon": 6.15311, "zone_id": null, "stop_url": null, "location_type": 1, "parent_station": null, "active": false }, "geometry": { "type": "Point", "coordinates": [ 6.15311, 46.203026 ] } },
{ "type": "Feature", "properties": { "stop_id": "unmatched_MTBL98", "stop_code": "MTBL98", "stop_name": "Mont-Blanc", "stop_desc": null, "stop_lat": 46.208015, "stop_lon": 6.149011, "zone_id": null, "stop_url": null, "location_type": 1, "parent_station": null, "active": false }, "geometry": { "type": "Point", "coordinates": [ 6.149011, 46.208015 ] } },
{ "type": "Feature", "properties": { "stop_id": "unmatched_PLEV99", "stop_code": "PLEV99", "stop_name": "Place des Eaux-Vives", "stop_desc": null, "stop_lat": 46.204052, "stop_lon": 6.15611, "zone_id": null, "stop_url": null, "location_type": 1, "parent_station": null, "active": false }, "geometry": { "type": "Point", "coordinates": [ 6.15611, 46.204052 ] } },
{ "type": "Feature", "properties": { "stop_id": "unmatched_PLPA99", "stop_code": "PLPA99", "stop_name": "Plainpalais", "stop_desc": null, "stop_lat": 46.198368, "stop_lon": 6.143676, "zone_id": null, "stop_url": null, "location_type": 1, "parent_station": null, "active": true }, "geometry": { "type": "Point", "coordinates": [ 6.143676, 46.198368 ] } },
{ "type": "Feature", "properties": { "stop_id": "unmatched_PNEV98", "stop_code": "PNEV98", "stop_name": "Place de Neuve", "stop_desc": null, "stop_lat": 46.199913, "stop_lon": 6.142996, "zone_id": null, "stop_url": null, "location_type": 1, "parent_station": null, "active": false }, "geometry": { "type": "Point", "coordinates": [ 6.142996, 46.199913 ] } },
{ "type": "Feature", "properties": { "stop_id": "unmatched_RIVE99", "stop_code": "RIVE99", "stop_name": "Rive", "stop_desc": null, "stop_lat": 46.20126, "stop_lon": 6.153389, "zone_id": null, "stop_url": null, "location_type": 1, "parent_station": null, "active": false }, "geometry": { "type": "Point", "coordinates": [ 6.153389, 46.20126 ] } },
{ "type": "Feature", "properties": { "stop_id": "unmatched_SGVA00", "stop_code": "SGVA00", "stop_name": "Saint-Gervais", "stop_desc": null, "stop_lat": 46.205688, "stop_lon": 6.142167, "zone_id": null, "stop_url": null, "location_type": 1, "parent_station": null, "active": false }, "geometry": { "type": "Point", "coordinates": [ 6.142167, 46.205688 ] } },
{ "type": "Feature", "properties": { "stop_id": "unmatched_SLEV00", "stop_code": "SLEV00", "stop_name": "Salle du Levant", "stop_desc": null, "stop_lat": 46.204964, "stop_lon": 6.150882, "zone_id": null, "stop_url": null, "location_type": 1, "parent_station": null, "active": false }, "geometry": { "type": "Point", "coordinates": [ 6.150882, 46.204964 ] } },
{ "type": "Feature", "properties": { "stop_id": "unmatched_XMLRD1", "stop_code": "XMLRD1", "stop_name": "Molard", "stop_desc": null, "stop_lat": 46.20467, "stop_lon": 6.150186, "zone_id": null, "stop_url": null, "location_type": 1, "parent_station": null, "active": false }, "geometry": { "type": "Point", "coordinates": [ 6.150186, 46.20467 ] } },
{ "type": "Feature", "properties": { "stop_id": "unmatched_ATHE97", "stop_code": "ATHE97", "stop_name": "Athénée", "stop_desc": null, "stop_lat": 46.198479, "stop_lon": 6.148766, "zone_id": null, "stop_url": null, "location_type": 1, "parent_station": null, "active": false }, "geometry": { "type": "Point", "coordinates": [ 6.148766, 46.198479 ] } },
{ "type": "Feature", "properties": { "stop_id": "unmatched_BRIS01", "stop_code": "BRIS01", "stop_name": "Bristol - Four-Seasons", "stop_desc": null, "stop_lat": 46.207912, "stop_lon": 6.146542, "zone_id": null, "stop_url": null, "location_type": 1, "parent_station": null, "active": false }, "geometry": { "type": "Point", "coordinates": [ 6.146542, 46.207912 ] } },
{ "type": "Feature", "properties": { "stop_id": "unmatched_BVYL99", "stop_code": "BVYL99", "stop_name": "Bovy-Lysberg", "stop_desc": null, "stop_lat": 46.202274, "stop_lon": 6.142733, "zone_id": null, "stop_url": null, "location_type": 1, "parent_station": null, "active": false }, "geometry": { "type": "Point", "coordinates": [ 6.142733, 46.202274 ] } },
{ "type": "Feature", "properties": { "stop_id": "unmatched_CIRQ99", "stop_code": "CIRQ99", "stop_name": "Cirque", "stop_desc": null, "stop_lat": 46.201614, "stop_lon": 6.14124, "zone_id": null, "stop_url": null, "location_type": 1, "parent_station": null, "active": false }, "geometry": { "type": "Point", "coordinates": [ 6.14124, 46.201614 ] } },
{ "type": "Feature", "properties": { "stop_id": "unmatched_FLIZ00", "stop_code": "FLIZ00", "stop_name": "Liszt", "stop_desc": null, "stop_lat": 46.198833, "stop_lon": 6.149223, "zone_id": null, "stop_url": null, "location_type": 1, "parent_station": null, "active": false }, "geometry": { "type": "Point", "coordinates": [ 6.149223, 46.198833 ] } },
{ "type": "Feature", "properties": { "stop_id": "unmatched_HOFL01", "stop_code": "HOFL01", "stop_name": "Horloge Fleurie", "stop_desc": null, "stop_lat": 46.204784, "stop_lon": 6.150015, "zone_id": null, "stop_url": null, "location_type": 1, "parent_station": null, "active": false }, "geometry": { "type": "Point", "coordinates": [ 6.150015, 46.204784 ] } },
{ "type": "Feature", "properties": { "stop_id": "unmatched_METR00", "stop_code": "METR00", "stop_name": "Métropole", "stop_desc": null, "stop_lat": 46.203381, "stop_lon": 6.151448, "zone_id": null, "stop_url": null, "location_type": 1, "parent_station": null, "active": true }, "geometry": { "type": "Point", "coordinates": [ 6.151448, 46.203381 ] } },
{ "type": "Feature", "properties": { "stop_id": "unmatched_MLRD00", "stop_code": "MLRD00", "stop_name": "Molard", "stop_desc": null, "stop_lat": 46.203964, "stop_lon": 6.148441, "zone_id": null, "stop_url": null, "location_type": 1, "parent_station": null, "active": true }, "geometry": { "type": "Point", "coordinates": [ 6.148441, 46.203964 ] } },
{ "type": "Feature", "properties": { "stop_id": "unmatched_MLRD99", "stop_code": "MLRD99", "stop_name": "Molard", "stop_desc": null, "stop_lat": 46.20414, "stop_lon": 6.148322, "zone_id": null, "stop_url": null, "location_type": 1, "parent_station": null, "active": false }, "geometry": { "type": "Point", "coordinates": [ 6.148322, 46.20414 ] } },
{ "type": "Feature", "properties": { "stop_id": "unmatched_MUSE99", "stop_code": "MUSE99", "stop_name": "Muséum", "stop_desc": null, "stop_lat": 46.198811, "stop_lon": 6.156351, "zone_id": null, "stop_url": null, "location_type": 1, "parent_station": null, "active": false }, "geometry": { "type": "Point", "coordinates": [ 6.156351, 46.198811 ] } },
{ "type": "Feature", "properties": { "stop_id": "unmatched_MUTR00", "stop_code": "MUTR00", "stop_name": "Muséum-Tranchées", "stop_desc": null, "stop_lat": 46.198158, "stop_lon": 6.155174, "zone_id": null, "stop_url": null, "location_type": 1, "parent_station": null, "active": false }, "geometry": { "type": "Point", "coordinates": [ 6.155174, 46.198158 ] } },
{ "type": "Feature", "properties": { "stop_id": "unmatched_PAIX00", "stop_code": "PAIX00", "stop_name": "Beau-Rivage - Paix", "stop_desc": null, "stop_lat": 46.208286, "stop_lon": 6.149116, "zone_id": null, "stop_url": null, "location_type": 1, "parent_station": null, "active": false }, "geometry": { "type": "Point", "coordinates": [ 6.149116, 46.208286 ] } },
{ "type": "Feature", "properties": { "stop_id": "unmatched_PLEV05", "stop_code": "PLEV05", "stop_name": "Place des Eaux-Vives", "stop_desc": null, "stop_lat": 46.201778, "stop_lon": 6.15749, "zone_id": null, "stop_url": null, "location_type": 1, "parent_station": null, "active": false }, "geometry": { "type": "Point", "coordinates": [ 6.15749, 46.201778 ] } },
{ "type": "Feature", "properties": { "stop_id": "unmatched_PLEVST", "stop_code": "PLEVST", "stop_name": "Place des Eaux-Vives Stationnement", "stop_desc": null, "stop_lat": 46.202663, "stop_lon": 6.15402, "zone_id": null, "stop_url": null, "location_type": 1, "parent_station": null, "active": false }, "geometry": { "type": "Point", "coordinates": [ 6.15402, 46.202663 ] } },
{ "type": "Feature", "properties": { "stop_id": "unmatched_PLEY01", "stop_code": "PLEY01", "stop_name": "Palais Eynard", "stop_desc": null, "stop_lat": 46.200092, "stop_lon": 6.146719, "zone_id": null, "stop_url": null, "location_type": 1, "parent_station": null, "active": true }, "geometry": { "type": "Point", "coordinates": [ 6.146719, 46.200092 ] } },
{ "type": "Feature", "properties": { "stop_id": "unmatched_PLPA06", "stop_code": "PLPA06", "stop_name": "Plainpalais", "stop_desc": null, "stop_lat": 46.198837, "stop_lon": 6.143872, "zone_id": null, "stop_url": null, "location_type": 1, "parent_station": null, "active": false }, "geometry": { "type": "Point", "coordinates": [ 6.143872, 46.198837 ] } },
{ "type": "Feature", "properties": { "stop_id": "unmatched_PLPA97", "stop_code": "PLPA97", "stop_name": "Plainpalais", "stop_desc": null, "stop_lat": 46.198475, "stop_lon": 6.143776, "zone_id": null, "stop_url": null, "location_type": 1, "parent_station": null, "active": false }, "geometry": { "type": "Point", "coordinates": [ 6.143776, 46.198475 ] } },
{ "type": "Feature", "properties": { "stop_id": "unmatched_PNEF99", "stop_code": "PNEF99", "stop_name": "Place de Neuve (fictif)", "stop_desc": null, "stop_lat": 46.201393, "stop_lon": 6.144065, "zone_id": null, "stop_url": null, "location_type": 1, "parent_station": null, "active": false }, "geometry": { "type": "Point", "coordinates": [ 6.144065, 46.201393 ] } },
{ "type": "Feature", "properties": { "stop_id": "unmatched_PNEV94", "stop_code": "PNEV94", "stop_name": "Place de Neuve", "stop_desc": null, "stop_lat": 46.201412, "stop_lon": 6.144033, "zone_id": null, "stop_url": null, "location_type": 1, "parent_station": null, "active": false }, "geometry": { "type": "Point", "coordinates": [ 6.144033, 46.201412 ] } },
{ "type": "Feature", "properties": { "stop_id": "unmatched_PNEV97", "stop_code": "PNEV97", "stop_name": "Place de Neuve", "stop_desc": null, "stop_lat": 46.201492, "stop_lon": 6.143541, "zone_id": null, "stop_url": null, "location_type": 1, "parent_station": null, "active": false }, "geometry": { "type": "Point", "coordinates": [ 6.143541, 46.201492 ] } },
{ "type": "Feature", "properties": { "stop_id": "unmatched_PORT00", "stop_code": "PORT00", "stop_name": "Place du Port", "stop_desc": null, "stop_lat": 46.203453, "stop_lon": 6.150798, "zone_id": null, "stop_url": null, "location_type": 1, "parent_station": null, "active": false }, "geometry": { "type": "Point", "coordinates": [ 6.150798, 46.203453 ] } },
{ "type": "Feature", "properties": { "stop_id": "unmatched_RIVE11", "stop_code": "RIVE11", "stop_name": "Rive", "stop_desc": null, "stop_lat": 46.202789, "stop_lon": 6.153457, "zone_id": null, "stop_url": null, "location_type": 1, "parent_station": null, "active": true }, "geometry": { "type": "Point", "coordinates": [ 6.153457, 46.202789 ] } },
{ "type": "Feature", "properties": { "stop_id": "unmatched_RIVE95", "stop_code": "RIVE95", "stop_name": "Rive", "stop_desc": null, "stop_lat": 46.201313, "stop_lon": 6.153372, "zone_id": null, "stop_url": null, "location_type": 1, "parent_station": null, "active": false }, "geometry": { "type": "Point", "coordinates": [ 6.153372, 46.201313 ] } },
{ "type": "Feature", "properties": { "stop_id": "unmatched_RIVE96", "stop_code": "RIVE96", "stop_name": "Rive", "stop_desc": null, "stop_lat": 46.202869, "stop_lon": 6.15352, "zone_id": null, "stop_url": null, "location_type": 1, "parent_station": null, "active": true }, "geometry": { "type": "Point", "coordinates": [ 6.15352, 46.202869 ] } },
{ "type": "Feature", "properties": { "stop_id": "unmatched_RIVE97", "stop_code": "RIVE97", "stop_name": "Rive", "stop_desc": null, "stop_lat": 46.203773, "stop_lon": 6.154483, "zone_id": null, "stop_url": null, "location_type": 1, "parent_station": null, "active": false }, "geometry": { "type": "Point", "coordinates": [ 6.154483, 46.203773 ] } },
{ "type": "Feature", "properties": { "stop_id": "unmatched_RIVEST", "stop_code": "RIVEST", "stop_name": "Rive (Stationnement)", "stop_desc": null, "stop_lat": 46.202553, "stop_lon": 6.153717, "zone_id": null, "stop_url": null, "location_type": 1, "parent_station": null, "active": false }, "geometry": { "type": "Point", "coordinates": [ 6.153717, 46.202553 ] } },
{ "type": "Feature", "properties": { "stop_id": "unmatched_THRE00", "stop_code": "THRE00", "stop_name": "Théâtre", "stop_desc": null, "stop_lat": 46.202175, "stop_lon": 6.141693, "zone_id": null, "stop_url": null, "location_type": 1, "parent_station": null, "active": true }, "geometry": { "type": "Point", "coordinates": [ 6.141693, 46.202175 ] } },
{ "type": "Feature", "properties": { "stop_id": "unmatched_THRE99", "stop_code": "THRE99", "stop_name": "Théâtre", "stop_desc": null, "stop_lat": 46.202328, "stop_lon": 6.142825, "zone_id": null, "stop_url": null, "location_type": 1, "parent_station": null, "active": false }, "geometry": { "type": "Point", "coordinates": [ 6.142825, 46.202328 ] } },
{ "type": "Feature", "properties": { "stop_id": "unmatched_XPLEV2", "stop_code": "XPLEV2", "stop_name": "Place des Eaux-Vives", "stop_desc": null, "stop_lat": 46.205276, "stop_lon": 6.155128, "zone_id": null, "stop_url": null, "location_type": 1, "parent_station": null, "active": false }, "geometry": { "type": "Point", "coordinates": [ 6.155128, 46.205276 ] } },
{ "type": "Feature", "properties": { "stop_id": "unmatched_ATHE01", "stop_code": "ATHE01", "stop_name": "Athénée", "stop_desc": null, "stop_lat": 46.198406, "stop_lon": 6.148546, "zone_id": null, "stop_url": null, "location_type": 1, "parent_station": null, "active": true }, "geometry": { "type": "Point", "coordinates": [ 6.148546, 46.198406 ] } },
{ "type": "Feature", "properties": { "stop_id": "unmatched_ATHE05", "stop_code": "ATHE05", "stop_name": "Athénée", "stop_desc": null, "stop_lat": 46.198502, "stop_lon": 6.147391, "zone_id": null, "stop_url": null, "location_type": 1, "parent_station": null, "active": false }, "geometry": { "type": "Point", "coordinates": [ 6.147391, 46.198502 ] } },
{ "type": "Feature", "properties": { "stop_id": "unmatched_ATHE99", "stop_code": "ATHE99", "stop_name": "Athénée", "stop_desc": null, "stop_lat": 46.197697, "stop_lon": 6.148572, "zone_id": null, "stop_url": null, "location_type": 1, "parent_station": null, "active": false }, "geometry": { "type": "Point", "coordinates": [ 6.148572, 46.197697 ] } },
{ "type": "Feature", "properties": { "stop_id": "unmatched_BAIR01", "stop_code": "BAIR01", "stop_name": "Bel-Air", "stop_desc": null, "stop_lat": 46.204826, "stop_lon": 6.143483, "zone_id": null, "stop_url": null, "location_type": 1, "parent_station": null, "active": true }, "geometry": { "type": "Point", "coordinates": [ 6.143483, 46.204826 ] } },
{ "type": "Feature", "properties": { "stop_id": "unmatched_BAIR02", "stop_code": "BAIR02", "stop_name": "Bel-Air", "stop_desc": null, "stop_lat": 46.204601, "stop_lon": 6.143449, "zone_id": null, "stop_url": null, "location_type": 1, "parent_station": null, "active": true }, "geometry": { "type": "Point", "coordinates": [ 6.143449, 46.204601 ] } },
{ "type": "Feature", "properties": { "stop_id": "unmatched_BAIR03", "stop_code": "BAIR03", "stop_name": "Bel-Air", "stop_desc": null, "stop_lat": 46.204456, "stop_lon": 6.143751, "zone_id": null, "stop_url": null, "location_type": 1, "parent_station": null, "active": false }, "geometry": { "type": "Point", "coordinates": [ 6.143751, 46.204456 ] } },
{ "type": "Feature", "properties": { "stop_id": "unmatched_BAIR05", "stop_code": "BAIR05", "stop_name": "Bel-Air", "stop_desc": null, "stop_lat": 46.203716, "stop_lon": 6.144637, "zone_id": null, "stop_url": null, "location_type": 1, "parent_station": null, "active": true }, "geometry": { "type": "Point", "coordinates": [ 6.144637, 46.203716 ] } },
{ "type": "Feature", "properties": { "stop_id": "unmatched_BAIR06", "stop_code": "BAIR06", "stop_name": "Bel-Air", "stop_desc": null, "stop_lat": 46.203976, "stop_lon": 6.143879, "zone_id": null, "stop_url": null, "location_type": 1, "parent_station": null, "active": true }, "geometry": { "type": "Point", "coordinates": [ 6.143879, 46.203976 ] } },
{ "type": "Feature", "properties": { "stop_id": "unmatched_BAIR98", "stop_code": "BAIR98", "stop_name": "Bel-Air", "stop_desc": null, "stop_lat": 46.202877, "stop_lon": 6.142744, "zone_id": null, "stop_url": null, "location_type": 1, "parent_station": null, "active": false }, "geometry": { "type": "Point", "coordinates": [ 6.142744, 46.202877 ] } },
{ "type": "Feature", "properties": { "stop_id": "unmatched_BAPO00", "stop_code": "BAPO00", "stop_name": "Bel-Air (Pont)", "stop_desc": null, "stop_lat": 46.204651, "stop_lon": 6.143086, "zone_id": null, "stop_url": null, "location_type": 1, "parent_station": null, "active": false }, "geometry": { "type": "Point", "coordinates": [ 6.143086, 46.204651 ] } },
{ "type": "Feature", "properties": { "stop_id": "unmatched_BAPO01", "stop_code": "BAPO01", "stop_name": "Bel-Air (Pont)", "stop_desc": null, "stop_lat": 46.205036, "stop_lon": 6.14305, "zone_id": null, "stop_url": null, "location_type": 1, "parent_station": null, "active": false }, "geometry": { "type": "Point", "coordinates": [ 6.14305, 46.205036 ] } },
{ "type": "Feature", "properties": { "stop_id": "unmatched_BART00", "stop_code": "BART00", "stop_name": "Bartholoni", "stop_desc": null, "stop_lat": 46.200184, "stop_lon": 6.142493, "zone_id": null, "stop_url": null, "location_type": 1, "parent_station": null, "active": false }, "geometry": { "type": "Point", "coordinates": [ 6.142493, 46.200184 ] } },
{ "type": "Feature", "properties": { "stop_id": "unmatched_BVYL00", "stop_code": "BVYL00", "stop_name": "Bovy-Lysberg", "stop_desc": null, "stop_lat": 46.202396, "stop_lon": 6.142854, "zone_id": null, "stop_url": null, "location_type": 1, "parent_station": null, "active": true }, "geometry": { "type": "Point", "coordinates": [ 6.142854, 46.202396 ] } },
{ "type": "Feature", "properties": { "stop_id": "unmatched_BVYLST", "stop_code": "BVYLST", "stop_name": "Bovy-Lysberg (ST)", "stop_desc": null, "stop_lat": 46.202934, "stop_lon": 6.142707, "zone_id": null, "stop_url": null, "location_type": 1, "parent_station": null, "active": false }, "geometry": { "type": "Point", "coordinates": [ 6.142707, 46.202934 ] } },
{ "type": "Feature", "properties": { "stop_id": "unmatched_CIGO00", "stop_code": "CIGO00", "stop_name": "Cigogne", "stop_desc": null, "stop_lat": 46.202534, "stop_lon": 6.149666, "zone_id": null, "stop_url": null, "location_type": 1, "parent_station": null, "active": false }, "geometry": { "type": "Point", "coordinates": [ 6.149666, 46.202534 ] } },
{ "type": "Feature", "properties": { "stop_id": "unmatched_CLAP95", "stop_code": "CLAP95", "stop_name": "Place Claparède", "stop_desc": null, "stop_lat": 46.196655, "stop_lon": 6.149695, "zone_id": null, "stop_url": null, "location_type": 1, "parent_station": null, "active": false }, "geometry": { "type": "Point", "coordinates": [ 6.149695, 46.196655 ] } },
{ "type": "Feature", "properties": { "stop_id": "unmatched_CNDL99", "stop_code": "CNDL99", "stop_name": "Genève, De-Candolle", "stop_desc": null, "stop_lat": 46.198269, "stop_lon": 6.144725, "zone_id": null, "stop_url": null, "location_type": 1, "parent_station": null, "active": false }, "geometry": { "type": "Point", "coordinates": [ 6.144725, 46.198269 ] } },
{ "type": "Feature", "properties": { "stop_id": "unmatched_CNDLST", "stop_code": "CNDLST", "stop_name": "Genève, De-Candolle (st)", "stop_desc": null, "stop_lat": 46.197586, "stop_lon": 6.145861, "zone_id": null, "stop_url": null, "location_type": 1, "parent_station": null, "active": false }, "geometry": { "type": "Point", "coordinates": [ 6.145861, 46.197586 ] } },
{ "type": "Feature", "properties": { "stop_id": "unmatched_CRXR01", "stop_code": "CRXR01", "stop_name": "Croix-Rouge", "stop_desc": null, "stop_lat": 46.200077, "stop_lon": 6.146706, "zone_id": null, "stop_url": null, "location_type": 1, "parent_station": null, "active": false }, "geometry": { "type": "Point", "coordinates": [ 6.146706, 46.200077 ] } },
{ "type": "Feature", "properties": { "stop_id": "unmatched_DBAIR", "stop_code": "DBAIR", "stop_name": "Dépôt Bel-Air", "stop_desc": null, "stop_lat": 46.204845, "stop_lon": 6.143477, "zone_id": null, "stop_url": null, "location_type": 1, "parent_station": null, "active": false }, "geometry": { "type": "Point", "coordinates": [ 6.143477, 46.204845 ] } },
{ "type": "Feature", "properties": { "stop_id": "unmatched_FOBA00", "stop_code": "FOBA00", "stop_name": "Fondation Baur", "stop_desc": null, "stop_lat": 46.19788, "stop_lon": 6.153919, "zone_id": null, "stop_url": null, "location_type": 1, "parent_station": null, "active": false }, "geometry": { "type": "Point", "coordinates": [ 6.153919, 46.19788 ] } },
{ "type": "Feature", "properties": { "stop_id": "unmatched_FOBA01", "stop_code": "FOBA01", "stop_name": "Fondation Baur", "stop_desc": null, "stop_lat": 46.197998, "stop_lon": 6.154004, "zone_id": null, "stop_url": null, "location_type": 1, "parent_station": null, "active": false }, "geometry": { "type": "Point", "coordinates": [ 6.154004, 46.197998 ] } },
{ "type": "Feature", "properties": { "stop_id": "unmatched_LONG00", "stop_code": "LONG00", "stop_name": "Longemalle", "stop_desc": null, "stop_lat": 46.202541, "stop_lon": 6.149612, "zone_id": null, "stop_url": null, "location_type": 1, "parent_station": null, "active": false }, "geometry": { "type": "Point", "coordinates": [ 6.149612, 46.202541 ] } },
{ "type": "Feature", "properties": { "stop_id": "unmatched_MTBL99", "stop_code": "MTBL99", "stop_name": "Mont-Blanc", "stop_desc": null, "stop_lat": 46.208107, "stop_lon": 6.148756, "zone_id": null, "stop_url": null, "location_type": 1, "parent_station": null, "active": false }, "geometry": { "type": "Point", "coordinates": [ 6.148756, 46.208107 ] } },
{ "type": "Feature", "properties": { "stop_id": "unmatched_MUSE98", "stop_code": "MUSE98", "stop_name": "Muséum", "stop_desc": null, "stop_lat": 46.199039, "stop_lon": 6.156489, "zone_id": null, "stop_url": null, "location_type": 1, "parent_station": null, "active": false }, "geometry": { "type": "Point", "coordinates": [ 6.156489, 46.199039 ] } },
{ "type": "Feature", "properties": { "stop_id": "unmatched_PLEV98", "stop_code": "PLEV98", "stop_name": "Place des Eaux-Vives", "stop_desc": null, "stop_lat": 46.201733, "stop_lon": 6.157694, "zone_id": null, "stop_url": null, "location_type": 1, "parent_station": null, "active": false }, "geometry": { "type": "Point", "coordinates": [ 6.157694, 46.201733 ] } },
{ "type": "Feature", "properties": { "stop_id": "unmatched_PLEY02", "stop_code": "PLEY02", "stop_name": "Palais Eynard", "stop_desc": null, "stop_lat": 46.19968, "stop_lon": 6.147648, "zone_id": null, "stop_url": null, "location_type": 1, "parent_station": null, "active": false }, "geometry": { "type": "Point", "coordinates": [ 6.147648, 46.19968 ] } },
{ "type": "Feature", "properties": { "stop_id": "unmatched_PLEY99", "stop_code": "PLEY99", "stop_name": "Palais Eynard", "stop_desc": null, "stop_lat": 46.198769, "stop_lon": 6.147545, "zone_id": null, "stop_url": null, "location_type": 1, "parent_station": null, "active": false }, "geometry": { "type": "Point", "coordinates": [ 6.147545, 46.198769 ] } },
{ "type": "Feature", "properties": { "stop_id": "unmatched_PNEV04", "stop_code": "PNEV04", "stop_name": "Place de Neuve", "stop_desc": null, "stop_lat": 46.201, "stop_lon": 6.1436, "zone_id": null, "stop_url": null, "location_type": 1, "parent_station": null, "active": true }, "geometry": { "type": "Point", "coordinates": [ 6.1436, 46.201 ] } },
{ "type": "Feature", "properties": { "stop_id": "unmatched_PNEV05", "stop_code": "PNEV05", "stop_name": "Place de Neuve", "stop_desc": null, "stop_lat": 46.201504, "stop_lon": 6.144029, "zone_id": null, "stop_url": null, "location_type": 1, "parent_station": null, "active": true }, "geometry": { "type": "Point", "coordinates": [ 6.144029, 46.201504 ] } },
{ "type": "Feature", "properties": { "stop_id": "unmatched_PNEV95", "stop_code": "PNEV95", "stop_name": "Place de Neuve", "stop_desc": null, "stop_lat": 46.202244, "stop_lon": 6.143519, "zone_id": null, "stop_url": null, "location_type": 1, "parent_station": null, "active": false }, "geometry": { "type": "Point", "coordinates": [ 6.143519, 46.202244 ] } },
{ "type": "Feature", "properties": { "stop_id": "unmatched_PNEV99", "stop_code": "PNEV99", "stop_name": "Place de Neuve", "stop_desc": null, "stop_lat": 46.201061, "stop_lon": 6.143638, "zone_id": null, "stop_url": null, "location_type": 1, "parent_station": null, "active": false }, "geometry": { "type": "Point", "coordinates": [ 6.143638, 46.201061 ] } },
{ "type": "Feature", "properties": { "stop_id": "unmatched_PNEVST", "stop_code": "PNEVST", "stop_name": "Place de Neuve (ST)", "stop_desc": null, "stop_lat": 46.200901, "stop_lon": 6.143353, "zone_id": null, "stop_url": null, "location_type": 1, "parent_station": null, "active": false }, "geometry": { "type": "Point", "coordinates": [ 6.143353, 46.200901 ] } },
{ "type": "Feature", "properties": { "stop_id": "unmatched_RIVE01", "stop_code": "RIVE01", "stop_name": "Rive", "stop_desc": null, "stop_lat": 46.20155, "stop_lon": 6.153603, "zone_id": null, "stop_url": null, "location_type": 1, "parent_station": null, "active": true }, "geometry": { "type": "Point", "coordinates": [ 6.153603, 46.20155 ] } },
{ "type": "Feature", "properties": { "stop_id": "unmatched_RIVE06", "stop_code": "RIVE06", "stop_name": "Rive", "stop_desc": null, "stop_lat": 46.20171, "stop_lon": 6.152692, "zone_id": null, "stop_url": null, "location_type": 1, "parent_station": null, "active": true }, "geometry": { "type": "Point", "coordinates": [ 6.152692, 46.20171 ] } },
{ "type": "Feature", "properties": { "stop_id": "unmatched_RIVE07", "stop_code": "RIVE07", "stop_name": "Rive", "stop_desc": null, "stop_lat": 46.202446, "stop_lon": 6.15364, "zone_id": null, "stop_url": null, "location_type": 1, "parent_station": null, "active": false }, "geometry": { "type": "Point", "coordinates": [ 6.15364, 46.202446 ] } },
{ "type": "Feature", "properties": { "stop_id": "unmatched_RIVE08", "stop_code": "RIVE08", "stop_name": "Rive", "stop_desc": null, "stop_lat": 46.201912, "stop_lon": 6.152286, "zone_id": null, "stop_url": null, "location_type": 1, "parent_station": null, "active": true }, "geometry": { "type": "Point", "coordinates": [ 6.152286, 46.201912 ] } },
{ "type": "Feature", "properties": { "stop_id": "unmatched_RIVE09", "stop_code": "RIVE09", "stop_name": "Rive", "stop_desc": null, "stop_lat": 46.201645, "stop_lon": 6.151813, "zone_id": null, "stop_url": null, "location_type": 1, "parent_station": null, "active": true }, "geometry": { "type": "Point", "coordinates": [ 6.151813, 46.201645 ] } },
{ "type": "Feature", "properties": { "stop_id": "unmatched_RIVE12", "stop_code": "RIVE12", "stop_name": "Rive", "stop_desc": null, "stop_lat": 46.202091, "stop_lon": 6.15359, "zone_id": null, "stop_url": null, "location_type": 1, "parent_station": null, "active": false }, "geometry": { "type": "Point", "coordinates": [ 6.15359, 46.202091 ] } },
{ "type": "Feature", "properties": { "stop_id": "unmatched_RIVE14", "stop_code": "RIVE14", "stop_name": "Rive", "stop_desc": null, "stop_lat": 46.202648, "stop_lon": 6.15366, "zone_id": null, "stop_url": null, "location_type": 1, "parent_station": null, "active": false }, "geometry": { "type": "Point", "coordinates": [ 6.15366, 46.202648 ] } },
{ "type": "Feature", "properties": { "stop_id": "unmatched_RIVE98", "stop_code": "RIVE98", "stop_name": "Rive", "stop_desc": null, "stop_lat": 46.201443, "stop_lon": 6.153061, "zone_id": null, "stop_url": null, "location_type": 1, "parent_station": null, "active": false }, "geometry": { "type": "Point", "coordinates": [ 6.153061, 46.201443 ] } },
{ "type": "Feature", "properties": { "stop_id": "unmatched_STND05", "stop_code": "STND05", "stop_name": "Stand", "stop_desc": null, "stop_lat": 46.203651, "stop_lon": 6.141438, "zone_id": null, "stop_url": null, "location_type": 1, "parent_station": null, "active": false }, "geometry": { "type": "Point", "coordinates": [ 6.141438, 46.203651 ] } },
{ "type": "Feature", "properties": { "stop_id": "unmatched_SWIS00", "stop_code": "SWIS00", "stop_name": "Swissôtel", "stop_desc": null, "stop_lat": 46.203289, "stop_lon": 6.151844, "zone_id": null, "stop_url": null, "location_type": 1, "parent_station": null, "active": false }, "geometry": { "type": "Point", "coordinates": [ 6.151844, 46.203289 ] } },
{ "type": "Feature", "properties": { "stop_id": "unmatched_TRSI02", "stop_code": "TRSI02", "stop_name": "Terrassière", "stop_desc": null, "stop_lat": 46.200729, "stop_lon": 6.155241, "zone_id": null, "stop_url": null, "location_type": 1, "parent_station": null, "active": true }, "geometry": { "type": "Point", "coordinates": [ 6.155241, 46.200729 ] } },
{ "type": "Feature", "properties": { "stop_id": "unmatched_TRSI03", "stop_code": "TRSI03", "stop_name": "Terrassière", "stop_desc": null, "stop_lat": 46.201035, "stop_lon": 6.155883, "zone_id": null, "stop_url": null, "location_type": 1, "parent_station": null, "active": true }, "geometry": { "type": "Point", "coordinates": [ 6.155883, 46.201035 ] } },
{ "type": "Feature", "properties": { "stop_id": "unmatched_TRSI97", "stop_code": "TRSI97", "stop_name": "Terrassière", "stop_desc": null, "stop_lat": 46.201054, "stop_lon": 6.156063, "zone_id": null, "stop_url": null, "location_type": 1, "parent_station": null, "active": false }, "geometry": { "type": "Point", "coordinates": [ 6.156063, 46.201054 ] } },
{ "type": "Feature", "properties": { "stop_id": "unmatched_VILL99", "stop_code": "VILL99", "stop_name": "Villereuse", "stop_desc": null, "stop_lat": 46.200764, "stop_lon": 6.157975, "zone_id": null, "stop_url": null, "location_type": 1, "parent_station": null, "active": false }, "geometry": { "type": "Point", "coordinates": [ 6.157975, 46.200764 ] } }
]
}
