{
"type": "FeatureCollection",
"name": "itineraries",
"crs": { "type": "name", "properties": { "name": "urn:ogc:def:crs:OGC:1.3:CRS84" } },
"features": [
{ "type": "Feature", "properties": { "route_id": "91-12-B-j25-1", "direction_id": 0, "trip_id": "1.TA.91-12-B-j25-1.1.H", "headsign": "Genève, Plainpalais", "route_short_name": "12", "route_long_name": "", "route_type": 0, "color": "F5A300", "text_color": "000000" }, "geometry": { "type": "LineString", "coordinates": [ [ 6.14303924, 46.18882273 ], [ 6.14400044, 46.19183881 ], [ 6.14093718, 46.19511589 ], [ 6.14281466, 46.19803836 ] ] } },
{ "type": "Feature", "properties": { "route_id": "91-12-B-j25-1", "direction_id": 1, "trip_id": "15417.TA.91-12-B-j25-1.60.R", "headsign": "Grand-Lancy, Palettes", "route_short_name": "12", "route_long_name": "", "route_type": 0, "color": "F5A300", "text_color": "000000" }, "geometry": { "type": "LineString", "coordinates": [ [ 6.13839495, 46.1798668 ], [ 6.13265471, 46.17613473 ] ] } },
{ "type": "Feature", "properties": { "route_id": "91-12-B-j26-1", "direction_id": 0, "trip_id": "1000.TA.91-12-B-j26-1.13.H", "headsign": "Thônex, Moillesulaz", "route_short_name": "12", "route_long_name": "", "route_type": 0, "color": "F5A300", "text_color": "000000" }, "geometry": { "type": "LineString", "coordinates": [ [ 6.13267268, 46.17609118 ], [ 6.1385836, 46.1798357 ], [ 6.1409282, 46.18140309 ], [ 6.14078447, 46.18390337 ], [ 6.14064074, 46.18691972 ], [ 6.14315602, 46.18919586 ], [ 6.14392857, 46.19219327 ], [ 6.14342551, 46.19500396 ], [ 6.14304822, 46.1980881 ], [ 6.14385671, 46.20099176 ], [ 6.14464722, 46.20365901 ], [ 6.14740505, 46.20301863 ], [ 6.15286681, 46.2017192 ], [ 6.15647804, 46.20098554 ], [ 6.15879569, 46.20054409 ], [ 6.16478745, 46.20009021 ], [ 6.16839868, 46.20000938 ], [ 6.17492045, 46.1995244 ], [ 6.1806517, 46.19880937 ], [ 6.18598769, 46.19820624 ], [ 6.19250946, 46.1953584 ] ] } },
{ "type": "Feature", "properties": { "route_id": "91-12-B-j26-1", "direction_id": 1, "trip_id": "1042.TA.91-12-B-j26-1.15.R", "headsign": "Lancy-Bachet, gare", "route_short_name": "12", "route_long_name": "", "route_type": 0, "color": "F5A300", "text_color": "000000" }, "geometry": { "type": "LineString", "coordinates": [ [ 6.14281466, 46.19803836 ], [ 6.14342551, 46.19489825 ], [ 6.14400044, 46.19183881 ], [ 6.14303924, 46.18882273 ], [ 6.14020955, 46.18680155 ], [ 6.14074853, 46.18391581 ], [ 6.14082938, 46.1812165 ], [ 6.13839495, 46.1798668 ], [ 6.13265471, 46.17613473 ] ] } },
{ "type": "Feature", "properties": { "route_id": "91-14-D-j25-1", "direction_id": 0, "trip_id": "1.TA.91-14-D-j25-1.1.H", "headsign": "Genève, gare Cornavin", "route_short_name": "14", "route_long_name": "", "route_type": 0, "color": "5A1E82", "text_color": "FFFFFF" }, "geometry": { "type": "LineString", "coordinates": [ [ 6.13313082, 46.20295646 ], [ 6.14153007, 46.20761301 ], [ 6.14223974, 46.2093599 ] ] } },
{ "type": "Feature", "properties": { "route_id": "91-14-D-j25-1", "direction_id": 1, "trip_id": "10004.TA.91-14-D-j25-1.71.R", "headsign": "Genève, Palladium", "route_short_name": "14", "route_long_name": "", "route_type": 0, "color": "5A1E82", "text_color": "FFFFFF" }, "geometry": { "type": "LineString", "coordinates": [ [ 6.14223974, 46.2093599 ], [ 6.13949089, 46.20717162 ], [ 6.13313082, 46.20295646 ] ] } },
{ "type": "Feature", "properties": { "route_id": "91-14-D-j26-1", "direction_id": 0, "trip_id": "1.TA.91-14-D-j26-1.28.H", "headsign": "Genève, gare Cornavin", "route_short_name": "14", "route_long_name": "", "route_type": 0, "color": "5A1E82", "text_color": "FFFFFF" }, "geometry": { "type": "LineString", "coordinates": [ [ 6.13313082, 46.20295646 ], [ 6.14153007, 46.20761301 ], [ 6.14223974, 46.2093599 ] ] } },
{ "type": "Feature", "properties": { "route_id": "91-14-D-j26-1", "direction_id": 1, "trip_id": "1116.TA.91-14-D-j26-1.48.R", "headsign": "Genève, Palladium", "route_short_name": "14", "route_long_name": "", "route_type": 0, "color": "5A1E82", "text_color": "FFFFFF" }, "geometry": { "type": "LineString", "coordinates": [ [ 6.14223974, 46.2093599 ], [ 6.13949089, 46.20717162 ], [ 6.13313082, 46.20295646 ] ] } },
{ "type": "Feature", "properties": { "route_id": "91-15-D-j25-1", "direction_id": 0, "trip_id": "1.TA.91-15-D-j25-1.1.H", "headsign": "Lancy-Pont-Rouge, gare/Etoile", "route_short_name": "15", "route_long_name": "", "route_type": 0, "color": "84471C", "text_color": "FFFFFF" }, "geometry": { "type": "LineString", "coordinates": [ [ 6.1215156, 46.17931944 ], [ 6.12065322, 46.18195043 ], [ 6.12183002, 46.18408995 ], [ 6.12762415, 46.18758516 ] ] } },
{ "type": "Feature", "properties": { "route_id": "91-15-D-j25-1", "direction_id": 1, "trip_id": "11372.TA.91-15-D-j25-1.77.R", "headsign": "Genève, gare Cornavin", "route_short_name": "15", "route_long_name": "", "route_type": 0, "color": "84471C", "text_color": "FFFFFF" }, "geometry": { "type": "LineString", "coordinates": [ [ 6.14790811, 46.21673225 ], [ 6.14549164, 46.21315187 ], [ 6.14243737, 46.20973289 ] ] } },
{ "type": "Feature", "properties": { "route_id": "91-15-D-j26-1", "direction_id": 1, "trip_id": "1085.TA.91-15-D-j26-1.17.R", "headsign": "Genève, gare Cornavin", "route_short_name": "15", "route_long_name": "", "route_type": 0, "color": "84471C", "text_color": "FFFFFF" }, "geometry": { "type": "LineString", "coordinates": [ [ 6.13914055, 46.22230127 ], [ 6.14565334, 46.22002649 ], [ 6.14790811, 46.21673225 ], [ 6.14549164, 46.21315187 ], [ 6.14243737, 46.20973289 ] ] } },
{ "type": "Feature", "properties": { "route_id": "91-17-D-j25-1", "direction_id": 0, "trip_id": "1.TA.91-17-D-j25-1.1.H", "headsign": "Lancy-Bachet, gare", "route_short_name": "17", "route_long_name": "", "route_type": 0, "color": "00ACE7", "text_color": "000000" }, "geometry": { "type": "LineString", "coordinates": [ [ 6.13839495, 46.1798668 ], [ 6.13265471, 46.17613473 ] ] } },
{ "type": "Feature", "properties": { "route_id": "91-17-D-j25-1", "direction_id": 1, "trip_id": "4248.TA.91-17-D-j25-1.64.R", "headsign": "Carouge GE, Rondeau", "route_short_name": "17", "route_long_name": "", "route_type": 0, "color": "00ACE7", "text_color": "000000" }, "geometry": { "type": "LineString", "coordinates": [ [ 6.1327176, 46.17606008 ], [ 6.1385836, 46.1798357 ] ] } },
{ "type": "Feature", "properties": { "route_id": "91-17-D-j26-1", "direction_id": 0, "trip_id": "13.TA.91-17-D-j26-1.2.H", "headsign": "Genève, Plainpalais", "route_short_name": "17", "route_long_name": "", "route_type": 0, "color": "00ACE7", "text_color": "000000" }, "geometry": { "type": "LineString", "coordinates": [ [ 6.12459683, 46.18805158 ], [ 6.12761517, 46.18755406 ], [ 6.13123538, 46.18902174 ], [ 6.13359795, 46.19028415 ], [ 6.13851173, 46.19274671 ], [ 6.14123363, 46.19480498 ], [ 6.14285958, 46.19808188 ] ] } },
{ "type": "Feature", "properties": { "route_id": "91-17-D-j26-1", "direction_id": 1, "trip_id": "501.TA.91-17-D-j26-1.33.R", "headsign": "Lancy-Pont-Rouge, gare", "route_short_name": "17", "route_long_name": "", "route_type": 0, "color": "00ACE7", "text_color": "000000" }, "geometry": { "type": "LineString", "coordinates": [ [ 6.14194329, 46.19828085 ], [ 6.14086532, 46.19455003 ], [ 6.13804461, 46.1925726 ], [ 6.13406507, 46.19045828 ], [ 6.13076825, 46.18884761 ], [ 6.12686956, 46.1875665 ], [ 6.12459683, 46.18805158 ] ] } },
{ "type": "Feature", "properties": { "route_id": "91-18-j25-1", "direction_id": 1, "trip_id": "10000.TA.91-18-j25-1.116.R", "headsign": "Genève, Bel-Air", "route_short_name": "18", "route_long_name": "", "route_type": 0, "color": "B82F89", "text_color": "FFFFFF" }, "geometry": { "type": "LineString", "coordinates": [ [ 6.11838048, 46.21627228 ], [ 6.12547718, 46.21491723 ], [ 6.13053469, 46.21322025 ], [ 6.13393931, 46.21161025 ], [ 6.1385297, 46.20966451 ], [ 6.14184448, 46.20957747 ], [ 6.14200618, 46.20725244 ], [ 6.14345246, 46.20452941 ] ] } },
{ "type": "Feature", "properties": { "route_id": "91-18-j26-1", "direction_id": 1, "trip_id": "1001.TA.91-18-j26-1.42.R", "headsign": "Grand-Lancy, Palettes", "route_short_name": "18", "route_long_name": "", "route_type": 0, "color": "B82F89", "text_color": "FFFFFF" }, "geometry": { "type": "LineString", "coordinates": [ [ 6.11838048, 46.21627228 ], [ 6.12547718, 46.21491723 ], [ 6.13053469, 46.21322025 ], [ 6.13393931, 46.21161025 ], [ 6.1385297, 46.20966451 ], [ 6.14184448, 46.20957747 ], [ 6.14200618, 46.20725244 ], [ 6.14345246, 46.20452941 ], [ 6.14329975, 46.2006871 ], [ 6.14296737, 46.19764663 ], [ 6.14345246, 46.1945376 ], [ 6.14382976, 46.19178284 ], [ 6.14294042, 46.1887481 ], [ 6.14009276, 46.18674558 ], [ 6.14039819, 46.18431385 ], [ 6.14068565, 46.18106101 ], [ 6.13802664, 46.1796491 ], [ 6.13216064, 46.17583615 ] ] } },
{ "type": "Feature", "properties": { "route_id": "91-18-j26-1", "direction_id": 0, "trip_id": "101.TA.91-18-j26-1.6.H", "headsign": "Vernier, Blandonnet", "route_short_name": "18", "route_long_name": "", "route_type": 0, "color": "B82F89", "text_color": "FFFFFF" }, "geometry": { "type": "LineString", "coordinates": [ [ 6.1414582, 46.20991938 ], [ 6.13784698, 46.21003128 ], [ 6.13326557, 46.21198322 ], [ 6.1298879, 46.21361186 ], [ 6.12490225, 46.21509127 ], [ 6.1176798, 46.21652092 ] ] } },
{ "type": "Feature", "properties": { "route_id": "92-10-H-j25-1", "direction_id": 0, "trip_id": "1.TA.92-10-H-j25-1.1.H", "headsign": "Genève, Rive", "route_short_name": "10", "route_long_name": "", "route_type": 3, "color": "006E3D", "text_color": "FFFFFF" }, "geometry": { "type": "LineString", "coordinates": [ [ 6.13094792, 46.20120937 ], [ 6.139967, 46.20129641 ], [ 6.14187143, 46.20234716 ], [ 6.14464722, 46.20365901 ], [ 6.14740505, 46.20301863 ], [ 6.15272308, 46.2016819 ] ] } },
{ "type": "Feature", "properties": { "route_id": "92-10-H-j25-1", "direction_id": 1, "trip_id": "1000.TA.92-10-H-j25-1.18.R", "headsign": "Genève-Aéroport, Terminal", "route_short_name": "10", "route_long_name": "", "route_type": 3, "color": "006E3D", "text_color": "FFFFFF" }, "geometry": { "type": "LineString", "coordinates": [ [ 6.13094792, 46.20120937 ], [ 6.139967, 46.20129641 ], [ 6.14187143, 46.20234716 ], [ 6.14297636, 46.20506408 ], [ 6.1423655, 46.20760058 ], [ 6.14020955, 46.20888743 ], [ 6.13551136, 46.20851444 ], [ 6.13140606, 46.20882527 ], [ 6.12784873, 46.20848957 ], [ 6.1234919, 46.20894338 ], [ 6.11935066, 46.21325755 ], [ 6.11791336, 46.21667009 ], [ 6.11427518, 46.21982138 ] ] } },
{ "type": "Feature", "properties": { "route_id": "92-10-H-j26-1", "direction_id": 0, "trip_id": "1.TA.92-10-H-j26-1.1.H", "headsign": "Genève, Rive", "route_short_name": "10", "route_long_name": "", "route_type": 3, "color": "006E3D", "text_color": "FFFFFF" }, "geometry": { "type": "LineString", "coordinates": [ [ 6.13094792, 46.20120937 ], [ 6.139967, 46.20129641 ], [ 6.14187143, 46.20234716 ], [ 6.14464722, 46.20365901 ], [ 6.14740505, 46.20301863 ], [ 6.15272308, 46.2016819 ] ] } },
{ "type": "Feature", "properties": { "route_id": "92-10-H-j26-1", "direction_id": 1, "trip_id": "381.TA.92-10-H-j26-1.8.R", "headsign": "Genève, Bel-Air", "route_short_name": "10", "route_long_name": "", "route_type": 3, "color": "006E3D", "text_color": "FFFFFF" }, "geometry": { "type": "LineString", "coordinates": [ [ 6.15281291, 46.2018622 ], [ 6.15601091, 46.2022912 ], [ 6.15151934, 46.20339788 ], [ 6.14718047, 46.20311189 ], [ 6.14304822, 46.20472836 ] ] } },
{ "type": "Feature", "properties": { "route_id": "92-11-I-j25-1", "direction_id": 0, "trip_id": "1.TA.92-11-I-j25-1.30.H", "headsign": "Carouge GE, Fontenette", "route_short_name": "11", "route_long_name": "", "route_type": 3, "color": "9578D3", "text_color": "FFFFFF" }, "geometry": { "type": "LineString", "coordinates": [ [ 6.14877947, 46.22281712 ], [ 6.14464722, 46.22347591 ], [ 6.13818834, 46.22266796 ], [ 6.13521491, 46.21992705 ], [ 6.13048079, 46.21550152 ], [ 6.1290884, 46.21346889 ], [ 6.12703126, 46.21067779 ], [ 6.12717499, 46.20765653 ], [ 6.12801941, 46.20469105 ], [ 6.13230437, 46.20532519 ], [ 6.13213369, 46.20391391 ], [ 6.12946569, 46.2006871 ], [ 6.13004062, 46.19536462 ], [ 6.1344244, 46.19273428 ], [ 6.13672408, 46.19063862 ], [ 6.13668815, 46.18831278 ], [ 6.13546644, 46.18470567 ], [ 6.13584373, 46.18351776 ], [ 6.14100905, 46.18326898 ], [ 6.14381179, 46.18243556 ], [ 6.14586893, 46.18443202 ] ] } },
{ "type": "Feature", "properties": { "route_id": "92-11-I-j25-1", "direction_id": 1, "trip_id": "1251.TA.92-11-I-j25-1.31.R", "headsign": "Genève, Jardin Botanique", "route_short_name": "11", "route_long_name": "", "route_type": 3, "color": "9578D3", "text_color": "FFFFFF" }, "geometry": { "type": "LineString", "coordinates": [ [ 6.14470112, 46.18550174 ], [ 6.13990412, 46.18672071 ], [ 6.13584373, 46.18365459 ], [ 6.13585272, 46.18575051 ], [ 6.13693968, 46.18902795 ], [ 6.13534966, 46.19066349 ], [ 6.13339133, 46.19367325 ], [ 6.12943875, 46.19588072 ], [ 6.13003163, 46.20101663 ], [ 6.13251098, 46.20396987 ], [ 6.13195403, 46.20597176 ], [ 6.12740855, 46.20772491 ], [ 6.12755228, 46.21174079 ], [ 6.13000468, 46.2139724 ], [ 6.13130724, 46.21654578 ], [ 6.13427168, 46.21901959 ], [ 6.13971547, 46.2226866 ], [ 6.14438671, 46.22332053 ], [ 6.14877947, 46.22281712 ] ] } },
{ "type": "Feature", "properties": { "route_id": "92-11-I-j26-1", "direction_id": 0, "trip_id": "100.TA.92-11-I-j26-1.6.H", "headsign": "Genève-Eaux-Vives, gare", "route_short_name": "11", "route_long_name": "", "route_type": 3, "color": "9578D3", "text_color": "FFFFFF" }, "geometry": { "type": "LineString", "coordinates": [ [ 6.14877947, 46.22281712 ], [ 6.14464722, 46.22347591 ], [ 6.13818834, 46.22266796 ], [ 6.13521491, 46.21992705 ], [ 6.13048079, 46.21550152 ], [ 6.1290884, 46.21346889 ], [ 6.12703126, 46.21067779 ], [ 6.12717499, 46.20765653 ], [ 6.12801941, 46.20469105 ], [ 6.13230437, 46.20532519 ], [ 6.13213369, 46.20391391 ], [ 6.12946569, 46.2006871 ], [ 6.13004062, 46.19536462 ], [ 6.1344244, 46.19273428 ], [ 6.13672408, 46.19063862 ], [ 6.13668815, 46.18831278 ], [ 6.13546644, 46.18470567 ], [ 6.13584373, 46.18351776 ], [ 6.14100905, 46.18326898 ], [ 6.14381179, 46.18243556 ], [ 6.14586893, 46.18443202 ], [ 6.15033356, 46.18455019 ], [ 6.15707991, 46.18190067 ], [ 6.15868789, 46.18707519 ], [ 6.16175115, 46.19020331 ], [ 6.16365557, 46.191901 ], [ 6.16565882, 46.19537705 ], [ 6.16743748, 46.1996301 ], [ 6.16558695, 46.20048192 ] ] } },
{ "type": "Feature", "properties": { "route_id": "92-11-I-j26-1", "direction_id": 1, "trip_id": "351.TA.92-11-I-j26-1.7.R", "headsign": "Genève, Jardin Botanique", "route_short_name": "11", "route_long_name": "", "route_type": 3, "color": "9578D3", "text_color": "FFFFFF" }, "geometry": { "type": "LineString", "coordinates": [ [ 6.16452694, 46.20008399 ], [ 6.16768003, 46.20000938 ], [ 6.16610798, 46.19626002 ], [ 6.16365557, 46.19243579 ], [ 6.16140979, 46.19001675 ], [ 6.15891247, 46.18716226 ], [ 6.15731347, 46.18188201 ], [ 6.15013593, 46.18462482 ], [ 6.14622826, 46.18515346 ], [ 6.14020955, 46.18680155 ], [ 6.13531373, 46.18350532 ], [ 6.13566407, 46.1853587 ], [ 6.13710137, 46.18863616 ], [ 6.13596051, 46.19073812 ], [ 6.13394829, 46.19320688 ], [ 6.12880992, 46.19606726 ], [ 6.12969027, 46.20078658 ], [ 6.1323403, 46.20395121 ], [ 6.13222352, 46.20542467 ], [ 6.12733669, 46.2082782 ], [ 6.12735465, 46.21144241 ], [ 6.12987892, 46.21357457 ], [ 6.13067842, 46.21604852 ], [ 6.13473881, 46.21944224 ], [ 6.13914055, 46.22230127 ], [ 6.14462926, 46.2234324 ], [ 6.14771048, 46.22389231 ] ] } },
{ "type": "Feature", "properties": { "route_id": "92-19-C-j25-1", "direction_id": 0, "trip_id": "1.TA.92-19-C-j25-1.1.H", "headsign": "Genève, Jonction", "route_short_name": "19", "route_long_name": "", "route_type": 3, "color": "A05909", "text_color": "FFFFFF" }, "geometry": { "type": "LineString", "coordinates": [ [ 6.14304822, 46.20472836 ], [ 6.14185346, 46.20217307 ], [ 6.14032633, 46.20108502 ], [ 6.12969027, 46.20078658 ] ] } },
{ "type": "Feature", "properties": { "route_id": "92-19-C-j25-1", "direction_id": 1, "trip_id": "1294.TA.92-19-C-j25-1.20.R", "headsign": "Genève, Jonction", "route_short_name": "19", "route_long_name": "", "route_type": 3, "color": "A05909", "text_color": "FFFFFF" }, "geometry": { "type": "LineString", "coordinates": [ [ 6.1076007, 46.19363594 ], [ 6.11216414, 46.1945376 ], [ 6.11538011, 46.19705593 ], [ 6.11791336, 46.19647765 ], [ 6.12227917, 46.1954952 ], [ 6.12969027, 46.20078658 ], [ 6.13282539, 46.19981042 ], [ 6.13626594, 46.1978083 ], [ 6.13754155, 46.19974824 ], [ 6.12969027, 46.20078658 ] ] } },
{ "type": "Feature", "properties": { "route_id": "92-19-C-j26-1", "direction_id": 0, "trip_id": "10.TA.92-19-C-j26-1.1.H", "headsign": "Genève, Jonction", "route_short_name": "19", "route_long_name": "", "route_type": 3, "color": "A05909", "text_color": "FFFFFF" }, "geometry": { "type": "LineString", "coordinates": [ [ 6.14304822, 46.20472836 ], [ 6.14185346, 46.20217307 ], [ 6.14032633, 46.20108502 ], [ 6.12969027, 46.20078658 ] ] } },
{ "type": "Feature", "properties": { "route_id": "92-19-C-j26-1", "direction_id": 1, "trip_id": "473.TA.92-19-C-j26-1.15.R", "headsign": "Genève, Jonction", "route_short_name": "19", "route_long_name": "", "route_type": 3, "color": "A05909", "text_color": "FFFFFF" }, "geometry": { "type": "LineString", "coordinates": [ [ 6.1076007, 46.19363594 ], [ 6.11216414, 46.1945376 ], [ 6.11538011, 46.19705593 ], [ 6.11791336, 46.19647765 ], [ 6.12227917, 46.1954952 ], [ 6.12969027, 46.20078658 ], [ 6.13282539, 46.19981042 ], [ 6.13626594, 46.1978083 ], [ 6.13754155, 46.19974824 ], [ 6.12969027, 46.20078658 ] ] } },
{ "type": "Feature", "properties": { "route_id": "92-1-S-j25-1", "direction_id": 0, "trip_id": "1.TA.92-1-S-j25-1.1.H", "headsign": "Genève, Jardin Botanique", "route_short_name": "1", "route_long_name": "", "route_type": 3, "color": "5A1E82", "text_color": "FFFFFF" }, "geometry": { "type": "LineString", "coordinates": [ [ 6.14243737, 46.20973289 ], [ 6.148501, 46.21047887 ], [ 6.14964186, 46.21188998 ], [ 6.15049526, 46.21351862 ], [ 6.15107018, 46.21678819 ], [ 6.1498305, 46.22039941 ], [ 6.14771048, 46.22389231 ] ] } },
{ "type": "Feature", "properties": { "route_id": "92-1-S-j25-1", "direction_id": 1, "trip_id": "1634.TA.92-1-S-j25-1.25.R", "headsign": "Genève, gare Cornavin", "route_short_name": "1", "route_long_name": "", "route_type": 3, "color": "5A1E82", "text_color": "FFFFFF" }, "geometry": { "type": "LineString", "coordinates": [ [ 6.14771048, 46.22389231 ], [ 6.1498305, 46.22039941 ], [ 6.15107018, 46.21678819 ], [ 6.15049526, 46.21351862 ], [ 6.14964186, 46.21188998 ], [ 6.148501, 46.21047887 ], [ 6.14718946, 46.2090242 ], [ 6.14243737, 46.20973289 ] ] } },
{ "type": "Feature", "properties": { "route_id": "92-1-S-j26-1", "direction_id": 0, "trip_id": "10.TA.92-1-S-j26-1.21.H", "headsign": "Genève, Plainpalais", "route_short_name": "1", "route_long_name": "", "route_type": 3, "color": "5A1E82", "text_color": "FFFFFF" }, "geometry": { "type": "LineString", "coordinates": [ [ 6.15350461, 46.2020052 ], [ 6.15520243, 46.20073062 ], [ 6.15543599, 46.19846117 ], [ 6.15384597, 46.19724247 ], [ 6.15076475, 46.19552629 ], [ 6.14945321, 46.19473658 ], [ 6.14615639, 46.19669529 ], [ 6.14356026, 46.19768394 ] ] } },
{ "type": "Feature", "properties": { "route_id": "92-1-S-j26-1", "direction_id": 1, "trip_id": "337.TA.92-1-S-j26-1.29.R", "headsign": "Genève, Rive", "route_short_name": "1", "route_long_name": "", "route_type": 3, "color": "5A1E82", "text_color": "FFFFFF" }, "geometry": { "type": "LineString", "coordinates": [ [ 6.14356026, 46.19768394 ], [ 6.14301229, 46.19502262 ], [ 6.1472164, 46.19557603 ], [ 6.14893219, 46.19465574 ], [ 6.15116001, 46.19505993 ], [ 6.15433106, 46.19408366 ], [ 6.15633431, 46.1963222 ], [ 6.15734042, 46.19860418 ], [ 6.15574142, 46.20096689 ], [ 6.15541802, 46.20255855 ], [ 6.15350461, 46.2020052 ] ] } },
{ "type": "Feature", "properties": { "route_id": "92-20-B-j25-1", "direction_id": 0, "trip_id": "1.TA.92-20-B-j25-1.23.H", "headsign": "Bellevue GE, Valavran", "route_short_name": "20", "route_long_name": "", "route_type": 3, "color": "00A828", "text_color": "FFFFFF" }, "geometry": { "type": "LineString", "coordinates": [ [ 6.14243737, 46.20973289 ], [ 6.14123363, 46.21293431 ], [ 6.14126956, 46.21669496 ], [ 6.14025446, 46.22077854 ], [ 6.13914055, 46.22230127 ], [ 6.13728104, 46.22655223 ], [ 6.13873631, 46.2300261 ], [ 6.13879919, 46.23230046 ] ] } },
{ "type": "Feature", "properties": { "route_id": "92-20-B-j25-1", "direction_id": 1, "trip_id": "1319.TA.92-20-B-j25-1.29.R", "headsign": "Genève, gare Cornavin", "route_short_name": "20", "route_long_name": "", "route_type": 3, "color": "00A828", "text_color": "FFFFFF" }, "geometry": { "type": "LineString", "coordinates": [ [ 6.13879919, 46.23230046 ], [ 6.13873631, 46.2300261 ], [ 6.13728104, 46.22655223 ], [ 6.13914055, 46.22230127 ], [ 6.14025446, 46.22077854 ], [ 6.14126956, 46.21669496 ], [ 6.14123363, 46.21293431 ], [ 6.14243737, 46.20973289 ] ] } },
{ "type": "Feature", "properties": { "route_id": "92-20-B-j26-1", "direction_id": 0, "trip_id": "100.TA.92-20-B-j26-1.6.H", "headsign": "Bellevue GE, Valavran", "route_short_name": "20", "route_long_name": "", "route_type": 3, "color": "00A828", "text_color": "FFFFFF" }, "geometry": { "type": "LineString", "coordinates": [ [ 6.181559, 46.18168298 ], [ 6.17779506, 46.18309483 ], [ 6.17381552, 46.18465591 ], [ 6.17003361, 46.18736749 ], [ 6.16698832, 46.19021575 ], [ 6.16370947, 46.19259125 ], [ 6.16084385, 46.19387846 ], [ 6.15534616, 46.19630355 ], [ 6.15039644, 46.1963906 ], [ 6.14860879, 46.19837412 ], [ 6.1466864, 46.20009021 ], [ 6.14424298, 46.20126533 ], [ 6.14297636, 46.20506408 ], [ 6.1423655, 46.20760058 ], [ 6.14153905, 46.21051616 ], [ 6.14135939, 46.21338808 ], [ 6.14133244, 46.21680062 ], [ 6.14089227, 46.21979031 ], [ 6.13920343, 46.22200294 ], [ 6.13840393, 46.22788215 ], [ 6.13873631, 46.23008202 ], [ 6.13879919, 46.23221346 ] ] } },
{ "type": "Feature", "properties": { "route_id": "92-20-B-j26-1", "direction_id": 1, "trip_id": "256.TA.92-20-B-j26-1.8.R", "headsign": "Veyrier, Tournettes", "route_short_name": "20", "route_long_name": "", "route_type": 3, "color": "00A828", "text_color": "FFFFFF" }, "geometry": { "type": "LineString", "coordinates": [ [ 6.13879919, 46.23230046 ], [ 6.13873631, 46.2300261 ], [ 6.13728104, 46.22655223 ], [ 6.13914055, 46.22230127 ], [ 6.14025446, 46.22077854 ], [ 6.14126956, 46.21669496 ], [ 6.14123363, 46.21293431 ], [ 6.14243737, 46.20973289 ], [ 6.14219482, 46.20744516 ], [ 6.14304822, 46.20472836 ], [ 6.14294042, 46.20238446 ], [ 6.1441801, 46.20119693 ], [ 6.14712657, 46.19988503 ], [ 6.1489232, 46.1981565 ], [ 6.15072882, 46.19570661 ], [ 6.15385495, 46.19377896 ], [ 6.15616363, 46.19601752 ], [ 6.16079893, 46.19376653 ], [ 6.16365557, 46.19243579 ], [ 6.16736562, 46.18946949 ], [ 6.17016836, 46.18710629 ], [ 6.17413891, 46.18440092 ], [ 6.1783071, 46.18294556 ], [ 6.18158595, 46.18161456 ] ] } },
{ "type": "Feature", "properties": { "route_id": "92-21-H-j25-1", "direction_id": 0, "trip_id": "1.TA.92-21-H-j25-1.1.H", "headsign": "Carouge GE, Rondeau", "route_short_name": "21", "route_long_name": "", "route_type": 3, "color": "78003C", "text_color": "FFFFFF" }, "geometry": { "type": "LineString", "coordinates": [ [ 6.1076007, 46.19363594 ], [ 6.10991835, 46.19256016 ], [ 6.11227194, 46.19054534 ], [ 6.11309839, 46.18809512 ], [ 6.1193327, 46.19039609 ], [ 6.12463276, 46.18810133 ], [ 6.12762415, 46.18758516 ], [ 6.12881891, 46.17943762 ], [ 6.13531373, 46.18350532 ], [ 6.13839495, 46.1798668 ] ] } },
{ "type": "Feature", "properties": { "route_id": "92-21-H-j25-1", "direction_id": 1, "trip_id": "297.TA.92-21-H-j25-1.8.R", "headsign": "Onex, cité", "route_short_name": "21", "route_long_name": "", "route_type": 3, "color": "78003C", "text_color": "FFFFFF" }, "geometry": { "type": "LineString", "coordinates": [ [ 6.13839495, 46.1798668 ], [ 6.13531373, 46.18350532 ], [ 6.12881891, 46.17943762 ], [ 6.12762415, 46.18758516 ], [ 6.12463276, 46.18810133 ], [ 6.1193327, 46.19039609 ], [ 6.11309839, 46.18809512 ], [ 6.10991835, 46.19256016 ], [ 6.1076007, 46.19363594 ] ] } },
{ "type": "Feature", "properties": { "route_id": "92-21-H-j26-1", "direction_id": 0, "trip_id": "1.TA.92-21-H-j26-1.1.H", "headsign": "Carouge GE, Rondeau", "route_short_name": "21", "route_long_name": "", "route_type": 3, "color": "78003C", "text_color": "FFFFFF" }, "geometry": { "type": "LineString", "coordinates": [ [ 6.1076007, 46.19363594 ], [ 6.10991835, 46.19256016 ], [ 6.11227194, 46.19054534 ], [ 6.11309839, 46.18809512 ], [ 6.1193327, 46.19039609 ], [ 6.12463276, 46.18810133 ], [ 6.12762415, 46.18758516 ], [ 6.12881891, 46.17943762 ], [ 6.13531373, 46.18350532 ], [ 6.13839495, 46.1798668 ] ] } },
{ "type": "Feature", "properties": { "route_id": "92-21-H-j26-1", "direction_id": 1, "trip_id": "252.TA.92-21-H-j26-1.5.R", "headsign": "Onex, cité", "route_short_name": "21", "route_long_name": "", "route_type": 3, "color": "78003C", "text_color": "FFFFFF" }, "geometry": { "type": "LineString", "coordinates": [ [ 6.13839495, 46.1798668 ], [ 6.13531373, 46.18350532 ], [ 6.12881891, 46.17943762 ], [ 6.12762415, 46.18758516 ], [ 6.12463276, 46.18810133 ], [ 6.1193327, 46.19039609 ], [ 6.11309839, 46.18809512 ], [ 6.10991835, 46.19256016 ], [ 6.1076007, 46.19363594 ] ] } },
{ "type": "Feature", "properties": { "route_id": "92-22-I-j25-1", "direction_id": 0, "trip_id": "1.TA.92-22-I-j25-1.1.H", "headsign": "Carouge GE, Rondeau", "route_short_name": "22", "route_long_name": "", "route_type": 3, "color": "5A1E82", "text_color": "FFFFFF" }, "geometry": { "type": "LineString", "coordinates": [ [ 6.12290799, 46.21952926 ], [ 6.12108441, 46.21818671 ], [ 6.11808404, 46.21642768 ], [ 6.11937761, 46.21315809 ], [ 6.11788641, 46.21005615 ], [ 6.11279296, 46.21122483 ], [ 6.1099453, 46.2060215 ], [ 6.11216414, 46.1945376 ], [ 6.11227194, 46.19054534 ], [ 6.11309839, 46.18809512 ], [ 6.11641317, 46.18641597 ], [ 6.12065322, 46.18195043 ], [ 6.1215156, 46.17931944 ], [ 6.12881891, 46.17943762 ], [ 6.13531373, 46.18350532 ], [ 6.13839495, 46.1798668 ] ] } },
{ "type": "Feature", "properties": { "route_id": "92-22-I-j25-1", "direction_id": 1, "trip_id": "1126.TA.92-22-I-j25-1.13.R", "headsign": "Vernier, Bouchet", "route_short_name": "22", "route_long_name": "", "route_type": 3, "color": "5A1E82", "text_color": "FFFFFF" }, "geometry": { "type": "LineString", "coordinates": [ [ 6.13839495, 46.1798668 ], [ 6.13531373, 46.18350532 ], [ 6.12881891, 46.17943762 ], [ 6.1215156, 46.17931944 ], [ 6.12065322, 46.18195043 ], [ 6.11641317, 46.18641597 ], [ 6.11309839, 46.18809512 ], [ 6.11227194, 46.19054534 ], [ 6.11216414, 46.1945376 ], [ 6.1099453, 46.2060215 ], [ 6.11279296, 46.21122483 ], [ 6.11788641, 46.21005615 ], [ 6.11937761, 46.21315809 ], [ 6.11808404, 46.21642768 ] ] } },
{ "type": "Feature", "properties": { "route_id": "92-22-I-j26-1", "direction_id": 0, "trip_id": "10.TA.92-22-I-j26-1.17.H", "headsign": "Carouge GE, Rondeau", "route_short_name": "22", "route_long_name": "", "route_type": 3, "color": "5A1E82", "text_color": "FFFFFF" }, "geometry": { "type": "LineString", "coordinates": [ [ 6.14771048, 46.22389231 ], [ 6.14462926, 46.2234324 ], [ 6.13914055, 46.22230127 ], [ 6.13728104, 46.22655223 ], [ 6.13393931, 46.23099551 ], [ 6.13107368, 46.23062887 ], [ 6.12385122, 46.22586862 ], [ 6.12345597, 46.22310301 ], [ 6.12849551, 46.22300357 ], [ 6.12290799, 46.21952926 ], [ 6.12108441, 46.21818671 ], [ 6.11808404, 46.21642768 ], [ 6.11937761, 46.21315809 ], [ 6.11788641, 46.21005615 ], [ 6.11279296, 46.21122483 ], [ 6.1099453, 46.2060215 ], [ 6.11216414, 46.1945376 ], [ 6.11227194, 46.19054534 ], [ 6.11309839, 46.18809512 ], [ 6.11641317, 46.18641597 ], [ 6.12065322, 46.18195043 ], [ 6.1215156, 46.17931944 ], [ 6.12881891, 46.17943762 ], [ 6.13531373, 46.18350532 ], [ 6.13839495, 46.1798668 ] ] } },
{ "type": "Feature", "properties": { "route_id": "92-22-I-j26-1", "direction_id": 1, "trip_id": "261.TA.92-22-I-j26-1.23.R", "headsign": "Genève, Nations", "route_short_name": "22", "route_long_name": "", "route_type": 3, "color": "5A1E82", "text_color": "FFFFFF" }, "geometry": { "type": "LineString", "coordinates": [ [ 6.13822427, 46.18063806 ], [ 6.13565509, 46.183213 ], [ 6.1286123, 46.17861036 ], [ 6.12149764, 46.17954958 ], [ 6.12065322, 46.18214323 ], [ 6.11635029, 46.18665851 ], [ 6.11464349, 46.18826925 ], [ 6.11233482, 46.1908003 ], [ 6.11246957, 46.19507858 ], [ 6.11008005, 46.20622666 ], [ 6.11276601, 46.21113781 ], [ 6.11871286, 46.20978884 ], [ 6.11935066, 46.21325755 ], [ 6.11928778, 46.21652092 ], [ 6.12132696, 46.21829859 ], [ 6.12307867, 46.2195852 ], [ 6.12554006, 46.2219035 ], [ 6.12314156, 46.22327081 ], [ 6.12382427, 46.22596806 ], [ 6.13143301, 46.23080908 ], [ 6.13412795, 46.23079044 ], [ 6.13684985, 46.22659574 ], [ 6.13894292, 46.22236342 ] ] } },
{ "type": "Feature", "properties": { "route_id": "92-23-E-j25-1", "direction_id": 0, "trip_id": "1.TA.92-23-E-j25-1.1.H", "headsign": "Carouge GE, Tours", "route_short_name": "23", "route_long_name": "", "route_type": 3, "color": "B82F89", "text_color": "FFFFFF" }, "geometry": { "type": "LineString", "coordinates": [ [ 6.1099453, 46.2060215 ], [ 6.11216414, 46.1945376 ], [ 6.11227194, 46.19054534 ], [ 6.11309839, 46.18809512 ], [ 6.11641317, 46.18641597 ], [ 6.12065322, 46.18195043 ], [ 6.1215156, 46.17931944 ], [ 6.12881891, 46.17943762 ], [ 6.13531373, 46.18350532 ] ] } },
{ "type": "Feature", "properties": { "route_id": "92-23-E-j25-1", "direction_id": 1, "trip_id": "1059.TA.92-23-E-j25-1.8.R", "headsign": "Grand-Saconnex, Aéroport-P47", "route_short_name": "23", "route_long_name": "", "route_type": 3, "color": "B82F89", "text_color": "FFFFFF" }, "geometry": { "type": "LineString", "coordinates": [ [ 6.13531373, 46.18350532 ], [ 6.12881891, 46.17943762 ], [ 6.1215156, 46.17931944 ], [ 6.12065322, 46.18195043 ], [ 6.11641317, 46.18641597 ], [ 6.11309839, 46.18809512 ], [ 6.11227194, 46.19054534 ], [ 6.11216414, 46.1945376 ], [ 6.1099453, 46.2060215 ] ] } },
{ "type": "Feature", "properties": { "route_id": "92-23-E-j26-1", "direction_id": 0, "trip_id": "100.TA.92-23-E-j26-1.13.H", "headsign": "Carouge GE, Tours", "route_short_name": "23", "route_long_name": "", "route_type": 3, "color": "B82F89", "text_color": "FFFFFF" }, "geometry": { "type": "LineString", "coordinates": [ [ 6.1098914, 46.20592203 ], [ 6.11212821, 46.19455625 ], [ 6.11225397, 46.19027171 ], [ 6.11345772, 46.18856154 ], [ 6.11657487, 46.18621073 ], [ 6.12070712, 46.18177005 ], [ 6.12152459, 46.17913284 ], [ 6.12960044, 46.17975484 ], [ 6.13508017, 46.18326276 ] ] } },
{ "type": "Feature", "properties": { "route_id": "92-23-E-j26-1", "direction_id": 1, "trip_id": "246.TA.92-23-E-j26-1.14.R", "headsign": "Genève-Aéroport, Terminal", "route_short_name": "23", "route_long_name": "", "route_type": 3, "color": "B82F89", "text_color": "FFFFFF" }, "geometry": { "type": "LineString", "coordinates": [ [ 6.13531373, 46.18350532 ], [ 6.12881891, 46.17943762 ], [ 6.1215156, 46.17931944 ], [ 6.12065322, 46.18195043 ], [ 6.11641317, 46.18641597 ], [ 6.11309839, 46.18809512 ], [ 6.11227194, 46.19054534 ], [ 6.11216414, 46.1945376 ], [ 6.1099453, 46.2060215 ] ] } },
{ "type": "Feature", "properties": { "route_id": "92-25-D-j25-1", "direction_id": 0, "trip_id": "1.TA.92-25-D-j25-1.1.H", "headsign": "Genève, Jardin Botanique", "route_short_name": "25", "route_long_name": "", "route_type": 3, "color": "A05909", "text_color": "FFFFFF" }, "geometry": { "type": "LineString", "coordinates": [ [ 6.18658956, 46.19015356 ], [ 6.18189137, 46.19210621 ], [ 6.17664521, 46.19330637 ], [ 6.17201889, 46.19410854 ], [ 6.16610798, 46.19626002 ], [ 6.16351184, 46.19675125 ], [ 6.15730449, 46.19852335 ], [ 6.15641515, 46.2010788 ], [ 6.15601091, 46.2022912 ], [ 6.15151934, 46.20339788 ], [ 6.14699183, 46.20734569 ], [ 6.14243737, 46.20973289 ], [ 6.148501, 46.21047887 ], [ 6.14964186, 46.21188998 ], [ 6.15049526, 46.21351862 ], [ 6.15107018, 46.21678819 ], [ 6.1498305, 46.22039941 ], [ 6.14771048, 46.22389231 ] ] } },
{ "type": "Feature", "properties": { "route_id": "92-25-D-j25-1", "direction_id": 1, "trip_id": "1469.TA.92-25-D-j25-1.5.R", "headsign": "Thônex, Vallard", "route_short_name": "25", "route_long_name": "", "route_type": 3, "color": "A05909", "text_color": "FFFFFF" }, "geometry": { "type": "LineString", "coordinates": [ [ 6.15725957, 46.19846739 ], [ 6.16342201, 46.19669529 ], [ 6.1667907, 46.1960113 ], [ 6.17189313, 46.19406501 ], [ 6.17709437, 46.19327528 ], [ 6.18203511, 46.19187612 ], [ 6.18676024, 46.19010381 ] ] } },
{ "type": "Feature", "properties": { "route_id": "92-25-D-j26-1", "direction_id": 0, "trip_id": "10.TA.92-25-D-j26-1.2.H", "headsign": "Genève, Jardin Botanique", "route_short_name": "25", "route_long_name": "", "route_type": 3, "color": "A05909", "text_color": "FFFFFF" }, "geometry": { "type": "LineString", "coordinates": [ [ 6.18640092, 46.19022196 ], [ 6.18162188, 46.19242957 ], [ 6.17659131, 46.19339965 ], [ 6.17205482, 46.19412719 ], [ 6.16666493, 46.19619162 ], [ 6.1631076, 46.19691291 ], [ 6.1583106, 46.19838034 ], [ 6.15574142, 46.20096689 ], [ 6.15541802, 46.20255855 ], [ 6.15151035, 46.20337301 ], [ 6.14665047, 46.20760679 ], [ 6.14363213, 46.21039805 ], [ 6.148501, 46.21047887 ], [ 6.14964186, 46.21188998 ], [ 6.15049526, 46.21351862 ], [ 6.15107018, 46.21678819 ], [ 6.1498305, 46.22039941 ], [ 6.14771048, 46.22389231 ] ] } },
{ "type": "Feature", "properties": { "route_id": "92-25-D-j26-1", "direction_id": 1, "trip_id": "322.TA.92-25-D-j26-1.11.R", "headsign": "Thônex, Vallard", "route_short_name": "25", "route_long_name": "", "route_type": 3, "color": "A05909", "text_color": "FFFFFF" }, "geometry": { "type": "LineString", "coordinates": [ [ 6.15206731, 46.20165703 ], [ 6.15578633, 46.20235959 ], [ 6.15520243, 46.20073062 ], [ 6.15725957, 46.19846739 ], [ 6.16342201, 46.19669529 ], [ 6.1667907, 46.1960113 ], [ 6.17189313, 46.19406501 ], [ 6.17709437, 46.19327528 ], [ 6.18203511, 46.19187612 ], [ 6.18676024, 46.19010381 ] ] } },
{ "type": "Feature", "properties": { "route_id": "92-28-B-j25-1", "direction_id": 0, "trip_id": "1.TA.92-28-B-j25-1.1.H", "headsign": "Petit-Lancy, Les Esserts", "route_short_name": "28", "route_long_name": "", "route_type": 3, "color": "82419E", "text_color": "FFFFFF" }, "geometry": { "type": "LineString", "coordinates": [ [ 6.10892122, 46.20410664 ], [ 6.11216414, 46.1945376 ], [ 6.11227194, 46.19054534 ], [ 6.11309839, 46.18809512 ] ] } },
{ "type": "Feature", "properties": { "route_id": "92-28-B-j26-1", "direction_id": 0, "trip_id": "1.TA.92-28-B-j26-1.1.H", "headsign": "Petit-Lancy, Les Esserts", "route_short_name": "28", "route_long_name": "", "route_type": 3, "color": "82419E", "text_color": "FFFFFF" }, "geometry": { "type": "LineString", "coordinates": [ [ 6.10892122, 46.20410664 ], [ 6.11216414, 46.1945376 ], [ 6.11227194, 46.19054534 ], [ 6.11309839, 46.18809512 ] ] } },
{ "type": "Feature", "properties": { "route_id": "92-29-B-j25-1", "direction_id": 0, "trip_id": "1.TA.92-29-B-j25-1.1.H", "headsign": "Creux-de-Genthod, gare", "route_short_name": "29", "route_long_name": "", "route_type": 3, "color": "F5B4D2", "text_color": "000000" }, "geometry": { "type": "LineString", "coordinates": [ [ 6.1524446, 46.20191816 ], [ 6.15151035, 46.20337301 ], [ 6.15275003, 46.21197079 ], [ 6.15117798, 46.21676955 ], [ 6.1499922, 46.22049264 ], [ 6.14899507, 46.22299735 ], [ 6.14956101, 46.23151749 ] ] } },
{ "type": "Feature", "properties": { "route_id": "92-29-B-j25-1", "direction_id": 1, "trip_id": "273.TA.92-29-B-j25-1.7.R", "headsign": "Genève, Rive", "route_short_name": "29", "route_long_name": "", "route_type": 3, "color": "F5B4D2", "text_color": "000000" }, "geometry": { "type": "LineString", "coordinates": [ [ 6.14942626, 46.23222589 ], [ 6.14771048, 46.22389231 ], [ 6.1498305, 46.22039941 ], [ 6.15107018, 46.21678819 ], [ 6.1525524, 46.2113243 ], [ 6.15151934, 46.20339788 ], [ 6.15281291, 46.2018622 ] ] } },
{ "type": "Feature", "properties": { "route_id": "92-2-Q-j25-1", "direction_id": 0, "trip_id": "1.TA.92-2-Q-j25-1.1.H", "headsign": "Genève, Jonction", "route_short_name": "2", "route_long_name": "", "route_type": 3, "color": "D2DB4A", "text_color": "000000" }, "geometry": { "type": "LineString", "coordinates": [ [ 6.14304822, 46.20472836 ], [ 6.14185346, 46.20217307 ], [ 6.14032633, 46.20108502 ], [ 6.12969027, 46.20078658 ] ] } },
{ "type": "Feature", "properties": { "route_id": "92-2-Q-j25-1", "direction_id": 1, "trip_id": "1238.TA.92-2-Q-j25-1.18.R", "headsign": "Genève, Plage", "route_short_name": "2", "route_long_name": "", "route_type": 3, "color": "D2DB4A", "text_color": "000000" }, "geometry": { "type": "LineString", "coordinates": [ [ 6.13094792, 46.20120937 ], [ 6.139967, 46.20129641 ], [ 6.14187143, 46.20234716 ], [ 6.14464722, 46.20365901 ], [ 6.14740505, 46.20301863 ], [ 6.15272308, 46.2016819 ], [ 6.15854416, 46.20410664 ], [ 6.16025096, 46.20512625 ], [ 6.1617242, 46.20636964 ], [ 6.16720392, 46.2092107 ], [ 6.17179431, 46.21134916 ] ] } },
{ "type": "Feature", "properties": { "route_id": "92-2-Q-j26-1", "direction_id": 0, "trip_id": "10.TA.92-2-Q-j26-1.1.H", "headsign": "Genève, Jonction", "route_short_name": "2", "route_long_name": "", "route_type": 3, "color": "D2DB4A", "text_color": "000000" }, "geometry": { "type": "LineString", "coordinates": [ [ 6.14304822, 46.20472836 ], [ 6.14185346, 46.20217307 ], [ 6.14032633, 46.20108502 ], [ 6.12969027, 46.20078658 ] ] } },
{ "type": "Feature", "properties": { "route_id": "92-2-Q-j26-1", "direction_id": 1, "trip_id": "448.TA.92-2-Q-j26-1.30.R", "headsign": "Genève, Plage", "route_short_name": "2", "route_long_name": "", "route_type": 3, "color": "D2DB4A", "text_color": "000000" }, "geometry": { "type": "LineString", "coordinates": [ [ 6.13094792, 46.20120937 ], [ 6.139967, 46.20129641 ], [ 6.14187143, 46.20234716 ], [ 6.14464722, 46.20365901 ], [ 6.14740505, 46.20301863 ], [ 6.15272308, 46.2016819 ], [ 6.15854416, 46.20410664 ], [ 6.16025096, 46.20512625 ], [ 6.1617242, 46.20636964 ], [ 6.16720392, 46.2092107 ], [ 6.17179431, 46.21134916 ] ] } },
{ "type": "Feature", "properties": { "route_id": "92-31-H-j25-1", "direction_id": 1, "trip_id": "1000.TA.92-31-H-j25-1.7.R", "headsign": "Thônex, Sous-Moulin", "route_short_name": "31", "route_long_name": "", "route_type": 3, "color": "00B0A4", "text_color": "FFFFFF" }, "geometry": { "type": "LineString", "coordinates": [ [ 6.19294065, 46.19557603 ], [ 6.19206929, 46.19200049 ] ] } },
{ "type": "Feature", "properties": { "route_id": "92-33-F-j25-1", "direction_id": 0, "trip_id": "1.TA.92-33-F-j25-1.1.H", "headsign": "Puplinge, Marquis", "route_short_name": "33", "route_long_name": "", "route_type": 3, "color": "00B0A4", "text_color": "FFFFFF" }, "geometry": { "type": "LineString", "coordinates": [ [ 6.15281291, 46.2018622 ], [ 6.15601091, 46.2022912 ], [ 6.16211946, 46.20170055 ], [ 6.16627866, 46.20303106 ], [ 6.17563012, 46.20616449 ], [ 6.18047204, 46.20497082 ], [ 6.18069662, 46.2090988 ], [ 6.18421801, 46.21234998 ], [ 6.18649973, 46.2132016 ], [ 6.1905691, 46.21418996 ] ] } },
{ "type": "Feature", "properties": { "route_id": "92-33-F-j25-1", "direction_id": 1, "trip_id": "1000.TA.92-33-F-j25-1.20.R", "headsign": "Genève, Rive", "route_short_name": "33", "route_long_name": "", "route_type": 3, "color": "00B0A4", "text_color": "FFFFFF" }, "geometry": { "type": "LineString", "coordinates": [ [ 6.1904613, 46.21423347 ], [ 6.18642787, 46.21328241 ], [ 6.18344546, 46.2120516 ], [ 6.18038221, 46.20890608 ], [ 6.18033729, 46.20499569 ], [ 6.17506418, 46.20391391 ], [ 6.16962937, 46.20278859 ], [ 6.16610798, 46.2030435 ], [ 6.16187691, 46.20167568 ], [ 6.15541802, 46.20255855 ], [ 6.15350461, 46.2020052 ] ] } },
{ "type": "Feature", "properties": { "route_id": "92-33-F-j26-1", "direction_id": 0, "trip_id": "1.TA.92-33-F-j26-1.1.H", "headsign": "Puplinge, Marquis", "route_short_name": "33", "route_long_name": "", "route_type": 3, "color": "00B0A4", "text_color": "FFFFFF" }, "geometry": { "type": "LineString", "coordinates": [ [ 6.15281291, 46.2018622 ], [ 6.15601091, 46.2022912 ], [ 6.16211946, 46.20170055 ], [ 6.16627866, 46.20303106 ], [ 6.16991683, 46.20288807 ], [ 6.17531571, 46.20384552 ], [ 6.18047204, 46.20497082 ], [ 6.18069662, 46.2090988 ], [ 6.18421801, 46.21234998 ], [ 6.18649973, 46.2132016 ], [ 6.1905691, 46.21418996 ] ] } },
{ "type": "Feature", "properties": { "route_id": "92-33-F-j26-1", "direction_id": 1, "trip_id": "155.TA.92-33-F-j26-1.5.R", "headsign": "Genève, Rive", "route_short_name": "33", "route_long_name": "", "route_type": 3, "color": "00B0A4", "text_color": "FFFFFF" }, "geometry": { "type": "LineString", "coordinates": [ [ 6.1904613, 46.21423347 ], [ 6.18642787, 46.21328241 ], [ 6.18344546, 46.2120516 ], [ 6.18038221, 46.20890608 ], [ 6.18033729, 46.20499569 ], [ 6.17506418, 46.20391391 ], [ 6.16962937, 46.20278859 ], [ 6.16610798, 46.2030435 ], [ 6.16187691, 46.20167568 ], [ 6.15541802, 46.20255855 ], [ 6.15350461, 46.2020052 ] ] } },
{ "type": "Feature", "properties": { "route_id": "92-34-D-j25-1", "direction_id": 0, "trip_id": "1.TA.92-34-D-j25-1.1.H", "headsign": "Choulex, village", "route_short_name": "34", "route_long_name": "", "route_type": 3, "color": "89CBBE", "text_color": "000000" }, "geometry": { "type": "LineString", "coordinates": [ [ 6.17381552, 46.18465591 ], [ 6.17689674, 46.18728664 ], [ 6.17783099, 46.18917721 ], [ 6.17709437, 46.19327528 ], [ 6.18317597, 46.19290217 ], [ 6.18660753, 46.19558225 ], [ 6.18568227, 46.19821246 ], [ 6.19009299, 46.19757202 ] ] } },
{ "type": "Feature", "properties": { "route_id": "92-34-D-j25-1", "direction_id": 1, "trip_id": "157.TA.92-34-D-j25-1.3.R", "headsign": "Chêne-Bougeries, Conches place", "route_short_name": "34", "route_long_name": "", "route_type": 3, "color": "89CBBE", "text_color": "000000" }, "geometry": { "type": "LineString", "coordinates": [ [ 6.18984147, 46.19752849 ], [ 6.18264596, 46.19855444 ], [ 6.18568227, 46.19821246 ], [ 6.18674228, 46.19593668 ], [ 6.18162188, 46.19242957 ], [ 6.17659131, 46.19339965 ], [ 6.17757946, 46.18940108 ], [ 6.17639369, 46.18686996 ], [ 6.17443536, 46.18413971 ] ] } },
{ "type": "Feature", "properties": { "route_id": "92-34-D-j26-1", "direction_id": 0, "trip_id": "100.TA.92-34-D-j26-1.1.H", "headsign": "Choulex, village", "route_short_name": "34", "route_long_name": "", "route_type": 3, "color": "89CBBE", "text_color": "000000" }, "geometry": { "type": "LineString", "coordinates": [ [ 6.17381552, 46.18465591 ], [ 6.17689674, 46.18728664 ], [ 6.17783099, 46.18917721 ], [ 6.17709437, 46.19327528 ], [ 6.18317597, 46.19290217 ], [ 6.18660753, 46.19558225 ], [ 6.18264596, 46.19855444 ], [ 6.18568227, 46.19821246 ], [ 6.19009299, 46.19757202 ] ] } },
{ "type": "Feature", "properties": { "route_id": "92-34-D-j26-1", "direction_id": 1, "trip_id": "123.TA.92-34-D-j26-1.2.R", "headsign": "Chêne-Bougeries, Conches place", "route_short_name": "34", "route_long_name": "", "route_type": 3, "color": "89CBBE", "text_color": "000000" }, "geometry": { "type": "LineString", "coordinates": [ [ 6.18984147, 46.19752849 ], [ 6.18264596, 46.19855444 ], [ 6.18568227, 46.19821246 ], [ 6.18674228, 46.19593668 ], [ 6.18162188, 46.19242957 ], [ 6.17659131, 46.19339965 ], [ 6.17757946, 46.18940108 ], [ 6.17639369, 46.18686996 ], [ 6.17443536, 46.18413971 ] ] } },
{ "type": "Feature", "properties": { "route_id": "92-3-P-j25-1", "direction_id": 0, "trip_id": "1.TA.92-3-P-j25-1.1.H", "headsign": "Genève, Crêts-de-Champel", "route_short_name": "3", "route_long_name": "", "route_type": 3, "color": "B82F89", "text_color": "FFFFFF" }, "geometry": { "type": "LineString", "coordinates": [ [ 6.14901304, 46.19459978 ], [ 6.15072882, 46.19570661 ], [ 6.15327105, 46.19216217 ], [ 6.15247155, 46.18996078 ], [ 6.1547353, 46.18790233 ], [ 6.15637922, 46.1893389 ], [ 6.15891247, 46.18716226 ] ] } },
{ "type": "Feature", "properties": { "route_id": "92-3-P-j25-1", "direction_id": 1, "trip_id": "1090.TA.92-3-P-j25-1.13.R", "headsign": "Genève, Place Claparède", "route_short_name": "3", "route_long_name": "", "route_type": 3, "color": "B82F89", "text_color": "FFFFFF" }, "geometry": { "type": "LineString", "coordinates": [ [ 6.15891247, 46.18716226 ], [ 6.15637922, 46.1893389 ], [ 6.1547353, 46.18790233 ], [ 6.15247155, 46.18996078 ], [ 6.15327105, 46.19216217 ], [ 6.15385495, 46.19377896 ], [ 6.15072882, 46.19570661 ] ] } },
{ "type": "Feature", "properties": { "route_id": "92-3-P-j26-1", "direction_id": 0, "trip_id": "10.TA.92-3-P-j26-1.1.H", "headsign": "Genève, Crêts-de-Champel", "route_short_name": "3", "route_long_name": "", "route_type": 3, "color": "B82F89", "text_color": "FFFFFF" }, "geometry": { "type": "LineString", "coordinates": [ [ 6.13094792, 46.20120937 ], [ 6.139967, 46.20129641 ], [ 6.14187143, 46.20234716 ], [ 6.14294042, 46.20238446 ], [ 6.14464722, 46.20096689 ], [ 6.14688403, 46.19989746 ], [ 6.14869863, 46.19818137 ], [ 6.15116001, 46.19505993 ], [ 6.15307342, 46.19192587 ], [ 6.1522829, 46.18971203 ], [ 6.15513056, 46.18817596 ], [ 6.15667566, 46.18906527 ], [ 6.1592718, 46.18707519 ] ] } },
{ "type": "Feature", "properties": { "route_id": "92-3-P-j26-1", "direction_id": 1, "trip_id": "1006.TA.92-3-P-j26-1.20.R", "headsign": "Grand-Saconnex, Gardiol", "route_short_name": "3", "route_long_name": "", "route_type": 3, "color": "B82F89", "text_color": "FFFFFF" }, "geometry": { "type": "LineString", "coordinates": [ [ 6.1592718, 46.18707519 ], [ 6.15575938, 46.18894089 ], [ 6.15429513, 46.18811377 ], [ 6.1526063, 46.19017221 ], [ 6.15336088, 46.19224302 ], [ 6.15309139, 46.19412097 ], [ 6.15039644, 46.1963906 ], [ 6.14860879, 46.19837412 ], [ 6.1466864, 46.20009021 ], [ 6.14424298, 46.20126533 ], [ 6.14297636, 46.20506408 ], [ 6.1423655, 46.20760058 ], [ 6.14230262, 46.20939719 ], [ 6.13784698, 46.21003128 ], [ 6.13326557, 46.21198322 ], [ 6.1298879, 46.21361186 ], [ 6.13029215, 46.21624121 ], [ 6.12657312, 46.21777648 ], [ 6.12971722, 46.22057344 ], [ 6.12841467, 46.22310301 ], [ 6.12700431, 46.22430249 ], [ 6.12314156, 46.22327081 ], [ 6.12382427, 46.22596806 ], [ 6.12294393, 46.22751549 ] ] } },
{ "type": "Feature", "properties": { "route_id": "92-40-F-j26-1", "direction_id": 0, "trip_id": "100.TA.92-40-F-j26-1.7.H", "headsign": "Chancy, douane", "route_short_name": "40", "route_long_name": "", "route_type": 3, "color": "89CBBE", "text_color": "000000" }, "geometry": { "type": "LineString", "coordinates": [ [ 6.1289806, 46.18152749 ], [ 6.12837873, 46.18740481 ], [ 6.12390512, 46.18849313 ], [ 6.11900931, 46.19019087 ], [ 6.11260432, 46.18798939 ] ] } },
{ "type": "Feature", "properties": { "route_id": "92-40-F-j26-1", "direction_id": 1, "trip_id": "147.TA.92-40-F-j26-1.10.R", "headsign": "Grand-Lancy, Stade de Genève", "route_short_name": "40", "route_long_name": "", "route_type": 3, "color": "89CBBE", "text_color": "000000" }, "geometry": { "type": "LineString", "coordinates": [ [ 6.11309839, 46.18809512 ], [ 6.1193327, 46.19039609 ], [ 6.12463276, 46.18810133 ], [ 6.12762415, 46.18758516 ], [ 6.12881891, 46.17943762 ] ] } },
{ "type": "Feature", "properties": { "route_id": "92-41-F-j25-1", "direction_id": 0, "trip_id": "1.TA.92-41-F-j25-1.26.H", "headsign": "Vessy, Pinchat-la-Tour", "route_short_name": "41", "route_long_name": "", "route_type": 3, "color": "00B0A4", "text_color": "FFFFFF" }, "geometry": { "type": "LineString", "coordinates": [ [ 6.13565509, 46.183213 ], [ 6.13902377, 46.17935676 ], [ 6.14488079, 46.17797591 ], [ 6.1482854, 46.17620937 ], [ 6.15283088, 46.17591701 ] ] } },
{ "type": "Feature", "properties": { "route_id": "92-41-F-j25-1", "direction_id": 1, "trip_id": "1000.TA.92-41-F-j25-1.25.R", "headsign": "Carouge GE, Tours", "route_short_name": "41", "route_long_name": "", "route_type": 3, "color": "00B0A4", "text_color": "FFFFFF" }, "geometry": { "type": "LineString", "coordinates": [ [ 6.19294065, 46.19557603 ], [ 6.18674228, 46.19593668 ], [ 6.18203511, 46.19187612 ], [ 6.18676024, 46.19010381 ], [ 6.16149063, 46.17620937 ], [ 6.15911908, 46.17654527 ], [ 6.1525524, 46.1757304 ], [ 6.14771048, 46.17647684 ], [ 6.1451952, 46.17787639 ], [ 6.13946394, 46.17884672 ], [ 6.13802664, 46.1796491 ], [ 6.13617611, 46.18257239 ] ] } },
{ "type": "Feature", "properties": { "route_id": "92-41-F-j26-1", "direction_id": 0, "trip_id": "107.TA.92-41-F-j26-1.6.H", "headsign": "Chêne-Bourg, gare-Place", "route_short_name": "41", "route_long_name": "", "route_type": 3, "color": "00B0A4", "text_color": "FFFFFF" }, "geometry": { "type": "LineString", "coordinates": [ [ 6.13565509, 46.183213 ], [ 6.13902377, 46.17935676 ], [ 6.14488079, 46.17797591 ], [ 6.1482854, 46.17620937 ], [ 6.15283088, 46.17591701 ], [ 6.159694, 46.17636488 ], [ 6.16294591, 46.17572418 ], [ 6.18640092, 46.19022196 ], [ 6.18317597, 46.19290217 ], [ 6.18660753, 46.19558225 ], [ 6.1931293, 46.19558225 ] ] } },
{ "type": "Feature", "properties": { "route_id": "92-41-F-j26-1", "direction_id": 1, "trip_id": "171.TA.92-41-F-j26-1.8.R", "headsign": "Carouge GE, Tours", "route_short_name": "41", "route_long_name": "", "route_type": 3, "color": "00B0A4", "text_color": "FFFFFF" }, "geometry": { "type": "LineString", "coordinates": [ [ 6.16149063, 46.17620937 ], [ 6.15911908, 46.17654527 ], [ 6.1525524, 46.1757304 ], [ 6.14771048, 46.17647684 ], [ 6.1451952, 46.17787639 ], [ 6.13946394, 46.17884672 ], [ 6.13802664, 46.1796491 ], [ 6.13617611, 46.18257239 ] ] } },
{ "type": "Feature", "properties": { "route_id": "92-42-D-j26-1", "direction_id": 1, "trip_id": "148.TA.92-42-D-j26-1.6.R", "headsign": "Grand-Lancy, Stade de Genève", "route_short_name": "42", "route_long_name": "", "route_type": 3, "color": "89CBBE", "text_color": "000000" }, "geometry": { "type": "LineString", "coordinates": [ [ 6.11309839, 46.18809512 ], [ 6.1193327, 46.19039609 ], [ 6.12463276, 46.18810133 ], [ 6.12762415, 46.18758516 ], [ 6.12881891, 46.17943762 ] ] } },
{ "type": "Feature", "properties": { "route_id": "92-43-D-j26-1", "direction_id": 0, "trip_id": "1.TA.92-43-D-j26-1.1.H", "headsign": "Onex, Vallet", "route_short_name": "43", "route_long_name": "", "route_type": 3, "color": "89CBBE", "text_color": "000000" }, "geometry": { "type": "LineString", "coordinates": [ [ 6.12881891, 46.17943762 ], [ 6.12762415, 46.18758516 ], [ 6.12183002, 46.18408995 ], [ 6.12065322, 46.18195043 ] ] } },
{ "type": "Feature", "properties": { "route_id": "92-44-D-j25-1", "direction_id": 0, "trip_id": "1.TA.92-44-D-j25-1.1.H", "headsign": "Croix-de-Rozon, douane", "route_short_name": "44", "route_long_name": "", "route_type": 3, "color": "00B0A4", "text_color": "FFFFFF" }, "geometry": { "type": "LineString", "coordinates": [ [ 6.13902377, 46.17935676 ], [ 6.13808952, 46.17562466 ] ] } },
{ "type": "Feature", "properties": { "route_id": "92-44-D-j25-1", "direction_id": 1, "trip_id": "244.TA.92-44-D-j25-1.4.R", "headsign": "Carouge GE, Tours", "route_short_name": "44", "route_long_name": "", "route_type": 3, "color": "00B0A4", "text_color": "FFFFFF" }, "geometry": { "type": "LineString", "coordinates": [ [ 6.1382063, 46.17550025 ], [ 6.13839495, 46.1798668 ], [ 6.13531373, 46.18350532 ] ] } },
{ "type": "Feature", "properties": { "route_id": "92-44-D-j26-1", "direction_id": 0, "trip_id": "102.TA.92-44-D-j26-1.3.H", "headsign": "Croix-de-Rozon, douane", "route_short_name": "44", "route_long_name": "", "route_type": 3, "color": "00B0A4", "text_color": "FFFFFF" }, "geometry": { "type": "LineString", "coordinates": [ [ 6.13565509, 46.183213 ], [ 6.13902377, 46.17935676 ], [ 6.13808952, 46.17562466 ] ] } },
{ "type": "Feature", "properties": { "route_id": "92-44-D-j26-1", "direction_id": 1, "trip_id": "155.TA.92-44-D-j26-1.4.R", "headsign": "Carouge GE, Tours", "route_short_name": "44", "route_long_name": "", "route_type": 3, "color": "00B0A4", "text_color": "FFFFFF" }, "geometry": { "type": "LineString", "coordinates": [ [ 6.1382063, 46.17550025 ], [ 6.13839495, 46.1798668 ], [ 6.13531373, 46.18350532 ] ] } },
{ "type": "Feature", "properties": { "route_id": "92-45-B-j25-1", "direction_id": 0, "trip_id": "1.TA.92-45-B-j25-1.1.H", "headsign": "Troinex, ville", "route_short_name": "45", "route_long_name": "", "route_type": 3, "color": "89CBBE", "text_color": "000000" }, "geometry": { "type": "LineString", "coordinates": [ [ 6.13902377, 46.17935676 ], [ 6.13808952, 46.17562466 ], [ 6.14117074, 46.17324842 ] ] } },
{ "type": "Feature", "properties": { "route_id": "92-45-B-j25-1", "direction_id": 1, "trip_id": "240.TA.92-45-B-j25-1.7.R", "headsign": "Carouge GE, Tours", "route_short_name": "45", "route_long_name": "", "route_type": 3, "color": "89CBBE", "text_color": "000000" }, "geometry": { "type": "LineString", "coordinates": [ [ 6.14117074, 46.17331685 ], [ 6.1382063, 46.17550025 ], [ 6.13839495, 46.1798668 ], [ 6.13531373, 46.18350532 ] ] } },
{ "type": "Feature", "properties": { "route_id": "92-45-B-j26-1", "direction_id": 0, "trip_id": "106.TA.92-45-B-j26-1.5.H", "headsign": "Troinex, ville", "route_short_name": "45", "route_long_name": "", "route_type": 3, "color": "89CBBE", "text_color": "000000" }, "geometry": { "type": "LineString", "coordinates": [ [ 6.13565509, 46.183213 ], [ 6.13902377, 46.17935676 ], [ 6.13808952, 46.17562466 ], [ 6.14117074, 46.17324842 ] ] } },
{ "type": "Feature", "properties": { "route_id": "92-45-B-j26-1", "direction_id": 1, "trip_id": "153.TA.92-45-B-j26-1.6.R", "headsign": "Carouge GE, Tours", "route_short_name": "45", "route_long_name": "", "route_type": 3, "color": "89CBBE", "text_color": "000000" }, "geometry": { "type": "LineString", "coordinates": [ [ 6.14117074, 46.17331685 ], [ 6.1382063, 46.17550025 ], [ 6.13839495, 46.1798668 ], [ 6.13531373, 46.18350532 ] ] } },
{ "type": "Feature", "properties": { "route_id": "92-51-D-j25-1", "direction_id": 0, "trip_id": "1.TA.92-51-D-j25-1.1.H", "headsign": "Genève, Mervelet", "route_short_name": "51", "route_long_name": "", "route_type": 3, "color": "00B0A4", "text_color": "FFFFFF" }, "geometry": { "type": "LineString", "coordinates": [ [ 6.11276601, 46.21113781 ], [ 6.11871286, 46.20978884 ], [ 6.11935066, 46.21325755 ], [ 6.11791336, 46.21667009 ], [ 6.11427518, 46.21982138 ], [ 6.11713183, 46.2218227 ], [ 6.11923388, 46.22150573 ], [ 6.12271935, 46.21948575 ] ] } },
{ "type": "Feature", "properties": { "route_id": "92-51-D-j25-1", "direction_id": 1, "trip_id": "210.TA.92-51-D-j25-1.7.R", "headsign": "Vernier, CO Renard", "route_short_name": "51", "route_long_name": "", "route_type": 3, "color": "00B0A4", "text_color": "FFFFFF" }, "geometry": { "type": "LineString", "coordinates": [ [ 6.11221804, 46.21240593 ], [ 6.1076546, 46.20856417 ], [ 6.10920869, 46.20772491 ], [ 6.10806782, 46.20587851 ] ] } },
{ "type": "Feature", "properties": { "route_id": "92-51-D-j26-1", "direction_id": 0, "trip_id": "1.TA.92-51-D-j26-1.1.H", "headsign": "Genève, Mervelet", "route_short_name": "51", "route_long_name": "", "route_type": 3, "color": "00B0A4", "text_color": "FFFFFF" }, "geometry": { "type": "LineString", "coordinates": [ [ 6.11276601, 46.21113781 ], [ 6.11871286, 46.20978884 ], [ 6.11935066, 46.21325755 ], [ 6.11791336, 46.21667009 ], [ 6.11427518, 46.21982138 ], [ 6.11713183, 46.2218227 ], [ 6.11923388, 46.22150573 ], [ 6.12271935, 46.21948575 ] ] } },
{ "type": "Feature", "properties": { "route_id": "92-51-D-j26-1", "direction_id": 1, "trip_id": "120.TA.92-51-D-j26-1.6.R", "headsign": "Vernier, CO Renard", "route_short_name": "51", "route_long_name": "", "route_type": 3, "color": "00B0A4", "text_color": "FFFFFF" }, "geometry": { "type": "LineString", "coordinates": [ [ 6.11221804, 46.21240593 ], [ 6.1076546, 46.20856417 ], [ 6.10920869, 46.20772491 ], [ 6.10806782, 46.20587851 ] ] } },
{ "type": "Feature", "properties": { "route_id": "92-53-B-j25-1", "direction_id": 0, "trip_id": "1.TA.92-53-B-j25-1.1.H", "headsign": "Grand-Saconnex, place", "route_short_name": "53", "route_long_name": "", "route_type": 3, "color": "89CBBE", "text_color": "000000" }, "geometry": { "type": "LineString", "coordinates": [ [ 6.11420332, 46.21972815 ], [ 6.11714081, 46.22186621 ] ] } },
{ "type": "Feature", "properties": { "route_id": "92-53-B-j26-1", "direction_id": 0, "trip_id": "1.TA.92-53-B-j26-1.14.H", "headsign": "Grand-Saconnex, place", "route_short_name": "53", "route_long_name": "", "route_type": 3, "color": "89CBBE", "text_color": "000000" }, "geometry": { "type": "LineString", "coordinates": [ [ 6.11420332, 46.21972815 ], [ 6.11714081, 46.22186621 ] ] } },
{ "type": "Feature", "properties": { "route_id": "92-5-P-j25-1", "direction_id": 0, "trip_id": "1.TA.92-5-P-j25-1.1.H", "headsign": "Grand-Saconnex, Palexpo", "route_short_name": "5", "route_long_name": "", "route_type": 3, "color": "00ACE7", "text_color": "FFFFFF" }, "geometry": { "type": "LineString", "coordinates": [ [ 6.14232957, 46.20965207 ], [ 6.14135939, 46.21338808 ], [ 6.1390058, 46.21653335 ], [ 6.13658035, 46.21773919 ], [ 6.13782901, 46.2189015 ], [ 6.1401287, 46.22051129 ], [ 6.13920343, 46.22200294 ], [ 6.13340032, 46.22481211 ], [ 6.12760618, 46.22880188 ] ] } },
{ "type": "Feature", "properties": { "route_id": "92-5-P-j25-1", "direction_id": 1, "trip_id": "1838.TA.92-5-P-j25-1.24.R", "headsign": "Genève, gare Cornavin", "route_short_name": "5", "route_long_name": "", "route_type": 3, "color": "00ACE7", "text_color": "FFFFFF" }, "geometry": { "type": "LineString", "coordinates": [ [ 6.12755228, 46.22867138 ], [ 6.13488254, 46.22369343 ], [ 6.13907767, 46.22176676 ], [ 6.13828715, 46.21936766 ], [ 6.13679595, 46.21700574 ], [ 6.13936513, 46.21643389 ], [ 6.14111684, 46.21266079 ], [ 6.14232957, 46.20965207 ] ] } },
{ "type": "Feature", "properties": { "route_id": "92-5-P-j26-1", "direction_id": 0, "trip_id": "1.TA.92-5-P-j26-1.15.H", "headsign": "Genève-Aéroport, Terminal", "route_short_name": "5", "route_long_name": "", "route_type": 3, "color": "00ACE7", "text_color": "FFFFFF" }, "geometry": { "type": "LineString", "coordinates": [ [ 6.14297636, 46.20506408 ], [ 6.1423655, 46.20760058 ], [ 6.14153905, 46.21051616 ], [ 6.14135939, 46.21338808 ], [ 6.1390058, 46.21653335 ], [ 6.13658035, 46.21773919 ], [ 6.13782901, 46.2189015 ], [ 6.1401287, 46.22051129 ], [ 6.13920343, 46.22200294 ], [ 6.13674205, 46.22684432 ], [ 6.13386744, 46.23127514 ], [ 6.13069639, 46.23042381 ], [ 6.12760618, 46.22880188 ] ] } },
{ "type": "Feature", "properties": { "route_id": "92-5-P-j26-1", "direction_id": 1, "trip_id": "334.TA.92-5-P-j26-1.17.R", "headsign": "Thônex, Vallard", "route_short_name": "5", "route_long_name": "", "route_type": 3, "color": "00ACE7", "text_color": "FFFFFF" }, "geometry": { "type": "LineString", "coordinates": [ [ 6.12783974, 46.22867759 ], [ 6.13107368, 46.23062887 ], [ 6.13393931, 46.23099551 ], [ 6.13728104, 46.22655223 ], [ 6.13380456, 46.22437707 ], [ 6.13914055, 46.22230127 ], [ 6.13473881, 46.21944224 ], [ 6.13613119, 46.21733517 ], [ 6.1392214, 46.21646497 ], [ 6.14123363, 46.21293431 ], [ 6.14243737, 46.20973289 ], [ 6.14219482, 46.20744516 ], [ 6.14304822, 46.20472836 ], [ 6.14294042, 46.20238446 ], [ 6.1441801, 46.20119693 ], [ 6.14712657, 46.19988503 ], [ 6.1489232, 46.1981565 ], [ 6.14901304, 46.19459978 ], [ 6.15072882, 46.19570661 ], [ 6.15385495, 46.19377896 ], [ 6.15616363, 46.19601752 ], [ 6.15730449, 46.19852335 ], [ 6.16351184, 46.19675125 ], [ 6.16610798, 46.19626002 ], [ 6.17201889, 46.19410854 ], [ 6.17664521, 46.19330637 ], [ 6.18189137, 46.19210621 ], [ 6.18658956, 46.19015356 ] ] } },
{ "type": "Feature", "properties": { "route_id": "92-60-E-j25-1", "direction_id": 0, "trip_id": "1.TA.92-60-E-j25-1.1.H", "headsign": "Ferney, mairie", "route_short_name": "60", "route_long_name": "", "route_type": 3, "color": "EC61A0", "text_color": "FFFFFF" }, "geometry": { "type": "LineString", "coordinates": [ [ 6.14153905, 46.21051616 ], [ 6.14135939, 46.21338808 ], [ 6.14133244, 46.21680062 ], [ 6.14089227, 46.21979031 ], [ 6.13920343, 46.22200294 ], [ 6.13674205, 46.22684432 ], [ 6.13386744, 46.23127514 ] ] } },
{ "type": "Feature", "properties": { "route_id": "92-60-E-j25-1", "direction_id": 1, "trip_id": "1000.TA.92-60-E-j25-1.20.R", "headsign": "Genève, gare Cornavin", "route_short_name": "60", "route_long_name": "", "route_type": 3, "color": "EC61A0", "text_color": "FFFFFF" }, "geometry": { "type": "LineString", "coordinates": [ [ 6.12844162, 46.22868381 ], [ 6.13143301, 46.23080908 ], [ 6.13412795, 46.23079044 ], [ 6.13684985, 46.22659574 ], [ 6.13894292, 46.22236342 ], [ 6.14085633, 46.21947332 ], [ 6.14119769, 46.21666388 ], [ 6.14111684, 46.21266079 ], [ 6.14283263, 46.21009966 ] ] } },
{ "type": "Feature", "properties": { "route_id": "92-60-E-j26-1", "direction_id": 0, "trip_id": "1.TA.92-60-E-j26-1.1.H", "headsign": "Ferney, mairie", "route_short_name": "60", "route_long_name": "", "route_type": 3, "color": "EC61A0", "text_color": "FFFFFF" }, "geometry": { "type": "LineString", "coordinates": [ [ 6.14153905, 46.21051616 ], [ 6.14135939, 46.21338808 ], [ 6.14133244, 46.21680062 ], [ 6.14089227, 46.21979031 ], [ 6.13920343, 46.22200294 ], [ 6.13674205, 46.22684432 ], [ 6.13386744, 46.23127514 ] ] } },
{ "type": "Feature", "properties": { "route_id": "92-60-E-j26-1", "direction_id": 1, "trip_id": "262.TA.92-60-E-j26-1.10.R", "headsign": "Genève, gare Cornavin", "route_short_name": "60", "route_long_name": "", "route_type": 3, "color": "EC61A0", "text_color": "FFFFFF" }, "geometry": { "type": "LineString", "coordinates": [ [ 6.13393931, 46.23099551 ], [ 6.13728104, 46.22655223 ], [ 6.13914055, 46.22230127 ], [ 6.14025446, 46.22077854 ], [ 6.14126956, 46.21669496 ], [ 6.14123363, 46.21293431 ], [ 6.14243737, 46.20973289 ] ] } },
{ "type": "Feature", "properties": { "route_id": "92-61-F-j25-1", "direction_id": 0, "trip_id": "1.TA.92-61-F-j25-1.1.H", "headsign": "Gex, L'Aiglette", "route_short_name": "61", "route_long_name": "", "route_type": 3, "color": "F5B4D2", "text_color": "000000" }, "geometry": { "type": "LineString", "coordinates": [ [ 6.14153905, 46.21051616 ], [ 6.14135939, 46.21338808 ], [ 6.14133244, 46.21680062 ], [ 6.14089227, 46.21979031 ], [ 6.13920343, 46.22200294 ], [ 6.13674205, 46.22684432 ], [ 6.13386744, 46.23127514 ] ] } },
{ "type": "Feature", "properties": { "route_id": "92-61-F-j25-1", "direction_id": 1, "trip_id": "100.TA.92-61-F-j25-1.2.R", "headsign": "Genève, gare Cornavin", "route_short_name": "61", "route_long_name": "", "route_type": 3, "color": "F5B4D2", "text_color": "000000" }, "geometry": { "type": "LineString", "coordinates": [ [ 6.13412795, 46.23079044 ], [ 6.13684985, 46.22659574 ], [ 6.13894292, 46.22236342 ], [ 6.14085633, 46.21947332 ], [ 6.14119769, 46.21666388 ], [ 6.14111684, 46.21266079 ], [ 6.14283263, 46.21009966 ] ] } },
{ "type": "Feature", "properties": { "route_id": "92-61-F-j26-1", "direction_id": 0, "trip_id": "15.TA.92-61-F-j26-1.1.H", "headsign": "Gex, L'Aiglette", "route_short_name": "61", "route_long_name": "", "route_type": 3, "color": "F5B4D2", "text_color": "000000" }, "geometry": { "type": "LineString", "coordinates": [ [ 6.14153905, 46.21051616 ], [ 6.14135939, 46.21338808 ], [ 6.14133244, 46.21680062 ], [ 6.14089227, 46.21979031 ], [ 6.13920343, 46.22200294 ], [ 6.13674205, 46.22684432 ], [ 6.13386744, 46.23127514 ] ] } },
{ "type": "Feature", "properties": { "route_id": "92-61-F-j26-1", "direction_id": 1, "trip_id": "33.TA.92-61-F-j26-1.2.R", "headsign": "Genève, gare Cornavin", "route_short_name": "61", "route_long_name": "", "route_type": 3, "color": "F5B4D2", "text_color": "000000" }, "geometry": { "type": "LineString", "coordinates": [ [ 6.13412795, 46.23079044 ], [ 6.13684985, 46.22659574 ], [ 6.13894292, 46.22236342 ], [ 6.14085633, 46.21947332 ], [ 6.14119769, 46.21666388 ], [ 6.14111684, 46.21266079 ], [ 6.14283263, 46.21009966 ] ] } },
{ "type": "Feature", "properties": { "route_id": "92-6-N-j25-1", "direction_id": 0, "trip_id": "1.TA.92-6-N-j25-1.1.H", "headsign": "Genève, Molard", "route_short_name": "6", "route_long_name": "", "route_type": 3, "color": "008CBE", "text_color": "FFFFFF" }, "geometry": { "type": "LineString", "coordinates": [ [ 6.11279296, 46.21122483 ], [ 6.11788641, 46.21005615 ], [ 6.12352783, 46.20888122 ], [ 6.12733669, 46.2082782 ], [ 6.1314869, 46.20874445 ], [ 6.13574492, 46.20849579 ], [ 6.14243737, 46.20973289 ], [ 6.14355128, 46.20815387 ], [ 6.14699183, 46.20734569 ], [ 6.14718047, 46.20311189 ] ] } },
{ "type": "Feature", "properties": { "route_id": "92-6-N-j26-1", "direction_id": 0, "trip_id": "10.TA.92-6-N-j26-1.1.H", "headsign": "Genève, Molard", "route_short_name": "6", "route_long_name": "", "route_type": 3, "color": "008CBE", "text_color": "FFFFFF" }, "geometry": { "type": "LineString", "coordinates": [ [ 6.11279296, 46.21122483 ], [ 6.11788641, 46.21005615 ], [ 6.12352783, 46.20888122 ], [ 6.12733669, 46.2082782 ], [ 6.1314869, 46.20874445 ], [ 6.13574492, 46.20849579 ], [ 6.14243737, 46.20973289 ], [ 6.14355128, 46.20815387 ], [ 6.14699183, 46.20734569 ], [ 6.14718047, 46.20311189 ] ] } },
{ "type": "Feature", "properties": { "route_id": "92-6-N-j26-1", "direction_id": 1, "trip_id": "360.TA.92-6-N-j26-1.9.R", "headsign": "Vernier, village", "route_short_name": "6", "route_long_name": "", "route_type": 3, "color": "008CBE", "text_color": "FFFFFF" }, "geometry": { "type": "LineString", "coordinates": [ [ 6.17237822, 46.21158538 ], [ 6.16746443, 46.20937233 ], [ 6.16189488, 46.20668049 ], [ 6.16028689, 46.20523194 ], [ 6.15801415, 46.2038393 ], [ 6.15601091, 46.2022912 ], [ 6.15151934, 46.20339788 ], [ 6.14699183, 46.20734569 ], [ 6.14243737, 46.20973289 ], [ 6.13574492, 46.20849579 ], [ 6.1314869, 46.20874445 ], [ 6.12733669, 46.2082782 ], [ 6.12352783, 46.20888122 ], [ 6.11788641, 46.21005615 ], [ 6.11279296, 46.21122483 ] ] } },
{ "type": "Feature", "properties": { "route_id": "92-7-M-j25-1", "direction_id": 0, "trip_id": "1.TA.92-7-M-j25-1.1.H", "headsign": "Genève, Hôpital", "route_short_name": "7", "route_long_name": "", "route_type": 3, "color": "00A828", "text_color": "FFFFFF" }, "geometry": { "type": "LineString", "coordinates": [ [ 6.15731347, 46.18188201 ], [ 6.15013593, 46.18462482 ], [ 6.14622826, 46.18515346 ], [ 6.14741403, 46.1872742 ], [ 6.14880642, 46.18991725 ], [ 6.1505761, 46.19316335 ], [ 6.14901304, 46.19459978 ] ] } },
{ "type": "Feature", "properties": { "route_id": "92-7-M-j25-1", "direction_id": 1, "trip_id": "1000.TA.92-7-M-j25-1.29.R", "headsign": "Genève, Bout-du-Monde", "route_short_name": "7", "route_long_name": "", "route_type": 3, "color": "00A828", "text_color": "FFFFFF" }, "geometry": { "type": "LineString", "coordinates": [ [ 6.10924462, 46.20429316 ], [ 6.11409552, 46.20526924 ], [ 6.11847032, 46.20634478 ], [ 6.12272833, 46.20607745 ], [ 6.12534243, 46.20429316 ], [ 6.12801941, 46.20469105 ], [ 6.13230437, 46.20532519 ], [ 6.13639171, 46.20597176 ], [ 6.13998497, 46.20650642 ], [ 6.14464722, 46.20365901 ], [ 6.14740505, 46.20301863 ], [ 6.15272308, 46.2016819 ], [ 6.15069289, 46.19940005 ], [ 6.14909388, 46.1982622 ], [ 6.15076475, 46.19552629 ], [ 6.14945321, 46.19473658 ], [ 6.15049526, 46.19315091 ], [ 6.14872557, 46.18979287 ], [ 6.14718047, 46.18729908 ], [ 6.14650674, 46.1861361 ], [ 6.15033356, 46.18455019 ], [ 6.15860704, 46.1812165 ] ] } },
{ "type": "Feature", "properties": { "route_id": "92-7-M-j26-1", "direction_id": 0, "trip_id": "1.TA.92-7-M-j26-1.1.H", "headsign": "Genève, Bel-Air", "route_short_name": "7", "route_long_name": "", "route_type": 3, "color": "00A828", "text_color": "FFFFFF" }, "geometry": { "type": "LineString", "coordinates": [ [ 6.16215539, 46.17602898 ], [ 6.16476949, 46.17913284 ], [ 6.16498508, 46.18354886 ], [ 6.15731347, 46.18188201 ], [ 6.15013593, 46.18462482 ], [ 6.14622826, 46.18515346 ], [ 6.14741403, 46.1872742 ], [ 6.14880642, 46.18991725 ], [ 6.1505761, 46.19316335 ], [ 6.14901304, 46.19459978 ], [ 6.1489232, 46.1981565 ], [ 6.15114204, 46.1996301 ], [ 6.15281291, 46.2018622 ], [ 6.15151934, 46.20339788 ], [ 6.14718047, 46.20311189 ], [ 6.14304822, 46.20472836 ] ] } },
{ "type": "Feature", "properties": { "route_id": "92-7-M-j26-1", "direction_id": 1, "trip_id": "387.TA.92-7-M-j26-1.10.R", "headsign": "Genève, Bel-Air", "route_short_name": "7", "route_long_name": "", "route_type": 3, "color": "00A828", "text_color": "FFFFFF" }, "geometry": { "type": "LineString", "coordinates": [ [ 6.10892122, 46.20410664 ], [ 6.11423027, 46.20537493 ], [ 6.11803014, 46.20627639 ], [ 6.12248579, 46.20640695 ], [ 6.12520768, 46.20430559 ], [ 6.12772296, 46.2046724 ], [ 6.13222352, 46.20542467 ], [ 6.13652645, 46.2060215 ], [ 6.13953581, 46.20686699 ], [ 6.14304822, 46.20472836 ] ] } },
{ "type": "Feature", "properties": { "route_id": "92-80-D-j25-1", "direction_id": 0, "trip_id": "1.TA.92-80-D-j25-1.1.H", "headsign": "Saint-Julien, gare", "route_short_name": "80", "route_long_name": "", "route_type": 3, "color": "F5B4D2", "text_color": "000000" }, "geometry": { "type": "LineString", "coordinates": [ [ 6.14304822, 46.20472836 ], [ 6.13988615, 46.20369009 ], [ 6.13356201, 46.20301863 ], [ 6.12969027, 46.20078658 ], [ 6.12880992, 46.19606726 ], [ 6.12762415, 46.18758516 ], [ 6.12881891, 46.17943762 ] ] } },
{ "type": "Feature", "properties": { "route_id": "92-80-D-j25-1", "direction_id": 1, "trip_id": "355.TA.92-80-D-j25-1.6.R", "headsign": "Genève, Bel-Air", "route_short_name": "80", "route_long_name": "", "route_type": 3, "color": "F5B4D2", "text_color": "000000" }, "geometry": { "type": "LineString", "coordinates": [ [ 6.1289806, 46.18019645 ], [ 6.12837873, 46.18740481 ], [ 6.12880992, 46.19606726 ], [ 6.12969027, 46.20078658 ], [ 6.13356201, 46.20301863 ], [ 6.13988615, 46.20369009 ], [ 6.14304822, 46.20472836 ] ] } },
{ "type": "Feature", "properties": { "route_id": "92-80-D-j26-1", "direction_id": 0, "trip_id": "1.TA.92-80-D-j26-1.1.H", "headsign": "Saint-Julien, gare", "route_short_name": "80", "route_long_name": "", "route_type": 3, "color": "F5B4D2", "text_color": "000000" }, "geometry": { "type": "LineString", "coordinates": [ [ 6.14304822, 46.20472836 ], [ 6.13988615, 46.20369009 ], [ 6.13356201, 46.20301863 ], [ 6.12969027, 46.20078658 ], [ 6.12880992, 46.19606726 ], [ 6.12762415, 46.18758516 ], [ 6.12881891, 46.17943762 ] ] } },
{ "type": "Feature", "properties": { "route_id": "92-80-D-j26-1", "direction_id": 1, "trip_id": "355.TA.92-80-D-j26-1.6.R", "headsign": "Genève, Bel-Air", "route_short_name": "80", "route_long_name": "", "route_type": 3, "color": "F5B4D2", "text_color": "000000" }, "geometry": { "type": "LineString", "coordinates": [ [ 6.1289806, 46.18019645 ], [ 6.12837873, 46.18740481 ], [ 6.12880992, 46.19606726 ], [ 6.12969027, 46.20078658 ], [ 6.13356201, 46.20301863 ], [ 6.13988615, 46.20369009 ], [ 6.14304822, 46.20472836 ] ] } },
{ "type": "Feature", "properties": { "route_id": "92-8-I-j25-1", "direction_id": 0, "trip_id": "1.TA.92-8-I-j25-1.1.H", "headsign": "Chêne-Bougeries, Conches place", "route_short_name": "8", "route_long_name": "", "route_type": 3, "color": "84471C", "text_color": "FFFFFF" }, "geometry": { "type": "LineString", "coordinates": [ [ 6.15185171, 46.20163216 ], [ 6.15543599, 46.19846117 ], [ 6.15405258, 46.19664554 ], [ 6.15633431, 46.19575636 ], [ 6.16078995, 46.193723 ], [ 6.16369151, 46.19242335 ], [ 6.1673207, 46.18936999 ], [ 6.17027616, 46.18686996 ], [ 6.17443536, 46.18413971 ] ] } },
{ "type": "Feature", "properties": { "route_id": "92-8-I-j25-1", "direction_id": 1, "trip_id": "1399.TA.92-8-I-j25-1.25.R", "headsign": "Genève, Rive", "route_short_name": "8", "route_long_name": "", "route_type": 3, "color": "84471C", "text_color": "FFFFFF" }, "geometry": { "type": "LineString", "coordinates": [ [ 6.17381552, 46.18465591 ], [ 6.17003361, 46.18736749 ], [ 6.16698832, 46.19021575 ], [ 6.16370947, 46.19259125 ], [ 6.16084385, 46.19387846 ], [ 6.15633431, 46.1963222 ], [ 6.15734042, 46.19860418 ], [ 6.15574142, 46.20096689 ], [ 6.15541802, 46.20255855 ], [ 6.15185171, 46.20163216 ] ] } },
{ "type": "Feature", "properties": { "route_id": "92-8-I-j26-1", "direction_id": 0, "trip_id": "1.TA.92-8-I-j26-1.1.H", "headsign": "Chêne-Bougeries, Conches place", "route_short_name": "8", "route_long_name": "", "route_type": 3, "color": "84471C", "text_color": "FFFFFF" }, "geometry": { "type": "LineString", "coordinates": [ [ 6.15185171, 46.20163216 ], [ 6.15543599, 46.19846117 ], [ 6.15405258, 46.19664554 ], [ 6.15633431, 46.19575636 ], [ 6.16078995, 46.193723 ], [ 6.16369151, 46.19242335 ], [ 6.1673207, 46.18936999 ], [ 6.17027616, 46.18686996 ], [ 6.17443536, 46.18413971 ] ] } },
{ "type": "Feature", "properties": { "route_id": "92-8-I-j26-1", "direction_id": 1, "trip_id": "267.TA.92-8-I-j26-1.11.R", "headsign": "Genève, Rive", "route_short_name": "8", "route_long_name": "", "route_type": 3, "color": "84471C", "text_color": "FFFFFF" }, "geometry": { "type": "LineString", "coordinates": [ [ 6.17381552, 46.18465591 ], [ 6.17003361, 46.18736749 ], [ 6.16698832, 46.19021575 ], [ 6.16370947, 46.19259125 ], [ 6.16084385, 46.19387846 ], [ 6.15633431, 46.1963222 ], [ 6.15734042, 46.19860418 ], [ 6.15574142, 46.20096689 ], [ 6.15541802, 46.20255855 ], [ 6.15185171, 46.20163216 ] ] } },
{ "type": "Feature", "properties": { "route_id": "92-91-A-j25-1", "direction_id": 0, "trip_id": "1.TA.92-91-A-j25-1.1.H", "headsign": "Genève, Beau-Séjour", "route_short_name": "91", "route_long_name": "", "route_type": 3, "color": "005F61", "text_color": "FFFFFF" }, "geometry": { "type": "LineString", "coordinates": [ [ 6.12609701, 46.20122802 ], [ 6.12969027, 46.20078658 ], [ 6.13588865, 46.20133372 ], [ 6.14032633, 46.20108502 ], [ 6.13930225, 46.19760932 ], [ 6.14093718, 46.19511589 ], [ 6.14234754, 46.19292705 ], [ 6.14400044, 46.19183881 ], [ 6.14597673, 46.19116098 ], [ 6.14901304, 46.19459978 ], [ 6.1505761, 46.19316335 ], [ 6.15024373, 46.1913662 ], [ 6.15037847, 46.19024062 ], [ 6.15045932, 46.18878542 ] ] } },
{ "type": "Feature", "properties": { "route_id": "92-91-A-j25-1", "direction_id": 1, "trip_id": "484.TA.92-91-A-j25-1.5.R", "headsign": "Genève, Pointe de la Jonction", "route_short_name": "91", "route_long_name": "", "route_type": 3, "color": "005F61", "text_color": "FFFFFF" }, "geometry": { "type": "LineString", "coordinates": [ [ 6.15045932, 46.18878542 ], [ 6.15154628, 46.18813865 ], [ 6.15247155, 46.18996078 ], [ 6.15327105, 46.19216217 ], [ 6.1505761, 46.19316335 ], [ 6.14901304, 46.19459978 ], [ 6.14597673, 46.19116098 ], [ 6.14400044, 46.19183881 ], [ 6.14234754, 46.19292705 ], [ 6.14093718, 46.19511589 ], [ 6.13930225, 46.19760932 ], [ 6.13754155, 46.19974824 ], [ 6.13588865, 46.20133372 ], [ 6.12969027, 46.20078658 ], [ 6.12609701, 46.20122802 ] ] } },
{ "type": "Feature", "properties": { "route_id": "92-91-A-j26-1", "direction_id": 0, "trip_id": "1.TA.92-91-A-j26-1.1.H", "headsign": "Genève, Beau-Séjour", "route_short_name": "91", "route_long_name": "", "route_type": 3, "color": "005F61", "text_color": "FFFFFF" }, "geometry": { "type": "LineString", "coordinates": [ [ 6.12609701, 46.20122802 ], [ 6.12969027, 46.20078658 ], [ 6.13588865, 46.20133372 ], [ 6.14032633, 46.20108502 ], [ 6.13930225, 46.19760932 ], [ 6.14093718, 46.19511589 ], [ 6.14234754, 46.19292705 ], [ 6.14400044, 46.19183881 ], [ 6.14597673, 46.19116098 ], [ 6.14901304, 46.19459978 ], [ 6.1505761, 46.19316335 ], [ 6.15024373, 46.1913662 ], [ 6.15037847, 46.19024062 ], [ 6.15045932, 46.18878542 ] ] } },
{ "type": "Feature", "properties": { "route_id": "92-91-A-j26-1", "direction_id": 1, "trip_id": "180.TA.92-91-A-j26-1.3.R", "headsign": "Genève, Pointe de la Jonction", "route_short_name": "91", "route_long_name": "", "route_type": 3, "color": "005F61", "text_color": "FFFFFF" }, "geometry": { "type": "LineString", "coordinates": [ [ 6.15045932, 46.18878542 ], [ 6.15154628, 46.18813865 ], [ 6.15247155, 46.18996078 ], [ 6.15327105, 46.19216217 ], [ 6.1505761, 46.19316335 ], [ 6.14901304, 46.19459978 ], [ 6.14597673, 46.19116098 ], [ 6.14400044, 46.19183881 ], [ 6.14234754, 46.19292705 ], [ 6.14093718, 46.19511589 ], [ 6.13930225, 46.19760932 ], [ 6.13754155, 46.19974824 ], [ 6.13588865, 46.20133372 ], [ 6.12969027, 46.20078658 ], [ 6.12609701, 46.20122802 ] ] } },
{ "type": "Feature", "properties": { "route_id": "92-92-D-j25-1", "direction_id": 0, "trip_id": "1.TA.92-92-D-j25-1.1.H", "headsign": "Genève, Place de Neuve", "route_short_name": "92", "route_long_name": "", "route_type": 3, "color": "89CBBE", "text_color": "000000" }, "geometry": { "type": "LineString", "coordinates": [ [ 6.14464722, 46.20365901 ], [ 6.14740505, 46.20301863 ], [ 6.15272308, 46.2016819 ], [ 6.15094441, 46.19992855 ], [ 6.15277698, 46.19841764 ], [ 6.15171696, 46.19765907 ], [ 6.15039644, 46.1963906 ], [ 6.14749488, 46.19842386 ], [ 6.14835727, 46.19958036 ], [ 6.14852795, 46.20013995 ], [ 6.14819557, 46.20083632 ], [ 6.14781828, 46.20146429 ], [ 6.14656063, 46.20105393 ], [ 6.14399145, 46.20152646 ] ] } },
{ "type": "Feature", "properties": { "route_id": "92-92-D-j26-1", "direction_id": 0, "trip_id": "1.TA.92-92-D-j26-1.1.H", "headsign": "Genève, Place de Neuve", "route_short_name": "92", "route_long_name": "", "route_type": 3, "color": "89CBBE", "text_color": "000000" }, "geometry": { "type": "LineString", "coordinates": [ [ 6.14464722, 46.20365901 ], [ 6.14740505, 46.20301863 ], [ 6.15272308, 46.2016819 ], [ 6.15094441, 46.19992855 ], [ 6.15277698, 46.19841764 ], [ 6.15171696, 46.19765907 ], [ 6.15039644, 46.1963906 ], [ 6.14749488, 46.19842386 ], [ 6.14835727, 46.19958036 ], [ 6.14852795, 46.20013995 ], [ 6.14819557, 46.20083632 ], [ 6.14781828, 46.20146429 ], [ 6.14656063, 46.20105393 ], [ 6.14399145, 46.20152646 ] ] } },
{ "type": "Feature", "properties": { "route_id": "92-97-j25-1", "direction_id": 0, "trip_id": "1.TA.92-97-j25-1.1.H", "headsign": "Vessy, Grands-Esserts", "route_short_name": "97", "route_long_name": "", "route_type": 700, "color": null, "text_color": null }, "geometry": { "type": "LineString", "coordinates": [ [ 6.15731347, 46.18188201 ], [ 6.16498508, 46.18354886 ], [ 6.16476949, 46.17913284 ], [ 6.16215539, 46.17602898 ] ] } },
{ "type": "Feature", "properties": { "route_id": "92-97-j25-1", "direction_id": 1, "trip_id": "180.TA.92-97-j25-1.3.R", "headsign": "Genève, Bout-du-Monde", "route_short_name": "97", "route_long_name": "", "route_type": 700, "color": null, "text_color": null }, "geometry": { "type": "LineString", "coordinates": [ [ 6.16215539, 46.17602898 ], [ 6.16476949, 46.17913284 ], [ 6.16498508, 46.18354886 ], [ 6.15731347, 46.18188201 ] ] } },
{ "type": "Feature", "properties": { "route_id": "92-9-L-j25-1", "direction_id": 0, "trip_id": "1.TA.92-9-L-j25-1.1.H", "headsign": "Vernier, Lignon Tours", "route_short_name": "9", "route_long_name": "", "route_type": 3, "color": "E2001D", "text_color": "FFFFFF" }, "geometry": { "type": "LineString", "coordinates": [ [ 6.14243737, 46.20973289 ], [ 6.13574492, 46.20849579 ], [ 6.13390337, 46.20717784 ], [ 6.13222352, 46.20542467 ], [ 6.12772296, 46.2046724 ], [ 6.12520768, 46.20430559 ], [ 6.12248579, 46.20640695 ], [ 6.11803014, 46.20627639 ], [ 6.11423027, 46.20537493 ], [ 6.10825647, 46.2057666 ] ] } },
{ "type": "Feature", "properties": { "route_id": "92-9-L-j25-1", "direction_id": 1, "trip_id": "1559.TA.92-9-L-j25-1.19.R", "headsign": "Genève, gare Cornavin", "route_short_name": "9", "route_long_name": "", "route_type": 3, "color": "E2001D", "text_color": "FFFFFF" }, "geometry": { "type": "LineString", "coordinates": [ [ 6.10827444, 46.205692 ], [ 6.11409552, 46.20526924 ], [ 6.11847032, 46.20634478 ], [ 6.12272833, 46.20607745 ], [ 6.12534243, 46.20429316 ], [ 6.12801941, 46.20469105 ], [ 6.13190013, 46.2052195 ], [ 6.13418185, 46.20735812 ], [ 6.13599645, 46.20851444 ], [ 6.13979632, 46.2089123 ] ] } },
{ "type": "Feature", "properties": { "route_id": "92-9-L-j26-1", "direction_id": 0, "trip_id": "10.TA.92-9-L-j26-1.19.H", "headsign": "Vernier, Lignon Tours", "route_short_name": "9", "route_long_name": "", "route_type": 3, "color": "E2001D", "text_color": "FFFFFF" }, "geometry": { "type": "LineString", "coordinates": [ [ 6.19079368, 46.20432424 ], [ 6.18702974, 46.20403825 ], [ 6.18354428, 46.20526302 ], [ 6.18047204, 46.20497082 ], [ 6.17531571, 46.20384552 ], [ 6.16991683, 46.20288807 ], [ 6.16627866, 46.20303106 ], [ 6.16211946, 46.20170055 ], [ 6.15601091, 46.2022912 ], [ 6.15151934, 46.20339788 ], [ 6.14699183, 46.20734569 ], [ 6.14243737, 46.20973289 ], [ 6.13574492, 46.20849579 ], [ 6.13390337, 46.20717784 ], [ 6.13222352, 46.20542467 ], [ 6.12772296, 46.2046724 ], [ 6.12520768, 46.20430559 ], [ 6.12248579, 46.20640695 ], [ 6.11803014, 46.20627639 ], [ 6.11423027, 46.20537493 ], [ 6.10825647, 46.2057666 ] ] } },
{ "type": "Feature", "properties": { "route_id": "92-9-L-j26-1", "direction_id": 1, "trip_id": "334.TA.92-9-L-j26-1.27.R", "headsign": "Thônex, Belle-Terre Pl. Araire", "route_short_name": "9", "route_long_name": "", "route_type": 3, "color": "E2001D", "text_color": "FFFFFF" }, "geometry": { "type": "LineString", "coordinates": [ [ 6.10825647, 46.2057666 ], [ 6.11423027, 46.20537493 ], [ 6.11803014, 46.20627639 ], [ 6.12248579, 46.20640695 ], [ 6.12520768, 46.20430559 ], [ 6.12772296, 46.2046724 ], [ 6.13222352, 46.20542467 ], [ 6.13390337, 46.20717784 ], [ 6.13574492, 46.20849579 ], [ 6.14243737, 46.20973289 ], [ 6.14355128, 46.20815387 ], [ 6.14699183, 46.20734569 ], [ 6.15281291, 46.2018622 ], [ 6.15601091, 46.2022912 ], [ 6.16211946, 46.20170055 ], [ 6.16627866, 46.20303106 ], [ 6.16991683, 46.20288807 ], [ 6.17531571, 46.20384552 ], [ 6.18047204, 46.20497082 ], [ 6.18354428, 46.20526302 ], [ 6.18702974, 46.20403825 ] ] } },
{ "type": "Feature", "properties": { "route_id": "92-A01-C-j25-1", "direction_id": 0, "trip_id": "1.TA.92-A01-C-j25-1.1.H", "headsign": "Genève, gare Cornavin", "route_short_name": "EV", "route_long_name": "", "route_type": 700, "color": null, "text_color": null }, "geometry": { "type": "LineString", "coordinates": [ [ 6.12762415, 46.18758516 ], [ 6.14243737, 46.20973289 ] ] } },
{ "type": "Feature", "properties": { "route_id": "92-A01-C-j25-1", "direction_id": 1, "trip_id": "100.TA.92-A01-C-j25-1.12.R", "headsign": "Annemasse, gare", "route_short_name": "EV", "route_long_name": "", "route_type": 700, "color": null, "text_color": null }, "geometry": { "type": "LineString", "coordinates": [ [ 6.14232957, 46.20965207 ], [ 6.12787568, 46.18700057 ], [ 6.15336088, 46.19224302 ], [ 6.16478745, 46.20009021 ], [ 6.19250946, 46.1953584 ] ] } },
{ "type": "Feature", "properties": { "route_id": "92-A1-j25-1", "direction_id": 0, "trip_id": "1.TA.92-A1-j25-1.1.H", "headsign": "Grand-Saconnex, Fret", "route_short_name": "A1", "route_long_name": "", "route_type": 3, "color": "9578D3", "text_color": "FFFFFF" }, "geometry": { "type": "LineString", "coordinates": [ [ 6.13822427, 46.18063806 ], [ 6.13565509, 46.183213 ], [ 6.13585272, 46.18575051 ], [ 6.13693968, 46.18902795 ], [ 6.13534966, 46.19066349 ], [ 6.13851173, 46.19274671 ], [ 6.14091023, 46.19521538 ], [ 6.13755053, 46.19710567 ], [ 6.13262776, 46.19987881 ], [ 6.12978909, 46.20046327 ], [ 6.13251098, 46.20396987 ], [ 6.13418185, 46.20735812 ], [ 6.13140606, 46.20882527 ], [ 6.12784873, 46.20848957 ], [ 6.1234919, 46.20894338 ], [ 6.11731149, 46.21024886 ], [ 6.11273906, 46.211287 ] ] } },
{ "type": "Feature", "properties": { "route_id": "92-A1-j26-1", "direction_id": 0, "trip_id": "1.TA.92-A1-j26-1.1.H", "headsign": "Grand-Saconnex, Fret", "route_short_name": "A1", "route_long_name": "", "route_type": 3, "color": "9578D3", "text_color": "FFFFFF" }, "geometry": { "type": "LineString", "coordinates": [ [ 6.13822427, 46.18063806 ], [ 6.13565509, 46.183213 ], [ 6.13585272, 46.18575051 ], [ 6.13693968, 46.18902795 ], [ 6.13534966, 46.19066349 ], [ 6.13851173, 46.19274671 ], [ 6.14091023, 46.19521538 ], [ 6.13755053, 46.19710567 ], [ 6.13262776, 46.19987881 ], [ 6.12978909, 46.20046327 ], [ 6.13251098, 46.20396987 ], [ 6.13418185, 46.20735812 ], [ 6.13140606, 46.20882527 ], [ 6.12784873, 46.20848957 ], [ 6.1234919, 46.20894338 ], [ 6.11731149, 46.21024886 ], [ 6.11273906, 46.211287 ] ] } },
{ "type": "Feature", "properties": { "route_id": "92-A2-j25-1", "direction_id": 0, "trip_id": "1.TA.92-A2-j25-1.1.H", "headsign": "Grand-Saconnex, Fret", "route_short_name": "A2", "route_long_name": "", "route_type": 3, "color": "006E3D", "text_color": "FFFFFF" }, "geometry": { "type": "LineString", "coordinates": [ [ 6.1416738, 46.22091528 ], [ 6.14585097, 46.21997055 ], [ 6.14772844, 46.21662037 ], [ 6.14530299, 46.21312079 ], [ 6.14294941, 46.20989452 ], [ 6.13784698, 46.21003128 ], [ 6.13326557, 46.21198322 ], [ 6.1298879, 46.21361186 ], [ 6.12490225, 46.21509127 ], [ 6.11791336, 46.21667009 ], [ 6.11427518, 46.21982138 ] ] } },
{ "type": "Feature", "properties": { "route_id": "92-A2-j26-1", "direction_id": 0, "trip_id": "1.TA.92-A2-j26-1.1.H", "headsign": "Genève-Aéroport, Terminal", "route_short_name": "A2", "route_long_name": "", "route_type": 3, "color": "006E3D", "text_color": "FFFFFF" }, "geometry": { "type": "LineString", "coordinates": [ [ 6.13768528, 46.22236342 ], [ 6.14585097, 46.21997055 ], [ 6.14772844, 46.21662037 ], [ 6.14530299, 46.21312079 ], [ 6.14294941, 46.20989452 ], [ 6.13784698, 46.21003128 ], [ 6.13326557, 46.21198322 ], [ 6.1298879, 46.21361186 ], [ 6.12490225, 46.21509127 ], [ 6.11791336, 46.21667009 ], [ 6.11427518, 46.21982138 ] ] } },
{ "type": "Feature", "properties": { "route_id": "92-A4-j25-1", "direction_id": 0, "trip_id": "1.TA.92-A4-j25-1.1.H", "headsign": "Grand-Saconnex, Fret", "route_short_name": "A4", "route_long_name": "", "route_type": 3, "color": "008BBE", "text_color": "FFFFFF" }, "geometry": { "type": "LineString", "coordinates": [ [ 6.11345772, 46.18856154 ], [ 6.10793308, 46.19370434 ], [ 6.11338585, 46.19471793 ], [ 6.11199346, 46.2057293 ], [ 6.108508, 46.20403204 ] ] } },
{ "type": "Feature", "properties": { "route_id": "92-A4-j26-1", "direction_id": 0, "trip_id": "1.TA.92-A4-j26-1.1.H", "headsign": "Grand-Saconnex, Fret", "route_short_name": "A4", "route_long_name": "", "route_type": 3, "color": "008BBE", "text_color": "FFFFFF" }, "geometry": { "type": "LineString", "coordinates": [ [ 6.11345772, 46.18856154 ], [ 6.10793308, 46.19370434 ], [ 6.11338585, 46.19471793 ], [ 6.11199346, 46.2057293 ], [ 6.108508, 46.20403204 ] ] } },
{ "type": "Feature", "properties": { "route_id": "92-A6-j25-1", "direction_id": 0, "trip_id": "1.TA.92-A6-j25-1.1.H", "headsign": "Grand-Saconnex, Fret", "route_short_name": "A6", "route_long_name": "", "route_type": 3, "color": "E2001E", "text_color": "FFFFFF" }, "geometry": { "type": "LineString", "coordinates": [ [ 6.15868789, 46.18707519 ], [ 6.15575938, 46.18894089 ], [ 6.15429513, 46.18811377 ], [ 6.1526063, 46.19017221 ], [ 6.15336088, 46.19224302 ], [ 6.15185171, 46.19333746 ], [ 6.14882439, 46.19502884 ], [ 6.14615639, 46.19669529 ], [ 6.14356026, 46.19768394 ], [ 6.14091023, 46.19521538 ], [ 6.13755053, 46.19710567 ], [ 6.13262776, 46.19987881 ], [ 6.12978909, 46.20046327 ], [ 6.13251098, 46.20396987 ], [ 6.13418185, 46.20735812 ], [ 6.13140606, 46.20882527 ], [ 6.12784873, 46.20848957 ], [ 6.1234919, 46.20894338 ], [ 6.11731149, 46.21024886 ], [ 6.11273906, 46.211287 ] ] } },
{ "type": "Feature", "properties": { "route_id": "92-A6-j26-1", "direction_id": 0, "trip_id": "1.TA.92-A6-j26-1.1.H", "headsign": "Grand-Saconnex, Fret", "route_short_name": "A6", "route_long_name": "", "route_type": 3, "color": "E2001E", "text_color": "FFFFFF" }, "geometry": { "type": "LineString", "coordinates": [ [ 6.15868789, 46.18707519 ], [ 6.15575938, 46.18894089 ], [ 6.15429513, 46.18811377 ], [ 6.1526063, 46.19017221 ], [ 6.15336088, 46.19224302 ], [ 6.15185171, 46.19333746 ], [ 6.14882439, 46.19502884 ], [ 6.14615639, 46.19669529 ], [ 6.14356026, 46.19768394 ], [ 6.14091023, 46.19521538 ], [ 6.13755053, 46.19710567 ], [ 6.13262776, 46.19987881 ], [ 6.12978909, 46.20046327 ], [ 6.13251098, 46.20396987 ], [ 6.13418185, 46.20735812 ], [ 6.13140606, 46.20882527 ], [ 6.12784873, 46.20848957 ], [ 6.1234919, 46.20894338 ], [ 6.11731149, 46.21024886 ], [ 6.11273906, 46.211287 ] ] } },
{ "type": "Feature", "properties": { "route_id": "92-A-j25-1", "direction_id": 0, "trip_id": "1.TA.92-A-j25-1.1.H", "headsign": "Vésenaz, Capite", "route_short_name": "A", "route_long_name": "", "route_type": 3, "color": "FF8000", "text_color": "FFFFFF" }, "geometry": { "type": "LineString", "coordinates": [ [ 6.15350461, 46.2020052 ], [ 6.15690923, 46.20175029 ], [ 6.1623081, 46.20168811 ], [ 6.16627866, 46.20296889 ], [ 6.17014141, 46.2029005 ], [ 6.17554927, 46.2037647 ], [ 6.17875625, 46.20537493 ], [ 6.18063373, 46.20903042 ], [ 6.18377784, 46.21267944 ], [ 6.18130747, 46.21605473 ], [ 6.18342749, 46.21753407 ], [ 6.18519718, 46.21925578 ] ] } },
{ "type": "Feature", "properties": { "route_id": "92-A-j26-1", "direction_id": 0, "trip_id": "102.TA.92-A-j26-1.5.H", "headsign": "Gy, temple", "route_short_name": "A", "route_long_name": "", "route_type": 3, "color": "FF8000", "text_color": "FFFFFF" }, "geometry": { "type": "LineString", "coordinates": [ [ 6.15350461, 46.2020052 ], [ 6.15690923, 46.20175029 ], [ 6.1623081, 46.20168811 ], [ 6.16627866, 46.20296889 ], [ 6.17014141, 46.2029005 ], [ 6.17554927, 46.2037647 ], [ 6.18062475, 46.20489622 ], [ 6.18063373, 46.20903042 ], [ 6.18377784, 46.21267944 ], [ 6.18130747, 46.21605473 ], [ 6.18342749, 46.21753407 ], [ 6.18519718, 46.21925578 ] ] } },
{ "type": "Feature", "properties": { "route_id": "92-E+-j25-1", "direction_id": 0, "trip_id": "1.TA.92-E+-j25-1.1.H", "headsign": "Hermance, village", "route_short_name": "E+", "route_long_name": "", "route_type": 3, "color": "000000", "text_color": "FFFFFF" }, "geometry": { "type": "LineString", "coordinates": [ [ 6.14223974, 46.2093599 ], [ 6.14363213, 46.20815387 ], [ 6.14735115, 46.20703485 ], [ 6.15094441, 46.20337301 ], [ 6.15272308, 46.2016819 ], [ 6.17213567, 46.21154187 ] ] } },
{ "type": "Feature", "properties": { "route_id": "92-E+-j25-1", "direction_id": 1, "trip_id": "10.TA.92-E+-j25-1.3.R", "headsign": "Genève, gare Cornavin", "route_short_name": "E+", "route_long_name": "", "route_type": 3, "color": "000000", "text_color": "FFFFFF" }, "geometry": { "type": "LineString", "coordinates": [ [ 6.17192906, 46.21140511 ], [ 6.15578633, 46.20179381 ], [ 6.1524446, 46.20191816 ], [ 6.15151035, 46.20337301 ], [ 6.14665047, 46.20760679 ], [ 6.14223974, 46.2093599 ] ] } },
{ "type": "Feature", "properties": { "route_id": "92-E+-j26-1", "direction_id": 0, "trip_id": "1.TA.92-E+-j26-1.3.H", "headsign": "Hermance, village", "route_short_name": "E+", "route_long_name": "", "route_type": 3, "color": "000000", "text_color": "FFFFFF" }, "geometry": { "type": "LineString", "coordinates": [ [ 6.14223974, 46.2093599 ], [ 6.14363213, 46.20815387 ], [ 6.14735115, 46.20703485 ], [ 6.15206731, 46.20165703 ], [ 6.17213567, 46.21154187 ] ] } },
{ "type": "Feature", "properties": { "route_id": "92-E+-j26-1", "direction_id": 1, "trip_id": "6.TA.92-E+-j26-1.2.R", "headsign": "Genève, gare Cornavin", "route_short_name": "E+", "route_long_name": "", "route_type": 3, "color": "000000", "text_color": "FFFFFF" }, "geometry": { "type": "LineString", "coordinates": [ [ 6.17192906, 46.21140511 ], [ 6.15578633, 46.20179381 ], [ 6.1524446, 46.20191816 ], [ 6.15151035, 46.20337301 ], [ 6.14665047, 46.20760679 ], [ 6.14223974, 46.2093599 ] ] } },
{ "type": "Feature", "properties": { "route_id": "92-E-j25-1", "direction_id": 0, "trip_id": "1.TA.92-E-j25-1.1.H", "headsign": "Collonge-Bellerive, Bois-Caran", "route_short_name": "E", "route_long_name": "", "route_type": 3, "color": "FF8000", "text_color": "FFFFFF" }, "geometry": { "type": "LineString", "coordinates": [ [ 6.1539358, 46.20263937 ], [ 6.15909213, 46.20612097 ], [ 6.17213567, 46.21154187 ], [ 6.17677996, 46.21639038 ], [ 6.18055289, 46.22157409 ] ] } },
{ "type": "Feature", "properties": { "route_id": "92-E-j25-1", "direction_id": 1, "trip_id": "1060.TA.92-E-j25-1.18.R", "headsign": "Genève, Rive", "route_short_name": "E", "route_long_name": "", "route_type": 3, "color": "FF8000", "text_color": "FFFFFF" }, "geometry": { "type": "LineString", "coordinates": [ [ 6.18009474, 46.22119497 ], [ 6.17628589, 46.21594285 ], [ 6.17192906, 46.21140511 ], [ 6.16186793, 46.20663075 ], [ 6.16034977, 46.20533763 ], [ 6.15748415, 46.20352223 ], [ 6.15578633, 46.20179381 ], [ 6.1539358, 46.20263937 ] ] } },
{ "type": "Feature", "properties": { "route_id": "92-E-j26-1", "direction_id": 0, "trip_id": "1.TA.92-E-j26-1.1.H", "headsign": "Collonge-Bellerive, Bois-Caran", "route_short_name": "E", "route_long_name": "", "route_type": 3, "color": "FF8000", "text_color": "FFFFFF" }, "geometry": { "type": "LineString", "coordinates": [ [ 6.1539358, 46.20263937 ], [ 6.15578633, 46.20235959 ], [ 6.15854416, 46.20410664 ], [ 6.16025096, 46.20512625 ], [ 6.1617242, 46.20636964 ], [ 6.17213567, 46.21154187 ], [ 6.17677996, 46.21639038 ], [ 6.18055289, 46.22157409 ] ] } },
{ "type": "Feature", "properties": { "route_id": "92-E-j26-1", "direction_id": 1, "trip_id": "238.TA.92-E-j26-1.7.R", "headsign": "Genève, Rive", "route_short_name": "E", "route_long_name": "", "route_type": 3, "color": "FF8000", "text_color": "FFFFFF" }, "geometry": { "type": "LineString", "coordinates": [ [ 6.18009474, 46.22119497 ], [ 6.17628589, 46.21594285 ], [ 6.17192906, 46.21140511 ], [ 6.16186793, 46.20663075 ], [ 6.16034977, 46.20533763 ], [ 6.15748415, 46.20352223 ], [ 6.15578633, 46.20179381 ], [ 6.1539358, 46.20263937 ] ] } },
{ "type": "Feature", "properties": { "route_id": "92-G+-j25-1", "direction_id": 0, "trip_id": "1.TA.92-G+-j25-1.1.H", "headsign": "Veigy, douane (F)", "route_short_name": "G+", "route_long_name": "", "route_type": 3, "color": "000000", "text_color": "FFFFFF" }, "geometry": { "type": "LineString", "coordinates": [ [ 6.14223974, 46.2093599 ], [ 6.14363213, 46.20815387 ], [ 6.14735115, 46.20703485 ], [ 6.15094441, 46.20337301 ], [ 6.15272308, 46.2016819 ], [ 6.17213567, 46.21154187 ] ] } },
{ "type": "Feature", "properties": { "route_id": "92-G+-j25-1", "direction_id": 1, "trip_id": "21.TA.92-G+-j25-1.3.R", "headsign": "Genève, gare Cornavin", "route_short_name": "G+", "route_long_name": "", "route_type": 3, "color": "000000", "text_color": "FFFFFF" }, "geometry": { "type": "LineString", "coordinates": [ [ 6.17192906, 46.21140511 ], [ 6.15578633, 46.20179381 ], [ 6.1524446, 46.20191816 ], [ 6.15151035, 46.20337301 ], [ 6.14665047, 46.20760679 ], [ 6.14223974, 46.2093599 ] ] } },
{ "type": "Feature", "properties": { "route_id": "92-G+-j26-1", "direction_id": 1, "trip_id": "15.TA.92-G+-j26-1.2.R", "headsign": "Genève, gare Cornavin", "route_short_name": "G+", "route_long_name": "", "route_type": 3, "color": "000000", "text_color": "FFFFFF" }, "geometry": { "type": "LineString", "coordinates": [ [ 6.17192906, 46.21140511 ], [ 6.15578633, 46.20179381 ], [ 6.1524446, 46.20191816 ], [ 6.15151035, 46.20337301 ], [ 6.14665047, 46.20760679 ], [ 6.14223974, 46.2093599 ] ] } },
{ "type": "Feature", "properties": { "route_id": "92-G+-j26-1", "direction_id": 0, "trip_id": "2.TA.92-G+-j26-1.3.H", "headsign": "Veigy, douane (F)", "route_short_name": "G+", "route_long_name": "", "route_type": 3, "color": "000000", "text_color": "FFFFFF" }, "geometry": { "type": "LineString", "coordinates": [ [ 6.14223974, 46.2093599 ], [ 6.14363213, 46.20815387 ], [ 6.14735115, 46.20703485 ], [ 6.15206731, 46.20165703 ], [ 6.17213567, 46.21154187 ] ] } },
{ "type": "Feature", "properties": { "route_id": "92-G-j25-1", "direction_id": 0, "trip_id": "1.TA.92-G-j25-1.1.H", "headsign": "Veigy, douane (F)", "route_short_name": "G", "route_long_name": "", "route_type": 3, "color": "F5B4D2", "text_color": "000000" }, "geometry": { "type": "LineString", "coordinates": [ [ 6.1539358, 46.20263937 ], [ 6.15909213, 46.20612097 ], [ 6.17213567, 46.21154187 ], [ 6.17677996, 46.21639038 ], [ 6.18055289, 46.22157409 ] ] } },
{ "type": "Feature", "properties": { "route_id": "92-G-j25-1", "direction_id": 1, "trip_id": "1000.TA.92-G-j25-1.32.R", "headsign": "Genève, Rive", "route_short_name": "G", "route_long_name": "", "route_type": 3, "color": "F5B4D2", "text_color": "000000" }, "geometry": { "type": "LineString", "coordinates": [ [ 6.18009474, 46.22119497 ], [ 6.17628589, 46.21594285 ], [ 6.17192906, 46.21140511 ], [ 6.16186793, 46.20663075 ], [ 6.16034977, 46.20533763 ], [ 6.15748415, 46.20352223 ], [ 6.15578633, 46.20179381 ], [ 6.1539358, 46.20263937 ] ] } },
{ "type": "Feature", "properties": { "route_id": "92-G-j26-1", "direction_id": 0, "trip_id": "102.TA.92-G-j26-1.4.H", "headsign": "Veigy, douane (F)", "route_short_name": "G", "route_long_name": "", "route_type": 3, "color": "F5B4D2", "text_color": "000000" }, "geometry": { "type": "LineString", "coordinates": [ [ 6.1539358, 46.20263937 ], [ 6.15578633, 46.20235959 ], [ 6.15854416, 46.20410664 ], [ 6.16025096, 46.20512625 ], [ 6.1617242, 46.20636964 ], [ 6.17213567, 46.21154187 ], [ 6.17677996, 46.21639038 ], [ 6.18055289, 46.22157409 ] ] } },
{ "type": "Feature", "properties": { "route_id": "92-G-j26-1", "direction_id": 1, "trip_id": "173.TA.92-G-j26-1.6.R", "headsign": "Genève, Rive", "route_short_name": "G", "route_long_name": "", "route_type": 3, "color": "F5B4D2", "text_color": "000000" }, "geometry": { "type": "LineString", "coordinates": [ [ 6.18009474, 46.22119497 ], [ 6.17628589, 46.21594285 ], [ 6.17192906, 46.21140511 ], [ 6.16186793, 46.20663075 ], [ 6.16034977, 46.20533763 ], [ 6.15748415, 46.20352223 ], [ 6.15578633, 46.20179381 ], [ 6.1539358, 46.20263937 ] ] } }
]
}
